<?xml version="1.0" encoding="UTF-8"?><kml xmlns="http://www.opengis.net/kml/2.2" xmlns:gx="http://www.google.com/kml/ext/2.2" xmlns:kml="http://www.opengis.net/kml/2.2" xmlns:atom="http://www.w3.org/2005/Atom"><Document><name>2025-12-23T18:25:10.000Z</name>
<Placemark>
<gx:Track>

<when>2025-12-23T18:25:10.000Z</when>
<gx:coord>-109.9919415 24.07927983333333 2.2</gx:coord>

<when>2025-12-23T18:25:54.000Z</when>
<gx:coord>-109.99188583333334 24.079293999999997 7.5</gx:coord>

<when>2025-12-23T18:36:21.000Z</when>
<gx:coord>-109.99184783333334 24.079262499999995 8.4</gx:coord>

<when>2025-12-23T18:36:32.000Z</when>
<gx:coord>-109.9917785 24.07920633333333 8.0</gx:coord>

<when>2025-12-23T18:36:43.000Z</when>
<gx:coord>-109.99182216666668 24.079129166666668 6.6</gx:coord>

<when>2025-12-23T18:37:05.000Z</when>
<gx:coord>-109.99179233333334 24.079222333333338 7.6</gx:coord>

<when>2025-12-23T18:37:16.000Z</when>
<gx:coord>-109.99185766666666 24.079245500000003 6.5</gx:coord>

<when>2025-12-23T18:37:27.000Z</when>
<gx:coord>-109.99190916666666 24.079254666666664 5.1</gx:coord>

<when>2025-12-23T18:37:49.000Z</when>
<gx:coord>-109.99198083333334 24.0792735 7.7</gx:coord>

<when>2025-12-23T18:38:00.000Z</when>
<gx:coord>-109.99203933333335 24.07933216666667 7.0</gx:coord>

<when>2025-12-23T18:38:11.000Z</when>
<gx:coord>-109.99206566666665 24.079470833333335 6.8</gx:coord>

<when>2025-12-23T18:38:22.000Z</when>
<gx:coord>-109.992095 24.0796145 7.5</gx:coord>

<when>2025-12-23T18:38:33.000Z</when>
<gx:coord>-109.99214850000001 24.079734500000004 8.3</gx:coord>

<when>2025-12-23T18:38:44.000Z</when>
<gx:coord>-109.99224000000001 24.07984916666667 9.6</gx:coord>

<when>2025-12-23T18:38:55.000Z</when>
<gx:coord>-109.99233033333333 24.07998 10.5</gx:coord>

<when>2025-12-23T18:39:06.000Z</when>
<gx:coord>-109.99238266666667 24.080145 9.9</gx:coord>

<when>2025-12-23T18:39:17.000Z</when>
<gx:coord>-109.99246833333333 24.080315499999998 10.5</gx:coord>

<when>2025-12-23T18:39:28.000Z</when>
<gx:coord>-109.9925355 24.080448333333333 12.1</gx:coord>

<when>2025-12-23T18:39:39.000Z</when>
<gx:coord>-109.9925905 24.080613000000003 10.6</gx:coord>

<when>2025-12-23T18:39:50.000Z</when>
<gx:coord>-109.99264399999998 24.080784 10.1</gx:coord>

<when>2025-12-23T18:40:01.000Z</when>
<gx:coord>-109.99268849999999 24.080914 10.2</gx:coord>

<when>2025-12-23T18:40:12.000Z</when>
<gx:coord>-109.99274783333334 24.08110766666667 10.2</gx:coord>

<when>2025-12-23T18:40:23.000Z</when>
<gx:coord>-109.99281433333333 24.081318000000003 9.3</gx:coord>

<when>2025-12-23T18:40:34.000Z</when>
<gx:coord>-109.9928405 24.081562666666667 7.9</gx:coord>

<when>2025-12-23T18:40:45.000Z</when>
<gx:coord>-109.99288666666668 24.08177016666667 9.0</gx:coord>

<when>2025-12-23T18:40:56.000Z</when>
<gx:coord>-109.99294066666668 24.08190666666667 9.5</gx:coord>

<when>2025-12-23T18:41:07.000Z</when>
<gx:coord>-109.99305783333332 24.081914833333332 7.8</gx:coord>

<when>2025-12-23T18:41:29.000Z</when>
<gx:coord>-109.99307633333335 24.081825333333335 8.4</gx:coord>

<when>2025-12-23T18:41:40.000Z</when>
<gx:coord>-109.99306833333334 24.081521666666664 8.4</gx:coord>

<when>2025-12-23T18:41:51.000Z</when>
<gx:coord>-109.99301750000001 24.08110316666667 11.7</gx:coord>

<when>2025-12-23T18:42:02.000Z</when>
<gx:coord>-109.99297049999998 24.0804285 15.5</gx:coord>

<when>2025-12-23T18:42:13.000Z</when>
<gx:coord>-109.99294783333335 24.079931166666665 18.0</gx:coord>

<when>2025-12-23T18:42:24.000Z</when>
<gx:coord>-109.992958 24.079488666666666 18.5</gx:coord>

<when>2025-12-23T18:42:35.000Z</when>
<gx:coord>-109.9929365 24.07908616666667 19.9</gx:coord>

<when>2025-12-23T18:42:46.000Z</when>
<gx:coord>-109.99289900000001 24.078565333333337 22.8</gx:coord>

<when>2025-12-23T18:42:57.000Z</when>
<gx:coord>-109.99283633333334 24.07801733333333 25.2</gx:coord>

<when>2025-12-23T18:43:08.000Z</when>
<gx:coord>-109.99278016666668 24.077443333333335 26.0</gx:coord>

<when>2025-12-23T18:43:19.000Z</when>
<gx:coord>-109.99271599999999 24.076869000000002 25.9</gx:coord>

<when>2025-12-23T18:43:30.000Z</when>
<gx:coord>-109.99266483333334 24.076461333333334 28.3</gx:coord>

<when>2025-12-23T18:43:41.000Z</when>
<gx:coord>-109.99262666666667 24.07613216666667 28.6</gx:coord>

<when>2025-12-23T18:43:52.000Z</when>
<gx:coord>-109.99253916666666 24.075446166666666 29.6</gx:coord>

<when>2025-12-23T18:44:03.000Z</when>
<gx:coord>-109.99249066666668 24.07474216666667 29.9</gx:coord>

<when>2025-12-23T18:44:14.000Z</when>
<gx:coord>-109.9924835 24.074462999999998 30.7</gx:coord>

<when>2025-12-23T18:44:25.000Z</when>
<gx:coord>-109.99248533333333 24.074168333333333 30.7</gx:coord>

<when>2025-12-23T18:44:36.000Z</when>
<gx:coord>-109.99246766666666 24.073751500000004 31.7</gx:coord>

<when>2025-12-23T18:44:47.000Z</when>
<gx:coord>-109.99246233333334 24.073091666666663 32.6</gx:coord>

<when>2025-12-23T18:44:58.000Z</when>
<gx:coord>-109.99245350000001 24.0724255 33.0</gx:coord>

<when>2025-12-23T18:45:09.000Z</when>
<gx:coord>-109.99244816666666 24.071934166666665 33.1</gx:coord>

<when>2025-12-23T18:45:20.000Z</when>
<gx:coord>-109.99244466666666 24.07171933333333 33.3</gx:coord>

<when>2025-12-23T18:45:31.000Z</when>
<gx:coord>-109.99244183333333 24.071340666666668 32.7</gx:coord>

<when>2025-12-23T18:45:42.000Z</when>
<gx:coord>-109.99242466666668 24.071010166666664 33.5</gx:coord>

<when>2025-12-23T18:45:53.000Z</when>
<gx:coord>-109.99242733333334 24.070578500000003 33.5</gx:coord>

<when>2025-12-23T18:46:04.000Z</when>
<gx:coord>-109.99240983333333 24.070032333333334 35.7</gx:coord>

<when>2025-12-23T18:46:15.000Z</when>
<gx:coord>-109.99239716666668 24.069692499999995 36.4</gx:coord>

<when>2025-12-23T18:46:26.000Z</when>
<gx:coord>-109.99239216666668 24.068936 37.2</gx:coord>

<when>2025-12-23T18:46:37.000Z</when>
<gx:coord>-109.99238949999999 24.0682535 36.9</gx:coord>

<when>2025-12-23T18:46:48.000Z</when>
<gx:coord>-109.99238799999999 24.06780816666667 36.6</gx:coord>

<when>2025-12-23T18:46:59.000Z</when>
<gx:coord>-109.99238783333334 24.067434666666667 36.1</gx:coord>

<when>2025-12-23T18:47:10.000Z</when>
<gx:coord>-109.99238416666667 24.06665816666667 37.5</gx:coord>

<when>2025-12-23T18:47:21.000Z</when>
<gx:coord>-109.99238783333334 24.0657385 38.3</gx:coord>

<when>2025-12-23T18:47:32.000Z</when>
<gx:coord>-109.99238833333332 24.064940666666665 39.3</gx:coord>

<when>2025-12-23T18:47:43.000Z</when>
<gx:coord>-109.99238500000001 24.064529500000003 40.0</gx:coord>

<when>2025-12-23T18:47:54.000Z</when>
<gx:coord>-109.99238266666667 24.0642065 39.7</gx:coord>

<when>2025-12-23T18:48:05.000Z</when>
<gx:coord>-109.99237133333332 24.0633115 39.6</gx:coord>

<when>2025-12-23T18:48:16.000Z</when>
<gx:coord>-109.9923615 24.062508666666666 40.0</gx:coord>

<when>2025-12-23T18:48:27.000Z</when>
<gx:coord>-109.99218516666666 24.061729500000002 38.9</gx:coord>

<when>2025-12-23T18:48:38.000Z</when>
<gx:coord>-109.99177333333334 24.06098066666667 35.5</gx:coord>

<when>2025-12-23T18:48:49.000Z</when>
<gx:coord>-109.99138900000001 24.06029116666667 33.2</gx:coord>

<when>2025-12-23T18:49:00.000Z</when>
<gx:coord>-109.99100816666666 24.0596245 31.6</gx:coord>

<when>2025-12-23T18:49:11.000Z</when>
<gx:coord>-109.99065033333333 24.058996499999996 28.9</gx:coord>

<when>2025-12-23T18:49:22.000Z</when>
<gx:coord>-109.99032616666666 24.058420166666664 23.7</gx:coord>

<when>2025-12-23T18:49:33.000Z</when>
<gx:coord>-109.98999433333331 24.057817999999997 17.4</gx:coord>

<when>2025-12-23T18:49:44.000Z</when>
<gx:coord>-109.98963049999999 24.057169999999996 13.7</gx:coord>

<when>2025-12-23T18:49:55.000Z</when>
<gx:coord>-109.98945833333333 24.056572833333334 12.7</gx:coord>

<when>2025-12-23T18:50:06.000Z</when>
<gx:coord>-109.98941233333335 24.055931833333336 12.0</gx:coord>

<when>2025-12-23T18:50:17.000Z</when>
<gx:coord>-109.98948183333331 24.055236833333332 8.0</gx:coord>

<when>2025-12-23T18:50:28.000Z</when>
<gx:coord>-109.9895675 24.054725666666666 7.3</gx:coord>

<when>2025-12-23T18:50:39.000Z</when>
<gx:coord>-109.98962916666666 24.054266999999996 8.9</gx:coord>

<when>2025-12-23T18:50:50.000Z</when>
<gx:coord>-109.98947616666668 24.054265 6.5</gx:coord>

<when>2025-12-23T18:51:01.000Z</when>
<gx:coord>-109.98942100000001 24.054323500000002 7.2</gx:coord>

<when>2025-12-23T18:51:12.000Z</when>
<gx:coord>-109.98935083333332 24.054323999999998 6.7</gx:coord>

<when>2025-12-23T18:51:45.000Z</when>
<gx:coord>-109.98929616666668 24.05432616666667 2.6</gx:coord>

<when>2025-12-23T18:52:07.000Z</when>
<gx:coord>-109.98919816666667 24.054283 1.8</gx:coord>

<when>2025-12-23T18:54:19.000Z</when>
<gx:coord>-109.98916966666665 24.054245999999996 5.6</gx:coord>

<when>2025-12-23T19:00:44.000Z</when>
<gx:coord>-109.98912 24.054259000000002 12.7</gx:coord>

<when>2025-12-23T19:00:55.000Z</when>
<gx:coord>-109.98909283333333 24.0541255 9.4</gx:coord>

<when>2025-12-23T19:01:06.000Z</when>
<gx:coord>-109.98900866666666 24.05403516666667 7.1</gx:coord>

<when>2025-12-23T19:01:17.000Z</when>
<gx:coord>-109.98895333333333 24.054023999999995 5.9</gx:coord>

<when>2025-12-23T19:04:46.000Z</when>
<gx:coord>-109.98890233333334 24.054022833333338 12.3</gx:coord>

<when>2025-12-23T19:10:49.000Z</when>
<gx:coord>-109.98895300000001 24.0540365 10.2</gx:coord>

<when>2025-12-23T19:13:34.000Z</when>
<gx:coord>-109.98891016666667 24.054011833333334 9.7</gx:coord>

<when>2025-12-23T19:23:06.000Z</when>
<gx:coord>-109.98885166666666 24.054029833333335 11.2</gx:coord>

<when>2025-12-23T19:29:53.000Z</when>
<gx:coord>-109.9889005 24.054019999999998 11.8</gx:coord>

<when>2025-12-23T19:32:16.000Z</when>
<gx:coord>-109.9889675 24.054035666666664 13.7</gx:coord>

<when>2025-12-23T19:32:38.000Z</when>
<gx:coord>-109.98905716666668 24.054042499999998 11.3</gx:coord>

<when>2025-12-23T19:33:11.000Z</when>
<gx:coord>-109.98910316666667 24.053990833333334 14.0</gx:coord>

<when>2025-12-23T19:33:44.000Z</when>
<gx:coord>-109.98915366666667 24.054007166666665 16.6</gx:coord>

<when>2025-12-23T19:54:16.000Z</when>
<gx:coord>-109.98910466666666 24.053999166666667 12.0</gx:coord>
</gx:Track>
</Placemark></Document></kml>
