<?xml version="1.0" encoding="UTF-8" ?><gpx version="1.1" creator="GPSLogger 133 - http://gpslogger.mendhak.com/" xmlns:xsi="http://www.w3.org/2001/XMLSchema-instance" xmlns="http://www.topografix.com/GPX/1/1" xmlns:gpxtpx="http://www.garmin.com/xmlschemas/TrackPointExtension/v2" xsi:schemaLocation="http://www.topografix.com/GPX/1/1 http://www.topografix.com/GPX/1/1/gpx.xsd http://www.garmin.com/xmlschemas/TrackPointExtension/v2 https://www8.garmin.com/xmlschemas/TrackPointExtensionv2.xsd "><metadata><time>2025-09-23T21:47:32.000Z</time></metadata>
<wpt lat="26.286555333333332" lon="-80.10281333333334"><ele>-2.5</ele><time>2025-09-23T21:55:25.000Z</time><name>beautiful view 😍</name><src>gps</src></wpt>

<wpt lat="26.286557500000004" lon="-80.1028365"><ele>-1.9</ele><time>2025-09-23T21:53:13.000Z</time><name>beautiful view 😍</name><src>gps</src></wpt>
<trk><name>20250923</name><trkseg><trkpt lat="26.286500166666663" lon="-80.10280683333333"><ele>0.2</ele><time>2025-09-23T21:47:32.000Z</time><extensions><gpxtpx:TrackPointExtension><gpxtpx:speed>0.13948973</gpxtpx:speed></gpxtpx:TrackPointExtension></extensions><geoidheight>-27.1</geoidheight><src>gps</src><sat>13</sat><hdop>0.94</hdop><vdop>1.44</vdop><pdop>1.72</pdop></trkpt>
<trkpt lat="26.2865045" lon="-80.1028065"><ele>0.5</ele><time>2025-09-23T21:47:38.000Z</time><extensions><gpxtpx:TrackPointExtension><gpxtpx:speed>0.083385</gpxtpx:speed></gpxtpx:TrackPointExtension></extensions><geoidheight>-27.1</geoidheight><src>gps</src><sat>13</sat><hdop>0.94</hdop><vdop>1.44</vdop><pdop>1.72</pdop></trkpt>
<trkpt lat="26.286506999999997" lon="-80.10280516666667"><ele>0.6</ele><time>2025-09-23T21:47:44.000Z</time><extensions><gpxtpx:TrackPointExtension><gpxtpx:speed>0.036030557</gpxtpx:speed></gpxtpx:TrackPointExtension></extensions><geoidheight>-27.1</geoidheight><src>gps</src><sat>13</sat><hdop>0.94</hdop><vdop>1.44</vdop><pdop>1.72</pdop></trkpt>
<trkpt lat="26.286507833333335" lon="-80.10280433333334"><ele>0.4</ele><time>2025-09-23T21:47:50.000Z</time><extensions><gpxtpx:TrackPointExtension><gpxtpx:speed>0.03448639</gpxtpx:speed></gpxtpx:TrackPointExtension></extensions><geoidheight>-27.1</geoidheight><src>gps</src><sat>13</sat><hdop>0.94</hdop><vdop>1.44</vdop><pdop>1.72</pdop></trkpt>
<trkpt lat="26.2865085" lon="-80.10280466666667"><ele>0.0</ele><time>2025-09-23T21:47:56.000Z</time><extensions><gpxtpx:TrackPointExtension><gpxtpx:speed>0.017500555</gpxtpx:speed></gpxtpx:TrackPointExtension></extensions><geoidheight>-27.1</geoidheight><src>gps</src><sat>12</sat><hdop>0.85</hdop><vdop>1.23</vdop><pdop>1.50</pdop></trkpt>
<trkpt lat="26.286507833333335" lon="-80.10280366666666"><ele>-0.2</ele><time>2025-09-23T21:48:02.000Z</time><extensions><gpxtpx:TrackPointExtension><gpxtpx:speed>0.054045834</gpxtpx:speed></gpxtpx:TrackPointExtension></extensions><geoidheight>-27.1</geoidheight><src>gps</src><sat>12</sat><hdop>0.85</hdop><vdop>1.23</vdop><pdop>1.50</pdop></trkpt>
<trkpt lat="26.28650583333333" lon="-80.10280233333333"><ele>-0.5</ele><time>2025-09-23T21:48:08.000Z</time><extensions><gpxtpx:TrackPointExtension><gpxtpx:speed>0.040663056</gpxtpx:speed></gpxtpx:TrackPointExtension></extensions><geoidheight>-27.1</geoidheight><src>gps</src><sat>12</sat><hdop>0.85</hdop><vdop>1.23</vdop><pdop>1.50</pdop></trkpt>
<trkpt lat="26.286509666666667" lon="-80.10280216666666"><ele>-0.9</ele><time>2025-09-23T21:48:14.000Z</time><extensions><gpxtpx:TrackPointExtension><gpxtpx:speed>0.058678333</gpxtpx:speed></gpxtpx:TrackPointExtension></extensions><geoidheight>-27.1</geoidheight><src>gps</src><sat>12</sat><hdop>0.85</hdop><vdop>1.23</vdop><pdop>1.50</pdop></trkpt>
<trkpt lat="26.286512000000002" lon="-80.10280216666666"><ele>-1.5</ele><time>2025-09-23T21:48:20.000Z</time><extensions><gpxtpx:TrackPointExtension><gpxtpx:speed>0.08235556</gpxtpx:speed></gpxtpx:TrackPointExtension></extensions><geoidheight>-27.1</geoidheight><src>gps</src><sat>13</sat><hdop>0.85</hdop><vdop>1.23</vdop><pdop>1.50</pdop></trkpt>
<trkpt lat="26.286514166666667" lon="-80.10280433333334"><ele>-1.8</ele><time>2025-09-23T21:48:26.000Z</time><extensions><gpxtpx:TrackPointExtension><gpxtpx:speed>0.059193056</gpxtpx:speed></gpxtpx:TrackPointExtension></extensions><geoidheight>-27.1</geoidheight><src>gps</src><sat>13</sat><hdop>0.85</hdop><vdop>1.23</vdop><pdop>1.50</pdop></trkpt>
<trkpt lat="26.286518833333336" lon="-80.10280433333334"><ele>-2.1</ele><time>2025-09-23T21:48:32.000Z</time><extensions><gpxtpx:TrackPointExtension><gpxtpx:speed>0.04889861</gpxtpx:speed></gpxtpx:TrackPointExtension></extensions><geoidheight>-27.1</geoidheight><src>gps</src><sat>13</sat><hdop>0.85</hdop><vdop>1.23</vdop><pdop>1.50</pdop></trkpt>
<trkpt lat="26.286524333333332" lon="-80.10280183333333"><ele>-1.7</ele><time>2025-09-23T21:48:38.000Z</time><extensions><gpxtpx:TrackPointExtension><gpxtpx:speed>0.054560557</gpxtpx:speed></gpxtpx:TrackPointExtension></extensions><geoidheight>-27.1</geoidheight><src>gps</src><sat>13</sat><hdop>0.85</hdop><vdop>1.23</vdop><pdop>1.50</pdop></trkpt>
<trkpt lat="26.286528166666667" lon="-80.10280116666667"><ele>-1.7</ele><time>2025-09-23T21:48:44.000Z</time><extensions><gpxtpx:TrackPointExtension><gpxtpx:speed>0.010294445</gpxtpx:speed></gpxtpx:TrackPointExtension></extensions><geoidheight>-27.1</geoidheight><src>gps</src><sat>13</sat><hdop>0.85</hdop><vdop>1.23</vdop><pdop>1.50</pdop></trkpt>
<trkpt lat="26.286529499999997" lon="-80.10280033333333"><ele>-1.5</ele><time>2025-09-23T21:48:50.000Z</time><extensions><gpxtpx:TrackPointExtension><gpxtpx:speed>0.07257583</gpxtpx:speed></gpxtpx:TrackPointExtension></extensions><geoidheight>-27.1</geoidheight><src>gps</src><sat>13</sat><hdop>0.85</hdop><vdop>1.23</vdop><pdop>1.50</pdop></trkpt>
<trkpt lat="26.286529499999997" lon="-80.10279999999999"><ele>-1.2</ele><time>2025-09-23T21:48:56.000Z</time><extensions><gpxtpx:TrackPointExtension><gpxtpx:speed>0.17037305</gpxtpx:speed></gpxtpx:TrackPointExtension></extensions><geoidheight>-27.1</geoidheight><src>gps</src><sat>13</sat><hdop>0.85</hdop><vdop>1.23</vdop><pdop>1.50</pdop></trkpt>
<trkpt lat="26.286532833333332" lon="-80.10280066666665"><ele>-0.8</ele><time>2025-09-23T21:49:02.000Z</time><extensions><gpxtpx:TrackPointExtension><gpxtpx:speed>0.02573611</gpxtpx:speed></gpxtpx:TrackPointExtension></extensions><geoidheight>-27.1</geoidheight><src>gps</src><sat>13</sat><hdop>0.85</hdop><vdop>1.23</vdop><pdop>1.50</pdop></trkpt>
<trkpt lat="26.286533000000002" lon="-80.102804"><ele>-0.8</ele><time>2025-09-23T21:49:08.000Z</time><extensions><gpxtpx:TrackPointExtension><gpxtpx:speed>0.07823778</gpxtpx:speed></gpxtpx:TrackPointExtension></extensions><geoidheight>-27.1</geoidheight><src>gps</src><sat>13</sat><hdop>0.85</hdop><vdop>1.23</vdop><pdop>1.50</pdop></trkpt>
<trkpt lat="26.28652983333333" lon="-80.10280383333334"><ele>-0.6</ele><time>2025-09-23T21:49:14.000Z</time><extensions><gpxtpx:TrackPointExtension><gpxtpx:speed>0.020074166</gpxtpx:speed></gpxtpx:TrackPointExtension></extensions><geoidheight>-27.1</geoidheight><src>gps</src><sat>14</sat><hdop>0.85</hdop><vdop>1.23</vdop><pdop>1.50</pdop></trkpt>
<trkpt lat="26.286527999999997" lon="-80.10280583333333"><ele>-0.5</ele><time>2025-09-23T21:49:20.000Z</time><extensions><gpxtpx:TrackPointExtension><gpxtpx:speed>0.08544389</gpxtpx:speed></gpxtpx:TrackPointExtension></extensions><geoidheight>-27.1</geoidheight><src>gps</src><sat>14</sat><hdop>0.85</hdop><vdop>1.23</vdop><pdop>1.50</pdop></trkpt>
<trkpt lat="26.286533166666665" lon="-80.10280783333333"><ele>-0.5</ele><time>2025-09-23T21:49:26.000Z</time><extensions><gpxtpx:TrackPointExtension><gpxtpx:speed>0.044266112</gpxtpx:speed></gpxtpx:TrackPointExtension></extensions><geoidheight>-27.1</geoidheight><src>gps</src><sat>13</sat><hdop>0.85</hdop><vdop>1.23</vdop><pdop>1.50</pdop></trkpt>
<trkpt lat="26.28653733333333" lon="-80.10280716666666"><ele>-0.6</ele><time>2025-09-23T21:49:32.000Z</time><extensions><gpxtpx:TrackPointExtension><gpxtpx:speed>0.04581028</gpxtpx:speed></gpxtpx:TrackPointExtension></extensions><geoidheight>-27.1</geoidheight><src>gps</src><sat>13</sat><hdop>0.85</hdop><vdop>1.23</vdop><pdop>1.50</pdop></trkpt>
<trkpt lat="26.286539333333334" lon="-80.102809"><ele>-1.0</ele><time>2025-09-23T21:49:38.000Z</time><extensions><gpxtpx:TrackPointExtension><gpxtpx:speed>0.0416925</gpxtpx:speed></gpxtpx:TrackPointExtension></extensions><geoidheight>-27.1</geoidheight><src>gps</src><sat>13</sat><hdop>0.90</hdop><vdop>1.23</vdop><pdop>1.52</pdop></trkpt>
<trkpt lat="26.2865415" lon="-80.10280949999999"><ele>-1.3</ele><time>2025-09-23T21:49:44.000Z</time><extensions><gpxtpx:TrackPointExtension><gpxtpx:speed>0.07257583</gpxtpx:speed></gpxtpx:TrackPointExtension></extensions><geoidheight>-27.1</geoidheight><src>gps</src><sat>14</sat><hdop>0.85</hdop><vdop>1.23</vdop><pdop>1.50</pdop></trkpt>
<trkpt lat="26.286544333333335" lon="-80.10280766666666"><ele>-1.1</ele><time>2025-09-23T21:49:50.000Z</time><extensions><gpxtpx:TrackPointExtension><gpxtpx:speed>0.051986944</gpxtpx:speed></gpxtpx:TrackPointExtension></extensions><geoidheight>-27.1</geoidheight><src>gps</src><sat>13</sat><hdop>0.85</hdop><vdop>1.23</vdop><pdop>1.50</pdop></trkpt>
<trkpt lat="26.286545666666665" lon="-80.10280633333333"><ele>-0.6</ele><time>2025-09-23T21:49:56.000Z</time><extensions><gpxtpx:TrackPointExtension><gpxtpx:speed>0.028824445</gpxtpx:speed></gpxtpx:TrackPointExtension></extensions><geoidheight>-27.1</geoidheight><src>gps</src><sat>13</sat><hdop>0.85</hdop><vdop>1.23</vdop><pdop>1.50</pdop></trkpt>
<trkpt lat="26.286547333333335" lon="-80.10280533333334"><ele>-0.4</ele><time>2025-09-23T21:50:02.000Z</time><extensions><gpxtpx:TrackPointExtension><gpxtpx:speed>0.11838611</gpxtpx:speed></gpxtpx:TrackPointExtension></extensions><geoidheight>-27.1</geoidheight><src>gps</src><sat>13</sat><hdop>0.89</hdop><vdop>1.23</vdop><pdop>1.52</pdop></trkpt>
<trkpt lat="26.28655233333333" lon="-80.1028015"><ele>-0.2</ele><time>2025-09-23T21:50:08.000Z</time><extensions><gpxtpx:TrackPointExtension><gpxtpx:speed>0.05353111</gpxtpx:speed></gpxtpx:TrackPointExtension></extensions><geoidheight>-27.1</geoidheight><src>gps</src><sat>12</sat><hdop>0.85</hdop><vdop>1.23</vdop><pdop>1.50</pdop></trkpt>
<trkpt lat="26.286554500000005" lon="-80.10279933333332"><ele>-0.4</ele><time>2025-09-23T21:50:14.000Z</time><extensions><gpxtpx:TrackPointExtension><gpxtpx:speed>0.12559222</gpxtpx:speed></gpxtpx:TrackPointExtension></extensions><geoidheight>-27.1</geoidheight><src>gps</src><sat>12</sat><hdop>0.85</hdop><vdop>1.23</vdop><pdop>1.50</pdop></trkpt>
<trkpt lat="26.28655216666667" lon="-80.10279683333333"><ele>-0.3</ele><time>2025-09-23T21:50:20.000Z</time><extensions><gpxtpx:TrackPointExtension><gpxtpx:speed>0.029339166</gpxtpx:speed></gpxtpx:TrackPointExtension></extensions><geoidheight>-27.1</geoidheight><src>gps</src><sat>12</sat><hdop>0.85</hdop><vdop>1.23</vdop><pdop>1.50</pdop></trkpt>
<trkpt lat="26.28655233333333" lon="-80.1027945"><ele>-0.5</ele><time>2025-09-23T21:50:26.000Z</time><extensions><gpxtpx:TrackPointExtension><gpxtpx:speed>0.11015055</gpxtpx:speed></gpxtpx:TrackPointExtension></extensions><geoidheight>-27.1</geoidheight><src>gps</src><sat>12</sat><hdop>0.85</hdop><vdop>1.23</vdop><pdop>1.50</pdop></trkpt>
<trkpt lat="26.286549666666662" lon="-80.1027945"><ele>-0.8</ele><time>2025-09-23T21:50:32.000Z</time><extensions><gpxtpx:TrackPointExtension><gpxtpx:speed>0.027280279</gpxtpx:speed></gpxtpx:TrackPointExtension></extensions><geoidheight>-27.1</geoidheight><src>gps</src><sat>12</sat><hdop>0.85</hdop><vdop>1.23</vdop><pdop>1.50</pdop></trkpt>
<trkpt lat="26.286544333333335" lon="-80.10279433333334"><ele>-1.4</ele><time>2025-09-23T21:50:38.000Z</time><extensions><gpxtpx:TrackPointExtension><gpxtpx:speed>0.12095972</gpxtpx:speed></gpxtpx:TrackPointExtension></extensions><geoidheight>-27.1</geoidheight><src>gps</src><sat>12</sat><hdop>0.85</hdop><vdop>1.23</vdop><pdop>1.50</pdop></trkpt>
<trkpt lat="26.2865415" lon="-80.10279333333332"><ele>-1.5</ele><time>2025-09-23T21:50:44.000Z</time><extensions><gpxtpx:TrackPointExtension><gpxtpx:speed>0.015441666</gpxtpx:speed></gpxtpx:TrackPointExtension></extensions><geoidheight>-27.1</geoidheight><src>gps</src><sat>12</sat><hdop>0.95</hdop><vdop>1.42</vdop><pdop>1.71</pdop></trkpt>
<trkpt lat="26.286541000000003" lon="-80.10279183333334"><ele>-1.4</ele><time>2025-09-23T21:50:50.000Z</time><extensions><gpxtpx:TrackPointExtension><gpxtpx:speed>0.033456944</gpxtpx:speed></gpxtpx:TrackPointExtension></extensions><geoidheight>-27.1</geoidheight><src>gps</src><sat>13</sat><hdop>0.95</hdop><vdop>1.42</vdop><pdop>1.71</pdop></trkpt>
<trkpt lat="26.28654483333333" lon="-80.10279650000001"><ele>-1.9</ele><time>2025-09-23T21:50:56.000Z</time><extensions><gpxtpx:TrackPointExtension><gpxtpx:speed>0.16419639</gpxtpx:speed></gpxtpx:TrackPointExtension></extensions><geoidheight>-27.1</geoidheight><src>gps</src><sat>13</sat><hdop>0.85</hdop><vdop>1.23</vdop><pdop>1.50</pdop></trkpt>
<trkpt lat="26.286547000000002" lon="-80.1027995"><ele>-2.2</ele><time>2025-09-23T21:51:02.000Z</time><extensions><gpxtpx:TrackPointExtension><gpxtpx:speed>0.008235555</gpxtpx:speed></gpxtpx:TrackPointExtension></extensions><geoidheight>-27.1</geoidheight><src>gps</src><sat>14</sat><hdop>0.86</hdop><vdop>1.34</vdop><pdop>1.59</pdop></trkpt>
<trkpt lat="26.286545666666665" lon="-80.10279733333333"><ele>-2.0</ele><time>2025-09-23T21:51:09.000Z</time><extensions><gpxtpx:TrackPointExtension><gpxtpx:speed>0.028824445</gpxtpx:speed></gpxtpx:TrackPointExtension></extensions><geoidheight>-27.1</geoidheight><src>gps</src><sat>14</sat><hdop>0.85</hdop><vdop>1.23</vdop><pdop>1.50</pdop></trkpt>
<trkpt lat="26.28654633333333" lon="-80.10279366666667"><ele>-1.4</ele><time>2025-09-23T21:51:15.000Z</time><extensions><gpxtpx:TrackPointExtension><gpxtpx:speed>0.0602225</gpxtpx:speed></gpxtpx:TrackPointExtension></extensions><geoidheight>-27.1</geoidheight><src>gps</src><sat>14</sat><hdop>0.86</hdop><vdop>1.34</vdop><pdop>1.59</pdop></trkpt>
<trkpt lat="26.286548" lon="-80.1027935"><ele>-1.0</ele><time>2025-09-23T21:51:21.000Z</time><extensions><gpxtpx:TrackPointExtension><gpxtpx:speed>0.011838611</gpxtpx:speed></gpxtpx:TrackPointExtension></extensions><geoidheight>-27.1</geoidheight><src>gps</src><sat>14</sat><hdop>0.95</hdop><vdop>1.38</vdop><pdop>1.67</pdop></trkpt>
<trkpt lat="26.286547666666667" lon="-80.10279433333334"><ele>-0.7</ele><time>2025-09-23T21:51:27.000Z</time><extensions><gpxtpx:TrackPointExtension><gpxtpx:speed>0.11426833</gpxtpx:speed></gpxtpx:TrackPointExtension></extensions><geoidheight>-27.1</geoidheight><src>gps</src><sat>14</sat><hdop>0.99</hdop><vdop>1.38</vdop><pdop>1.70</pdop></trkpt>
<trkpt lat="26.286547166666665" lon="-80.10279633333333"><ele>-0.5</ele><time>2025-09-23T21:51:33.000Z</time><extensions><gpxtpx:TrackPointExtension><gpxtpx:speed>0.1343425</gpxtpx:speed></gpxtpx:TrackPointExtension></extensions><geoidheight>-27.1</geoidheight><src>gps</src><sat>13</sat><hdop>0.86</hdop><vdop>1.34</vdop><pdop>1.59</pdop></trkpt>
<trkpt lat="26.28654783333333" lon="-80.10279716666668"><ele>-0.1</ele><time>2025-09-23T21:51:39.000Z</time><extensions><gpxtpx:TrackPointExtension><gpxtpx:speed>0.02058889</gpxtpx:speed></gpxtpx:TrackPointExtension></extensions><geoidheight>-27.1</geoidheight><src>gps</src><sat>13</sat><hdop>0.85</hdop><vdop>1.23</vdop><pdop>1.50</pdop></trkpt>
<trkpt lat="26.286554166666665" lon="-80.102799"><ele>0.3</ele><time>2025-09-23T21:51:45.000Z</time><extensions><gpxtpx:TrackPointExtension><gpxtpx:speed>0.055075277</gpxtpx:speed></gpxtpx:TrackPointExtension></extensions><geoidheight>-27.1</geoidheight><src>gps</src><sat>13</sat><hdop>0.85</hdop><vdop>1.23</vdop><pdop>1.50</pdop></trkpt>
<trkpt lat="26.286557500000004" lon="-80.10280166666666"><ele>0.6</ele><time>2025-09-23T21:51:51.000Z</time><extensions><gpxtpx:TrackPointExtension><gpxtpx:speed>0.014412222</gpxtpx:speed></gpxtpx:TrackPointExtension></extensions><geoidheight>-27.1</geoidheight><src>gps</src><sat>14</sat><hdop>0.85</hdop><vdop>1.23</vdop><pdop>1.50</pdop></trkpt>
<trkpt lat="26.28656266666667" lon="-80.10280166666666"><ele>0.7</ele><time>2025-09-23T21:51:57.000Z</time><extensions><gpxtpx:TrackPointExtension><gpxtpx:speed>0.08956166</gpxtpx:speed></gpxtpx:TrackPointExtension></extensions><geoidheight>-27.1</geoidheight><src>gps</src><sat>14</sat><hdop>0.85</hdop><vdop>1.23</vdop><pdop>1.50</pdop></trkpt>
<trkpt lat="26.286568666666668" lon="-80.10279966666667"><ele>0.8</ele><time>2025-09-23T21:52:03.000Z</time><extensions><gpxtpx:TrackPointExtension><gpxtpx:speed>0.18324111</gpxtpx:speed></gpxtpx:TrackPointExtension></extensions><geoidheight>-27.1</geoidheight><src>gps</src><sat>14</sat><hdop>0.85</hdop><vdop>1.23</vdop><pdop>1.50</pdop></trkpt>
<trkpt lat="26.286570833333332" lon="-80.10279650000001"><ele>0.7</ele><time>2025-09-23T21:52:09.000Z</time><extensions><gpxtpx:TrackPointExtension><gpxtpx:speed>0.042207222</gpxtpx:speed></gpxtpx:TrackPointExtension></extensions><geoidheight>-27.1</geoidheight><src>gps</src><sat>15</sat><hdop>0.85</hdop><vdop>1.23</vdop><pdop>1.50</pdop></trkpt>
<trkpt lat="26.286572166666662" lon="-80.10279533333333"><ele>0.5</ele><time>2025-09-23T21:52:15.000Z</time><extensions><gpxtpx:TrackPointExtension><gpxtpx:speed>0.06228139</gpxtpx:speed></gpxtpx:TrackPointExtension></extensions><geoidheight>-27.1</geoidheight><src>gps</src><sat>15</sat><hdop>0.85</hdop><vdop>1.23</vdop><pdop>1.50</pdop></trkpt>
<trkpt lat="26.286570666666663" lon="-80.1027985"><ele>-0.2</ele><time>2025-09-23T21:52:21.000Z</time><extensions><gpxtpx:TrackPointExtension><gpxtpx:speed>0.042721946</gpxtpx:speed></gpxtpx:TrackPointExtension></extensions><geoidheight>-27.1</geoidheight><src>gps</src><sat>14</sat><hdop>0.85</hdop><vdop>1.23</vdop><pdop>1.50</pdop></trkpt>
<trkpt lat="26.286568166666665" lon="-80.10280116666667"><ele>-1.1</ele><time>2025-09-23T21:52:27.000Z</time><extensions><gpxtpx:TrackPointExtension><gpxtpx:speed>0.10037083</gpxtpx:speed></gpxtpx:TrackPointExtension></extensions><geoidheight>-27.1</geoidheight><src>gps</src><sat>14</sat><hdop>0.85</hdop><vdop>1.23</vdop><pdop>1.50</pdop></trkpt>
<trkpt lat="26.286562166666666" lon="-80.1028035"><ele>-1.7</ele><time>2025-09-23T21:52:33.000Z</time><extensions><gpxtpx:TrackPointExtension><gpxtpx:speed>0.012868055</gpxtpx:speed></gpxtpx:TrackPointExtension></extensions><geoidheight>-27.1</geoidheight><src>gps</src><sat>14</sat><hdop>0.85</hdop><vdop>1.23</vdop><pdop>1.50</pdop></trkpt>
<trkpt lat="26.286562333333336" lon="-80.10280216666666"><ele>-2.0</ele><time>2025-09-23T21:52:39.000Z</time><extensions><gpxtpx:TrackPointExtension><gpxtpx:speed>0.04786917</gpxtpx:speed></gpxtpx:TrackPointExtension></extensions><geoidheight>-27.1</geoidheight><src>gps</src><sat>14</sat><hdop>0.85</hdop><vdop>1.23</vdop><pdop>1.50</pdop></trkpt>
<trkpt lat="26.286564833333333" lon="-80.10280250000001"><ele>-2.2</ele><time>2025-09-23T21:52:45.000Z</time><extensions><gpxtpx:TrackPointExtension><gpxtpx:speed>0.036030557</gpxtpx:speed></gpxtpx:TrackPointExtension></extensions><geoidheight>-27.1</geoidheight><src>gps</src><sat>14</sat><hdop>0.85</hdop><vdop>1.23</vdop><pdop>1.50</pdop></trkpt>
<trkpt lat="26.2865655" lon="-80.10280316666667"><ele>-2.4</ele><time>2025-09-23T21:52:51.000Z</time><extensions><gpxtpx:TrackPointExtension><gpxtpx:speed>0.06588444</gpxtpx:speed></gpxtpx:TrackPointExtension></extensions><geoidheight>-27.1</geoidheight><src>gps</src><sat>14</sat><hdop>0.85</hdop><vdop>1.23</vdop><pdop>1.49</pdop></trkpt>
<trkpt lat="26.28656583333333" lon="-80.10280433333334"><ele>-2.5</ele><time>2025-09-23T21:52:57.000Z</time><extensions><gpxtpx:TrackPointExtension><gpxtpx:speed>0.072061114</gpxtpx:speed></gpxtpx:TrackPointExtension></extensions><geoidheight>-27.1</geoidheight><src>gps</src><sat>14</sat><hdop>0.85</hdop><vdop>1.23</vdop><pdop>1.49</pdop></trkpt>
<trkpt lat="26.28656583333333" lon="-80.10280583333333"><ele>-2.7</ele><time>2025-09-23T21:53:03.000Z</time><extensions><gpxtpx:TrackPointExtension><gpxtpx:speed>0.04889861</gpxtpx:speed></gpxtpx:TrackPointExtension></extensions><geoidheight>-27.1</geoidheight><src>gps</src><sat>13</sat><hdop>0.85</hdop><vdop>1.23</vdop><pdop>1.49</pdop></trkpt>
<trkpt lat="26.286576500000002" lon="-80.102804"><ele>-2.0</ele><time>2025-09-23T21:53:09.000Z</time><extensions><gpxtpx:TrackPointExtension><gpxtpx:speed>0.84157085</gpxtpx:speed></gpxtpx:TrackPointExtension></extensions><geoidheight>-27.1</geoidheight><src>gps</src><sat>12</sat><hdop>0.85</hdop><vdop>1.23</vdop><pdop>1.49</pdop></trkpt>
<trkpt lat="26.286557500000004" lon="-80.1028365"><ele>-1.9</ele><time>2025-09-23T21:53:13.000Z</time><extensions><gpxtpx:TrackPointExtension><gpxtpx:speed>0.049413335</gpxtpx:speed></gpxtpx:TrackPointExtension></extensions><geoidheight>-27.1</geoidheight><src>gps</src><sat>16</sat><hdop>0.96</hdop><vdop>1.28</vdop><pdop>1.60</pdop></trkpt>
<trkpt lat="26.286558833333334" lon="-80.1028345"><ele>-2.6</ele><time>2025-09-23T21:53:19.000Z</time><extensions><gpxtpx:TrackPointExtension><gpxtpx:speed>0.030368611</gpxtpx:speed></gpxtpx:TrackPointExtension></extensions><geoidheight>-27.1</geoidheight><src>gps</src><sat>16</sat><hdop>0.85</hdop><vdop>1.23</vdop><pdop>1.49</pdop></trkpt>
<trkpt lat="26.286561" lon="-80.10283566666666"><ele>-3.5</ele><time>2025-09-23T21:53:25.000Z</time><extensions><gpxtpx:TrackPointExtension><gpxtpx:speed>0.13794556</gpxtpx:speed></gpxtpx:TrackPointExtension></extensions><geoidheight>-27.1</geoidheight><src>gps</src><sat>16</sat><hdop>0.89</hdop><vdop>1.23</vdop><pdop>1.52</pdop></trkpt>
<trkpt lat="26.2865675" lon="-80.10283283333334"><ele>-4.0</ele><time>2025-09-23T21:53:32.000Z</time><extensions><gpxtpx:TrackPointExtension><gpxtpx:speed>0.007206111</gpxtpx:speed></gpxtpx:TrackPointExtension></extensions><geoidheight>-27.1</geoidheight><src>gps</src><sat>15</sat><hdop>0.85</hdop><vdop>1.23</vdop><pdop>1.49</pdop></trkpt>
<trkpt lat="26.286568499999998" lon="-80.10283"><ele>-4.2</ele><time>2025-09-23T21:53:38.000Z</time><extensions><gpxtpx:TrackPointExtension><gpxtpx:speed>0.022647778</gpxtpx:speed></gpxtpx:TrackPointExtension></extensions><geoidheight>-27.1</geoidheight><src>gps</src><sat>15</sat><hdop>0.85</hdop><vdop>1.23</vdop><pdop>1.49</pdop></trkpt>
<trkpt lat="26.2865675" lon="-80.10282766666666"><ele>-4.5</ele><time>2025-09-23T21:53:44.000Z</time><extensions><gpxtpx:TrackPointExtension><gpxtpx:speed>0.059193056</gpxtpx:speed></gpxtpx:TrackPointExtension></extensions><geoidheight>-27.1</geoidheight><src>gps</src><sat>15</sat><hdop>0.85</hdop><vdop>1.23</vdop><pdop>1.49</pdop></trkpt>
<trkpt lat="26.286565666666668" lon="-80.10282366666667"><ele>-4.4</ele><time>2025-09-23T21:53:50.000Z</time><extensions><gpxtpx:TrackPointExtension><gpxtpx:speed>0.033971667</gpxtpx:speed></gpxtpx:TrackPointExtension></extensions><geoidheight>-27.1</geoidheight><src>gps</src><sat>16</sat><hdop>0.89</hdop><vdop>1.23</vdop><pdop>1.52</pdop></trkpt>
<trkpt lat="26.286562333333336" lon="-80.102822"><ele>-4.3</ele><time>2025-09-23T21:53:56.000Z</time><extensions><gpxtpx:TrackPointExtension><gpxtpx:speed>0.15390195</gpxtpx:speed></gpxtpx:TrackPointExtension></extensions><geoidheight>-27.1</geoidheight><src>gps</src><sat>15</sat><hdop>0.89</hdop><vdop>1.23</vdop><pdop>1.52</pdop></trkpt>
<trkpt lat="26.286560833333336" lon="-80.10281833333333"><ele>-3.7</ele><time>2025-09-23T21:54:02.000Z</time><extensions><gpxtpx:TrackPointExtension><gpxtpx:speed>0.035515834</gpxtpx:speed></gpxtpx:TrackPointExtension></extensions><geoidheight>-27.1</geoidheight><src>gps</src><sat>15</sat><hdop>0.89</hdop><vdop>1.23</vdop><pdop>1.52</pdop></trkpt>
<trkpt lat="26.286559166666667" lon="-80.10281583333334"><ele>-3.5</ele><time>2025-09-23T21:54:08.000Z</time><extensions><gpxtpx:TrackPointExtension><gpxtpx:speed>0.026765555</gpxtpx:speed></gpxtpx:TrackPointExtension></extensions><geoidheight>-27.1</geoidheight><src>gps</src><sat>15</sat><hdop>0.89</hdop><vdop>1.23</vdop><pdop>1.52</pdop></trkpt>
<trkpt lat="26.28655816666667" lon="-80.1028105"><ele>-3.0</ele><time>2025-09-23T21:54:15.000Z</time><extensions><gpxtpx:TrackPointExtension><gpxtpx:speed>0.064855</gpxtpx:speed></gpxtpx:TrackPointExtension></extensions><geoidheight>-27.1</geoidheight><src>gps</src><sat>15</sat><hdop>0.89</hdop><vdop>1.23</vdop><pdop>1.52</pdop></trkpt>
<trkpt lat="26.28656116666667" lon="-80.10280800000001"><ele>-2.2</ele><time>2025-09-23T21:54:21.000Z</time><extensions><gpxtpx:TrackPointExtension><gpxtpx:speed>0.033456944</gpxtpx:speed></gpxtpx:TrackPointExtension></extensions><geoidheight>-27.1</geoidheight><src>gps</src><sat>15</sat><hdop>0.89</hdop><vdop>1.23</vdop><pdop>1.52</pdop></trkpt>
<trkpt lat="26.286557500000004" lon="-80.1028065"><ele>-1.7</ele><time>2025-09-23T21:54:27.000Z</time><extensions><gpxtpx:TrackPointExtension><gpxtpx:speed>0.0056619444</gpxtpx:speed></gpxtpx:TrackPointExtension></extensions><geoidheight>-27.1</geoidheight><src>gps</src><sat>14</sat><hdop>0.89</hdop><vdop>1.23</vdop><pdop>1.52</pdop></trkpt>
<trkpt lat="26.286552500000003" lon="-80.102806"><ele>-1.6</ele><time>2025-09-23T21:54:33.000Z</time><extensions><gpxtpx:TrackPointExtension><gpxtpx:speed>0.007720833</gpxtpx:speed></gpxtpx:TrackPointExtension></extensions><geoidheight>-27.1</geoidheight><src>gps</src><sat>14</sat><hdop>0.89</hdop><vdop>1.23</vdop><pdop>1.52</pdop></trkpt>
<trkpt lat="26.286555333333332" lon="-80.10281333333334"><ele>-2.5</ele><time>2025-09-23T21:55:25.000Z</time><extensions><gpxtpx:TrackPointExtension><gpxtpx:speed>0.09522361</gpxtpx:speed></gpxtpx:TrackPointExtension></extensions><geoidheight>-27.1</geoidheight><src>gps</src><sat>15</sat><hdop>0.93</hdop><vdop>1.24</vdop><pdop>1.55</pdop></trkpt>
<trkpt lat="26.286531500000002" lon="-80.10277049999999"><ele>0.4</ele><time>2025-09-23T21:58:06.000Z</time><extensions><gpxtpx:TrackPointExtension><gpxtpx:speed>0.16522583</gpxtpx:speed></gpxtpx:TrackPointExtension></extensions><geoidheight>-27.1</geoidheight><src>gps</src><sat>16</sat><hdop>0.85</hdop><vdop>1.23</vdop><pdop>1.49</pdop></trkpt>
</trkseg></trk></gpx>