<?xml version="1.0" encoding="UTF-8"?><kml xmlns="http://www.opengis.net/kml/2.2" xmlns:gx="http://www.google.com/kml/ext/2.2" xmlns:kml="http://www.opengis.net/kml/2.2" xmlns:atom="http://www.w3.org/2005/Atom"><Document><name>2025-12-17T22:26:01.000Z</name>
<Placemark>
<gx:Track>

<when>2025-12-17T22:26:01.000Z</when>
<gx:coord>-114.39604283333334 29.792267999999996 0.0</gx:coord>

<when>2025-12-17T22:30:14.000Z</when>
<gx:coord>-114.39609616666667 29.792281000000003 21.6</gx:coord>

<when>2025-12-17T22:30:25.000Z</when>
<gx:coord>-114.39628216666667 29.792347000000003 18.1</gx:coord>

<when>2025-12-17T22:30:36.000Z</when>
<gx:coord>-114.39638199999999 29.792470499999997 14.6</gx:coord>

<when>2025-12-17T22:30:47.000Z</when>
<gx:coord>-114.39644500000001 29.7925905 13.6</gx:coord>

<when>2025-12-17T22:30:58.000Z</when>
<gx:coord>-114.39661583333333 29.79279016666667 12.7</gx:coord>

<when>2025-12-17T22:31:09.000Z</when>
<gx:coord>-114.39689783333333 29.792989333333335 8.8</gx:coord>

<when>2025-12-17T22:31:20.000Z</when>
<gx:coord>-114.39724499999998 29.79317133333333 6.1</gx:coord>

<when>2025-12-17T22:31:31.000Z</when>
<gx:coord>-114.39764466666665 29.793271333333337 5.8</gx:coord>

<when>2025-12-17T22:31:42.000Z</when>
<gx:coord>-114.39804199999999 29.793330833333336 6.9</gx:coord>

<when>2025-12-17T22:32:04.000Z</when>
<gx:coord>-114.39809816666666 29.793336333333333 8.0</gx:coord>

<when>2025-12-17T22:33:21.000Z</when>
<gx:coord>-114.39835733333332 29.79332883333333 9.1</gx:coord>

<when>2025-12-17T22:33:32.000Z</when>
<gx:coord>-114.39867416666667 29.793304499999998 9.2</gx:coord>

<when>2025-12-17T22:33:43.000Z</when>
<gx:coord>-114.39911033333334 29.79327766666667 9.4</gx:coord>

<when>2025-12-17T22:33:54.000Z</when>
<gx:coord>-114.39959233333333 29.793235499999998 9.4</gx:coord>

<when>2025-12-17T22:34:05.000Z</when>
<gx:coord>-114.4003165 29.793169166666665 10.4</gx:coord>

<when>2025-12-17T22:34:16.000Z</when>
<gx:coord>-114.401104 29.7930915 10.5</gx:coord>

<when>2025-12-17T22:34:27.000Z</when>
<gx:coord>-114.40188733333335 29.7930125 11.0</gx:coord>

<when>2025-12-17T22:34:38.000Z</when>
<gx:coord>-114.40268733333332 29.792933333333334 10.9</gx:coord>

<when>2025-12-17T22:34:49.000Z</when>
<gx:coord>-114.40354716666667 29.79285183333333 11.6</gx:coord>

<when>2025-12-17T22:35:00.000Z</when>
<gx:coord>-114.40442366666666 29.792771333333334 12.5</gx:coord>

<when>2025-12-17T22:35:11.000Z</when>
<gx:coord>-114.40530016666668 29.792686333333336 14.3</gx:coord>

<when>2025-12-17T22:35:22.000Z</when>
<gx:coord>-114.40620916666667 29.792613 15.5</gx:coord>

<when>2025-12-17T22:35:33.000Z</when>
<gx:coord>-114.40712166666665 29.792530499999998 15.8</gx:coord>

<when>2025-12-17T22:35:44.000Z</when>
<gx:coord>-114.40804516666667 29.792446499999997 17.1</gx:coord>

<when>2025-12-17T22:35:55.000Z</when>
<gx:coord>-114.40920866666666 29.792343 17.7</gx:coord>

<when>2025-12-17T22:36:06.000Z</when>
<gx:coord>-114.4105225 29.79222083333333 20.0</gx:coord>

<when>2025-12-17T22:36:17.000Z</when>
<gx:coord>-114.41173599999999 29.79211366666667 21.2</gx:coord>

<when>2025-12-17T22:36:28.000Z</when>
<gx:coord>-114.41291433333332 29.792005666666668 22.0</gx:coord>

<when>2025-12-17T22:36:39.000Z</when>
<gx:coord>-114.41367316666668 29.791906166666664 22.3</gx:coord>

<when>2025-12-17T22:36:50.000Z</when>
<gx:coord>-114.41400966666667 29.791874999999997 23.6</gx:coord>

<when>2025-12-17T22:37:01.000Z</when>
<gx:coord>-114.41415183333332 29.791499666666663 22.0</gx:coord>

<when>2025-12-17T22:37:12.000Z</when>
<gx:coord>-114.4140425 29.790445833333333 22.5</gx:coord>

<when>2025-12-17T22:37:23.000Z</when>
<gx:coord>-114.41400049999999 29.78968316666667 22.3</gx:coord>

<when>2025-12-17T22:37:34.000Z</when>
<gx:coord>-114.41398533333334 29.789610833333334 22.3</gx:coord>

<when>2025-12-17T22:41:14.000Z</when>
<gx:coord>-114.41392716666665 29.789423000000003 19.8</gx:coord>

<when>2025-12-17T22:41:25.000Z</when>
<gx:coord>-114.41379916666668 29.788457166666664 18.8</gx:coord>

<when>2025-12-17T22:41:36.000Z</when>
<gx:coord>-114.41363583333332 29.786960500000003 16.7</gx:coord>

<when>2025-12-17T22:41:47.000Z</when>
<gx:coord>-114.41350066666668 29.78563616666667 15.1</gx:coord>

<when>2025-12-17T22:41:58.000Z</when>
<gx:coord>-114.41334516666666 29.78420266666667 15.2</gx:coord>

<when>2025-12-17T22:42:09.000Z</when>
<gx:coord>-114.41318783333332 29.782685 16.0</gx:coord>

<when>2025-12-17T22:42:20.000Z</when>
<gx:coord>-114.41300816666666 29.781019833333335 19.2</gx:coord>

<when>2025-12-17T22:42:31.000Z</when>
<gx:coord>-114.41279516666667 29.779106666666667 22.8</gx:coord>

<when>2025-12-17T22:42:42.000Z</when>
<gx:coord>-114.41257766666668 29.777113 26.8</gx:coord>

<when>2025-12-17T22:42:53.000Z</when>
<gx:coord>-114.41236416666668 29.775141833333336 29.9</gx:coord>

<when>2025-12-17T22:43:04.000Z</when>
<gx:coord>-114.4121435 29.77309116666667 31.9</gx:coord>

<when>2025-12-17T22:43:15.000Z</when>
<gx:coord>-114.41191699999999 29.7709735 35.1</gx:coord>

<when>2025-12-17T22:43:26.000Z</when>
<gx:coord>-114.411672 29.768755166666665 38.6</gx:coord>

<when>2025-12-17T22:43:37.000Z</when>
<gx:coord>-114.41143816666666 29.766488166666665 41.7</gx:coord>

<when>2025-12-17T22:43:48.000Z</when>
<gx:coord>-114.4111825 29.76413433333333 44.9</gx:coord>

<when>2025-12-17T22:43:59.000Z</when>
<gx:coord>-114.41092699999999 29.761699333333333 47.6</gx:coord>

<when>2025-12-17T22:44:10.000Z</when>
<gx:coord>-114.41066183333332 29.75922016666667 52.6</gx:coord>

<when>2025-12-17T22:44:21.000Z</when>
<gx:coord>-114.41039683333332 29.7567345 58.2</gx:coord>

<when>2025-12-17T22:44:32.000Z</when>
<gx:coord>-114.41012816666668 29.754238666666666 63.5</gx:coord>

<when>2025-12-17T22:44:43.000Z</when>
<gx:coord>-114.40986616666666 29.751705333333334 68.9</gx:coord>

<when>2025-12-17T22:44:54.000Z</when>
<gx:coord>-114.40959416666668 29.749136 73.1</gx:coord>

<when>2025-12-17T22:45:05.000Z</when>
<gx:coord>-114.40932116666666 29.7465425 77.3</gx:coord>

<when>2025-12-17T22:45:16.000Z</when>
<gx:coord>-114.40904783333332 29.743930833333334 82.3</gx:coord>

<when>2025-12-17T22:45:27.000Z</when>
<gx:coord>-114.4087745 29.741288 86.3</gx:coord>

<when>2025-12-17T22:45:38.000Z</when>
<gx:coord>-114.4085 29.73864233333334 90.9</gx:coord>

<when>2025-12-17T22:45:49.000Z</when>
<gx:coord>-114.40821650000001 29.735984666666663 95.9</gx:coord>

<when>2025-12-17T22:46:00.000Z</when>
<gx:coord>-114.40792333333333 29.733297500000003 100.4</gx:coord>

<when>2025-12-17T22:46:11.000Z</when>
<gx:coord>-114.40755300000001 29.730600499999998 105.8</gx:coord>

<when>2025-12-17T22:46:22.000Z</when>
<gx:coord>-114.40713866666668 29.728205000000003 111.1</gx:coord>

<when>2025-12-17T22:46:33.000Z</when>
<gx:coord>-114.4068695 29.726483500000004 111.5</gx:coord>

<when>2025-12-17T22:46:44.000Z</when>
<gx:coord>-114.40661899999999 29.725145166666668 110.4</gx:coord>

<when>2025-12-17T22:46:55.000Z</when>
<gx:coord>-114.40638849999999 29.723982 109.3</gx:coord>

<when>2025-12-17T22:47:06.000Z</when>
<gx:coord>-114.40615299999999 29.723274999999997 109.2</gx:coord>

<when>2025-12-17T22:47:17.000Z</when>
<gx:coord>-114.40604450000001 29.723067500000003 105.8</gx:coord>

<when>2025-12-17T22:47:28.000Z</when>
<gx:coord>-114.40591049999999 29.722788833333333 101.2</gx:coord>

<when>2025-12-17T22:47:39.000Z</when>
<gx:coord>-114.40582116666668 29.7223925 97.7</gx:coord>

<when>2025-12-17T22:47:50.000Z</when>
<gx:coord>-114.405748 29.721928666666667 96.9</gx:coord>

<when>2025-12-17T22:48:01.000Z</when>
<gx:coord>-114.4056295 29.721258333333335 97.7</gx:coord>

<when>2025-12-17T22:48:12.000Z</when>
<gx:coord>-114.4055215 29.720616333333336 99.4</gx:coord>

<when>2025-12-17T22:48:23.000Z</when>
<gx:coord>-114.40539816666666 29.7199405 99.8</gx:coord>

<when>2025-12-17T22:48:34.000Z</when>
<gx:coord>-114.40529533333331 29.719317333333333 100.4</gx:coord>

<when>2025-12-17T22:48:45.000Z</when>
<gx:coord>-114.40521599999998 29.718750666666665 101.3</gx:coord>

<when>2025-12-17T22:48:56.000Z</when>
<gx:coord>-114.40513299999999 29.718129166666667 102.2</gx:coord>

<when>2025-12-17T22:49:07.000Z</when>
<gx:coord>-114.4049415 29.717492833333335 102.5</gx:coord>

<when>2025-12-17T22:49:18.000Z</when>
<gx:coord>-114.40478200000001 29.716843833333336 104.1</gx:coord>

<when>2025-12-17T22:49:29.000Z</when>
<gx:coord>-114.40478649999999 29.71618133333333 108.1</gx:coord>

<when>2025-12-17T22:49:40.000Z</when>
<gx:coord>-114.40489266666667 29.715532999999997 112.1</gx:coord>

<when>2025-12-17T22:49:51.000Z</when>
<gx:coord>-114.40504133333334 29.715108833333336 113.0</gx:coord>

<when>2025-12-17T22:50:02.000Z</when>
<gx:coord>-114.40534366666667 29.714625166666664 115.4</gx:coord>

<when>2025-12-17T22:50:13.000Z</when>
<gx:coord>-114.40547433333334 29.714030499999996 116.0</gx:coord>

<when>2025-12-17T22:50:24.000Z</when>
<gx:coord>-114.4055745 29.712857 119.2</gx:coord>

<when>2025-12-17T22:50:35.000Z</when>
<gx:coord>-114.40571883333332 29.711234833333332 122.9</gx:coord>

<when>2025-12-17T22:50:46.000Z</when>
<gx:coord>-114.4058855 29.709381666666665 126.1</gx:coord>

<when>2025-12-17T22:50:57.000Z</when>
<gx:coord>-114.40606783333332 29.707398333333337 130.2</gx:coord>

<when>2025-12-17T22:51:08.000Z</when>
<gx:coord>-114.40626150000001 29.705365833333335 137.5</gx:coord>

<when>2025-12-17T22:51:19.000Z</when>
<gx:coord>-114.40650216666667 29.70330016666667 143.6</gx:coord>

<when>2025-12-17T22:51:30.000Z</when>
<gx:coord>-114.40684766666666 29.701300333333332 148.7</gx:coord>

<when>2025-12-17T22:51:41.000Z</when>
<gx:coord>-114.40723933333332 29.699287833333333 152.4</gx:coord>

<when>2025-12-17T22:51:52.000Z</when>
<gx:coord>-114.407655 29.697202166666663 155.2</gx:coord>

<when>2025-12-17T22:52:03.000Z</when>
<gx:coord>-114.40808433333335 29.695037833333338 159.7</gx:coord>

<when>2025-12-17T22:52:14.000Z</when>
<gx:coord>-114.40852433333333 29.6927995 164.1</gx:coord>

<when>2025-12-17T22:52:25.000Z</when>
<gx:coord>-114.40898116666668 29.69052916666667 169.3</gx:coord>

<when>2025-12-17T22:52:36.000Z</when>
<gx:coord>-114.40943816666667 29.688244 174.2</gx:coord>

<when>2025-12-17T22:52:47.000Z</when>
<gx:coord>-114.40989883333332 29.685939666666666 177.6</gx:coord>

<when>2025-12-17T22:52:58.000Z</when>
<gx:coord>-114.41037399999999 29.683574500000002 181.1</gx:coord>

<when>2025-12-17T22:53:09.000Z</when>
<gx:coord>-114.41083983333334 29.681222333333334 185.1</gx:coord>

<when>2025-12-17T22:53:20.000Z</when>
<gx:coord>-114.41131983333335 29.678851 189.2</gx:coord>

<when>2025-12-17T22:53:31.000Z</when>
<gx:coord>-114.41179166666667 29.676477999999996 193.1</gx:coord>

<when>2025-12-17T22:53:42.000Z</when>
<gx:coord>-114.41221916666667 29.674123500000004 197.8</gx:coord>

<when>2025-12-17T22:53:53.000Z</when>
<gx:coord>-114.41237233333335 29.671680999999996 202.7</gx:coord>

<when>2025-12-17T22:54:04.000Z</when>
<gx:coord>-114.41224083333333 29.669177833333332 207.3</gx:coord>

<when>2025-12-17T22:54:15.000Z</when>
<gx:coord>-114.41204866666666 29.666690666666668 211.8</gx:coord>

<when>2025-12-17T22:54:26.000Z</when>
<gx:coord>-114.41186233333335 29.664184999999996 211.5</gx:coord>

<when>2025-12-17T22:54:37.000Z</when>
<gx:coord>-114.4116695 29.66167216666667 213.3</gx:coord>

<when>2025-12-17T22:54:48.000Z</when>
<gx:coord>-114.41147066666666 29.65912116666667 215.8</gx:coord>

<when>2025-12-17T22:54:59.000Z</when>
<gx:coord>-114.41126883333332 29.656550833333334 219.0</gx:coord>

<when>2025-12-17T22:55:10.000Z</when>
<gx:coord>-114.41107033333334 29.654025999999998 224.4</gx:coord>

<when>2025-12-17T22:55:21.000Z</when>
<gx:coord>-114.410876 29.651518166666666 229.5</gx:coord>

<when>2025-12-17T22:55:32.000Z</when>
<gx:coord>-114.410681 29.649026333333335 235.2</gx:coord>

<when>2025-12-17T22:55:43.000Z</when>
<gx:coord>-114.41039316666665 29.64662183333333 239.6</gx:coord>

<when>2025-12-17T22:55:54.000Z</when>
<gx:coord>-114.40994883333333 29.644282666666662 244.4</gx:coord>

<when>2025-12-17T22:56:05.000Z</when>
<gx:coord>-114.40944816666666 29.641910833333334 249.1</gx:coord>

<when>2025-12-17T22:56:16.000Z</when>
<gx:coord>-114.40893433333333 29.639524833333333 254.3</gx:coord>

<when>2025-12-17T22:56:27.000Z</when>
<gx:coord>-114.40841466666667 29.637120499999998 259.7</gx:coord>

<when>2025-12-17T22:56:38.000Z</when>
<gx:coord>-114.40788833333333 29.634663666666665 265.5</gx:coord>

<when>2025-12-17T22:56:49.000Z</when>
<gx:coord>-114.40735350000001 29.632194166666668 271.1</gx:coord>

<when>2025-12-17T22:57:00.000Z</when>
<gx:coord>-114.40681933333332 29.629703666666668 276.4</gx:coord>

<when>2025-12-17T22:57:11.000Z</when>
<gx:coord>-114.40626283333334 29.627233500000003 278.5</gx:coord>

<when>2025-12-17T22:57:22.000Z</when>
<gx:coord>-114.40544999999999 29.624862 279.1</gx:coord>

<when>2025-12-17T22:57:33.000Z</when>
<gx:coord>-114.40434099999999 29.622627166666668 279.7</gx:coord>

<when>2025-12-17T22:57:44.000Z</when>
<gx:coord>-114.40307666666668 29.62048766666667 285.3</gx:coord>

<when>2025-12-17T22:57:55.000Z</when>
<gx:coord>-114.40181983333332 29.618380499999997 289.4</gx:coord>

<when>2025-12-17T22:58:06.000Z</when>
<gx:coord>-114.40057200000001 29.616285666666666 293.2</gx:coord>

<when>2025-12-17T22:58:17.000Z</when>
<gx:coord>-114.39932933333333 29.61419583333333 296.4</gx:coord>

<when>2025-12-17T22:58:28.000Z</when>
<gx:coord>-114.3983065 29.61245783333333 296.4</gx:coord>

<when>2025-12-17T22:58:39.000Z</when>
<gx:coord>-114.39818366666665 29.612178166666663 295.8</gx:coord>

<when>2025-12-17T23:05:15.000Z</when>
<gx:coord>-114.39801183333333 29.611999833333336 296.2</gx:coord>

<when>2025-12-17T23:05:26.000Z</when>
<gx:coord>-114.3973625 29.610905333333335 294.3</gx:coord>

<when>2025-12-17T23:05:37.000Z</when>
<gx:coord>-114.39634316666667 29.609195999999997 292.9</gx:coord>

<when>2025-12-17T23:05:48.000Z</when>
<gx:coord>-114.39528649999998 29.607415833333334 290.3</gx:coord>

<when>2025-12-17T23:05:59.000Z</when>
<gx:coord>-114.39423316666668 29.605599833333333 288.1</gx:coord>

<when>2025-12-17T23:06:10.000Z</when>
<gx:coord>-114.39350350000001 29.603671000000002 289.3</gx:coord>

<when>2025-12-17T23:06:21.000Z</when>
<gx:coord>-114.39321100000001 29.60158066666667 292.8</gx:coord>

<when>2025-12-17T23:06:32.000Z</when>
<gx:coord>-114.39315366666666 29.599381166666664 298.6</gx:coord>

<when>2025-12-17T23:06:43.000Z</when>
<gx:coord>-114.39308783333333 29.597239666666663 311.3</gx:coord>

<when>2025-12-17T23:06:54.000Z</when>
<gx:coord>-114.39245449999999 29.59521966666667 319.1</gx:coord>

<when>2025-12-17T23:07:05.000Z</when>
<gx:coord>-114.39092633333333 29.59351016666667 326.3</gx:coord>

<when>2025-12-17T23:07:16.000Z</when>
<gx:coord>-114.38910433333334 29.59206883333333 333.5</gx:coord>

<when>2025-12-17T23:07:27.000Z</when>
<gx:coord>-114.38742983333334 29.59069383333333 333.0</gx:coord>

<when>2025-12-17T23:07:38.000Z</when>
<gx:coord>-114.38584700000001 29.589138166666665 329.2</gx:coord>

<when>2025-12-17T23:07:49.000Z</when>
<gx:coord>-114.38420383333332 29.587176833333334 332.2</gx:coord>

<when>2025-12-17T23:08:00.000Z</when>
<gx:coord>-114.38248566666668 29.58512316666667 338.5</gx:coord>

<when>2025-12-17T23:08:11.000Z</when>
<gx:coord>-114.38055233333334 29.583258333333333 348.1</gx:coord>

<when>2025-12-17T23:08:22.000Z</when>
<gx:coord>-114.37841916666666 29.581543000000003 355.6</gx:coord>

<when>2025-12-17T23:08:33.000Z</when>
<gx:coord>-114.37624316666667 29.57982433333333 361.7</gx:coord>

<when>2025-12-17T23:08:44.000Z</when>
<gx:coord>-114.37415433333332 29.5781715 366.0</gx:coord>

<when>2025-12-17T23:08:55.000Z</when>
<gx:coord>-114.37210416666667 29.57653433333333 363.4</gx:coord>

<when>2025-12-17T23:09:06.000Z</when>
<gx:coord>-114.37001783333332 29.574883 361.7</gx:coord>

<when>2025-12-17T23:09:17.000Z</when>
<gx:coord>-114.36782983333333 29.57314666666667 359.6</gx:coord>

<when>2025-12-17T23:09:28.000Z</when>
<gx:coord>-114.36565433333332 29.571430833333338 359.5</gx:coord>

<when>2025-12-17T23:09:39.000Z</when>
<gx:coord>-114.363634 29.569768333333332 366.4</gx:coord>

<when>2025-12-17T23:09:50.000Z</when>
<gx:coord>-114.36173050000001 29.568048833333332 367.0</gx:coord>

<when>2025-12-17T23:10:01.000Z</when>
<gx:coord>-114.35988416666666 29.566200333333335 364.9</gx:coord>

<when>2025-12-17T23:10:12.000Z</when>
<gx:coord>-114.35806583333333 29.564370999999998 367.5</gx:coord>

<when>2025-12-17T23:10:23.000Z</when>
<gx:coord>-114.35616933333334 29.56244133333333 370.7</gx:coord>

<when>2025-12-17T23:10:34.000Z</when>
<gx:coord>-114.35423333333334 29.560481499999998 374.6</gx:coord>

<when>2025-12-17T23:10:45.000Z</when>
<gx:coord>-114.35211849999999 29.558601666666664 373.8</gx:coord>

<when>2025-12-17T23:10:56.000Z</when>
<gx:coord>-114.34984116666668 29.557042166666665 372.6</gx:coord>

<when>2025-12-17T23:11:07.000Z</when>
<gx:coord>-114.34744533333333 29.5556245 373.4</gx:coord>

<when>2025-12-17T23:11:18.000Z</when>
<gx:coord>-114.34518183333333 29.554232666666667 375.4</gx:coord>

<when>2025-12-17T23:11:29.000Z</when>
<gx:coord>-114.34331266666668 29.55251033333333 382.7</gx:coord>

<when>2025-12-17T23:11:40.000Z</when>
<gx:coord>-114.34194016666667 29.550530166666665 389.7</gx:coord>

<when>2025-12-17T23:11:51.000Z</when>
<gx:coord>-114.34086733333334 29.54867466666667 389.5</gx:coord>

<when>2025-12-17T23:12:02.000Z</when>
<gx:coord>-114.33988716666666 29.54700683333333 391.8</gx:coord>

<when>2025-12-17T23:12:13.000Z</when>
<gx:coord>-114.33897966666667 29.545438166666667 397.1</gx:coord>

<when>2025-12-17T23:12:24.000Z</when>
<gx:coord>-114.33791316666665 29.54361216666667 400.9</gx:coord>

<when>2025-12-17T23:12:35.000Z</when>
<gx:coord>-114.33672616666666 29.54157 405.1</gx:coord>

<when>2025-12-17T23:12:46.000Z</when>
<gx:coord>-114.33548133333333 29.539443 413.1</gx:coord>

<when>2025-12-17T23:12:57.000Z</when>
<gx:coord>-114.33426749999998 29.537352000000002 424.5</gx:coord>

<when>2025-12-17T23:13:08.000Z</when>
<gx:coord>-114.33300733333333 29.5352145 430.4</gx:coord>

<when>2025-12-17T23:13:19.000Z</when>
<gx:coord>-114.33177516666667 29.533121833333333 430.9</gx:coord>

<when>2025-12-17T23:13:30.000Z</when>
<gx:coord>-114.33057883333335 29.531066666666668 429.4</gx:coord>

<when>2025-12-17T23:13:41.000Z</when>
<gx:coord>-114.32963316666668 29.528859166666667 433.1</gx:coord>

<when>2025-12-17T23:13:52.000Z</when>
<gx:coord>-114.32929766666666 29.52655516666667 434.4</gx:coord>

<when>2025-12-17T23:14:03.000Z</when>
<gx:coord>-114.32932016666668 29.524283833333335 435.7</gx:coord>

<when>2025-12-17T23:14:14.000Z</when>
<gx:coord>-114.32938416666666 29.521997666666667 443.9</gx:coord>

<when>2025-12-17T23:14:25.000Z</when>
<gx:coord>-114.32942033333332 29.519659333333333 449.1</gx:coord>

<when>2025-12-17T23:14:36.000Z</when>
<gx:coord>-114.32946150000001 29.51722933333333 449.6</gx:coord>

<when>2025-12-17T23:14:47.000Z</when>
<gx:coord>-114.32950433333332 29.514703333333333 453.1</gx:coord>

<when>2025-12-17T23:14:58.000Z</when>
<gx:coord>-114.32954999999998 29.512212999999996 463.1</gx:coord>

<when>2025-12-17T23:15:09.000Z</when>
<gx:coord>-114.32959799999999 29.50975916666666 472.1</gx:coord>

<when>2025-12-17T23:15:20.000Z</when>
<gx:coord>-114.32967283333333 29.50732833333333 480.8</gx:coord>

<when>2025-12-17T23:15:31.000Z</when>
<gx:coord>-114.3299235 29.504912166666667 488.2</gx:coord>

<when>2025-12-17T23:15:42.000Z</when>
<gx:coord>-114.33034216666668 29.502461833333335 493.1</gx:coord>

<when>2025-12-17T23:15:53.000Z</when>
<gx:coord>-114.33085899999999 29.499995833333333 500.4</gx:coord>

<when>2025-12-17T23:16:04.000Z</when>
<gx:coord>-114.3313735 29.497599833333332 511.1</gx:coord>

<when>2025-12-17T23:16:15.000Z</when>
<gx:coord>-114.33187833333335 29.495305833333337 522.1</gx:coord>

<when>2025-12-17T23:16:26.000Z</when>
<gx:coord>-114.33234783333334 29.493205333333336 536.0</gx:coord>

<when>2025-12-17T23:16:37.000Z</when>
<gx:coord>-114.33276916666667 29.491223666666663 544.6</gx:coord>

<when>2025-12-17T23:16:48.000Z</when>
<gx:coord>-114.33319266666668 29.489159000000004 552.5</gx:coord>

<when>2025-12-17T23:16:59.000Z</when>
<gx:coord>-114.333186 29.486989166666664 559.9</gx:coord>

<when>2025-12-17T23:17:10.000Z</when>
<gx:coord>-114.33252233333333 29.48483966666667 567.4</gx:coord>

<when>2025-12-17T23:17:21.000Z</when>
<gx:coord>-114.33124350000001 29.4828955 573.3</gx:coord>

<when>2025-12-17T23:17:32.000Z</when>
<gx:coord>-114.33022033333333 29.481616500000005 579.3</gx:coord>

<when>2025-12-17T23:17:43.000Z</when>
<gx:coord>-114.32983966666667 29.481156666666667 582.2</gx:coord>

<when>2025-12-17T23:17:54.000Z</when>
<gx:coord>-114.32973349999999 29.48102183333333 584.2</gx:coord>

<when>2025-12-17T23:18:38.000Z</when>
<gx:coord>-114.32968233333334 29.48096516666667 587.1</gx:coord>

<when>2025-12-17T23:19:00.000Z</when>
<gx:coord>-114.32964483333332 29.480916666666666 587.4</gx:coord>

<when>2025-12-17T23:23:35.000Z</when>
<gx:coord>-114.32946650000001 29.480653833333335 590.3</gx:coord>

<when>2025-12-17T23:23:46.000Z</when>
<gx:coord>-114.32886316666666 29.47965183333333 589.8</gx:coord>

<when>2025-12-17T23:23:57.000Z</when>
<gx:coord>-114.32841783333333 29.478885833333333 594.8</gx:coord>

<when>2025-12-17T23:24:08.000Z</when>
<gx:coord>-114.32818100000001 29.478204833333333 599.1</gx:coord>

<when>2025-12-17T23:24:19.000Z</when>
<gx:coord>-114.32799066666666 29.477254666666667 604.0</gx:coord>

<when>2025-12-17T23:24:30.000Z</when>
<gx:coord>-114.32792766666668 29.4761995 606.8</gx:coord>

<when>2025-12-17T23:24:41.000Z</when>
<gx:coord>-114.32804466666667 29.475012 607.3</gx:coord>

<when>2025-12-17T23:24:52.000Z</when>
<gx:coord>-114.328233 29.47363833333333 608.0</gx:coord>

<when>2025-12-17T23:25:03.000Z</when>
<gx:coord>-114.32868116666666 29.47203416666667 609.5</gx:coord>

<when>2025-12-17T23:25:14.000Z</when>
<gx:coord>-114.32973016666668 29.4705255 612.4</gx:coord>

<when>2025-12-17T23:25:25.000Z</when>
<gx:coord>-114.33107433333335 29.469269166666663 626.3</gx:coord>

<when>2025-12-17T23:25:36.000Z</when>
<gx:coord>-114.332397 29.468096833333334 634.2</gx:coord>

<when>2025-12-17T23:25:47.000Z</when>
<gx:coord>-114.3337355 29.466888666666666 645.6</gx:coord>

<when>2025-12-17T23:25:58.000Z</when>
<gx:coord>-114.33496216666666 29.465499833333336 651.4</gx:coord>

<when>2025-12-17T23:26:09.000Z</when>
<gx:coord>-114.33550333333332 29.463752333333332 661.6</gx:coord>

<when>2025-12-17T23:26:20.000Z</when>
<gx:coord>-114.33516366666666 29.46191683333333 674.3</gx:coord>

<when>2025-12-17T23:26:31.000Z</when>
<gx:coord>-114.33437200000002 29.46015783333333 683.6</gx:coord>

<when>2025-12-17T23:26:42.000Z</when>
<gx:coord>-114.33373449999999 29.458185166666667 683.5</gx:coord>

<when>2025-12-17T23:26:53.000Z</when>
<gx:coord>-114.33352716666668 29.455977999999998 680.0</gx:coord>

<when>2025-12-17T23:27:04.000Z</when>
<gx:coord>-114.33369400000001 29.453716 687.3</gx:coord>

<when>2025-12-17T23:27:15.000Z</when>
<gx:coord>-114.3338805 29.4515185 696.0</gx:coord>

<when>2025-12-17T23:27:26.000Z</when>
<gx:coord>-114.33393133333333 29.44936416666667 704.9</gx:coord>

<when>2025-12-17T23:27:37.000Z</when>
<gx:coord>-114.33297466666666 29.447580833333337 711.2</gx:coord>

<when>2025-12-17T23:27:48.000Z</when>
<gx:coord>-114.33103233333334 29.446324166666667 718.3</gx:coord>

<when>2025-12-17T23:27:59.000Z</when>
<gx:coord>-114.32880633333335 29.44525566666667 726.2</gx:coord>

<when>2025-12-17T23:28:10.000Z</when>
<gx:coord>-114.32677549999998 29.44381433333333 727.8</gx:coord>

<when>2025-12-17T23:28:21.000Z</when>
<gx:coord>-114.32491950000001 29.4419025 723.7</gx:coord>

<when>2025-12-17T23:28:32.000Z</when>
<gx:coord>-114.32326650000002 29.43988883333333 719.0</gx:coord>

<when>2025-12-17T23:28:43.000Z</when>
<gx:coord>-114.32291483333331 29.437506666666664 714.7</gx:coord>

<when>2025-12-17T23:28:54.000Z</when>
<gx:coord>-114.32415833333334 29.43530483333333 705.4</gx:coord>

<when>2025-12-17T23:29:05.000Z</when>
<gx:coord>-114.326008 29.433041166666666 694.4</gx:coord>

<when>2025-12-17T23:29:16.000Z</when>
<gx:coord>-114.328015 29.4307975 691.4</gx:coord>

<when>2025-12-17T23:29:27.000Z</when>
<gx:coord>-114.33006116666665 29.4285 688.5</gx:coord>

<when>2025-12-17T23:29:38.000Z</when>
<gx:coord>-114.332042 29.42629133333333 686.0</gx:coord>

<when>2025-12-17T23:29:49.000Z</when>
<gx:coord>-114.33404333333334 29.424042666666665 683.8</gx:coord>

<when>2025-12-17T23:30:00.000Z</when>
<gx:coord>-114.33609516666665 29.421741833333332 681.9</gx:coord>

<when>2025-12-17T23:30:11.000Z</when>
<gx:coord>-114.33813583333334 29.419454499999997 679.6</gx:coord>

<when>2025-12-17T23:30:22.000Z</when>
<gx:coord>-114.34018816666666 29.417156833333333 677.5</gx:coord>

<when>2025-12-17T23:30:33.000Z</when>
<gx:coord>-114.34223300000001 29.414863 675.8</gx:coord>

<when>2025-12-17T23:30:44.000Z</when>
<gx:coord>-114.34426299999998 29.412584 676.3</gx:coord>

<when>2025-12-17T23:30:55.000Z</when>
<gx:coord>-114.34625816666667 29.41034666666667 677.4</gx:coord>

<when>2025-12-17T23:31:06.000Z</when>
<gx:coord>-114.34826166666666 29.408095333333335 675.9</gx:coord>

<when>2025-12-17T23:31:17.000Z</when>
<gx:coord>-114.35035333333332 29.40589 673.3</gx:coord>

<when>2025-12-17T23:31:28.000Z</when>
<gx:coord>-114.35274400000002 29.40395416666667 671.2</gx:coord>

<when>2025-12-17T23:31:39.000Z</when>
<gx:coord>-114.355362 29.402347333333335 670.7</gx:coord>

<when>2025-12-17T23:31:50.000Z</when>
<gx:coord>-114.35818266666665 29.401038499999995 668.8</gx:coord>

<when>2025-12-17T23:32:01.000Z</when>
<gx:coord>-114.36110083333332 29.39975666666667 666.0</gx:coord>

<when>2025-12-17T23:32:12.000Z</when>
<gx:coord>-114.36398366666666 29.398487999999997 665.4</gx:coord>

<when>2025-12-17T23:32:23.000Z</when>
<gx:coord>-114.36689416666668 29.397202166666663 663.6</gx:coord>

<when>2025-12-17T23:32:34.000Z</when>
<gx:coord>-114.36967449999999 29.395797500000004 664.6</gx:coord>

<when>2025-12-17T23:32:45.000Z</when>
<gx:coord>-114.37225633333334 29.394023999999998 665.3</gx:coord>

<when>2025-12-17T23:32:56.000Z</when>
<gx:coord>-114.3745665 29.39205516666667 665.1</gx:coord>

<when>2025-12-17T23:33:07.000Z</when>
<gx:coord>-114.376787 29.390122333333338 664.9</gx:coord>

<when>2025-12-17T23:33:18.000Z</when>
<gx:coord>-114.37890450000002 29.388289333333333 665.0</gx:coord>

<when>2025-12-17T23:33:29.000Z</when>
<gx:coord>-114.38082816666665 29.386620333333333 664.7</gx:coord>

<when>2025-12-17T23:33:40.000Z</when>
<gx:coord>-114.38220299999999 29.385462333333333 665.5</gx:coord>

<when>2025-12-17T23:33:51.000Z</when>
<gx:coord>-114.38200366666666 29.384750666666665 665.7</gx:coord>

<when>2025-12-17T23:34:02.000Z</when>
<gx:coord>-114.38084150000002 29.38343166666667 664.3</gx:coord>

<when>2025-12-17T23:34:13.000Z</when>
<gx:coord>-114.37942016666666 29.381777333333336 663.2</gx:coord>

<when>2025-12-17T23:34:24.000Z</when>
<gx:coord>-114.3779185 29.380030666666666 662.0</gx:coord>

<when>2025-12-17T23:34:35.000Z</when>
<gx:coord>-114.37634583333332 29.378197666666665 662.0</gx:coord>

<when>2025-12-17T23:34:46.000Z</when>
<gx:coord>-114.37478166666666 29.376383499999996 662.5</gx:coord>

<when>2025-12-17T23:34:57.000Z</when>
<gx:coord>-114.37323266666665 29.374583666666663 664.0</gx:coord>

<when>2025-12-17T23:35:08.000Z</when>
<gx:coord>-114.37158149999999 29.372663499999998 664.2</gx:coord>

<when>2025-12-17T23:35:19.000Z</when>
<gx:coord>-114.369883 29.37068866666667 665.0</gx:coord>

<when>2025-12-17T23:35:30.000Z</when>
<gx:coord>-114.36814516666666 29.368675500000002 666.6</gx:coord>

<when>2025-12-17T23:35:41.000Z</when>
<gx:coord>-114.366441 29.366690166666665 667.2</gx:coord>

<when>2025-12-17T23:35:52.000Z</when>
<gx:coord>-114.36455466666666 29.365078333333333 668.0</gx:coord>

<when>2025-12-17T23:36:03.000Z</when>
<gx:coord>-114.36224116666666 29.36372983333333 667.0</gx:coord>

<when>2025-12-17T23:36:14.000Z</when>
<gx:coord>-114.35987850000001 29.36235483333333 666.1</gx:coord>

<when>2025-12-17T23:36:25.000Z</when>
<gx:coord>-114.35759666666667 29.361034000000004 667.0</gx:coord>

<when>2025-12-17T23:36:36.000Z</when>
<gx:coord>-114.3553415 29.359758666666668 670.6</gx:coord>

<when>2025-12-17T23:36:47.000Z</when>
<gx:coord>-114.352819 29.358751999999996 669.0</gx:coord>

<when>2025-12-17T23:36:58.000Z</when>
<gx:coord>-114.35033100000001 29.35782733333333 666.6</gx:coord>

<when>2025-12-17T23:37:09.000Z</when>
<gx:coord>-114.34820999999998 29.357042499999995 670.3</gx:coord>

<when>2025-12-17T23:37:20.000Z</when>
<gx:coord>-114.34600299999998 29.35623233333333 668.6</gx:coord>

<when>2025-12-17T23:37:31.000Z</when>
<gx:coord>-114.34340733333332 29.35527216666667 670.3</gx:coord>

<when>2025-12-17T23:37:42.000Z</when>
<gx:coord>-114.34064683333332 29.3542455 672.5</gx:coord>

<when>2025-12-17T23:37:53.000Z</when>
<gx:coord>-114.33789283333333 29.353224333333333 676.7</gx:coord>

<when>2025-12-17T23:38:04.000Z</when>
<gx:coord>-114.3353 29.352269 685.0</gx:coord>

<when>2025-12-17T23:38:15.000Z</when>
<gx:coord>-114.33288883333334 29.351380666666667 683.2</gx:coord>

<when>2025-12-17T23:38:26.000Z</when>
<gx:coord>-114.33078666666667 29.350407333333337 684.3</gx:coord>

<when>2025-12-17T23:38:37.000Z</when>
<gx:coord>-114.32904733333335 29.348693000000004 676.7</gx:coord>

<when>2025-12-17T23:38:48.000Z</when>
<gx:coord>-114.32718766666667 29.34681483333333 674.8</gx:coord>

<when>2025-12-17T23:38:59.000Z</when>
<gx:coord>-114.32536433333334 29.344977499999995 677.1</gx:coord>

<when>2025-12-17T23:39:10.000Z</when>
<gx:coord>-114.32358716666667 29.343179333333335 681.2</gx:coord>

<when>2025-12-17T23:39:21.000Z</when>
<gx:coord>-114.32182933333334 29.341397833333335 685.9</gx:coord>

<when>2025-12-17T23:39:32.000Z</when>
<gx:coord>-114.32003483333334 29.339586999999998 688.3</gx:coord>

<when>2025-12-17T23:39:43.000Z</when>
<gx:coord>-114.31824466666667 29.337782500000003 689.9</gx:coord>

<when>2025-12-17T23:39:54.000Z</when>
<gx:coord>-114.31640516666667 29.335927 693.1</gx:coord>

<when>2025-12-17T23:40:05.000Z</when>
<gx:coord>-114.31463950000001 29.3341945 699.1</gx:coord>

<when>2025-12-17T23:40:16.000Z</when>
<gx:coord>-114.3125365 29.333297 707.2</gx:coord>

<when>2025-12-17T23:40:27.000Z</when>
<gx:coord>-114.31008150000001 29.33277233333333 709.7</gx:coord>

<when>2025-12-17T23:40:38.000Z</when>
<gx:coord>-114.30845583333333 29.331872166666667 719.8</gx:coord>

<when>2025-12-17T23:40:49.000Z</when>
<gx:coord>-114.30709933333334 29.331146166666667 724.4</gx:coord>

<when>2025-12-17T23:41:00.000Z</when>
<gx:coord>-114.30571300000001 29.331256666666665 732.3</gx:coord>

<when>2025-12-17T23:41:11.000Z</when>
<gx:coord>-114.305354 29.331227166666668 733.2</gx:coord>

<when>2025-12-17T23:41:22.000Z</when>
<gx:coord>-114.30495266666667 29.33113916666667 733.9</gx:coord>

<when>2025-12-17T23:41:33.000Z</when>
<gx:coord>-114.30412083333334 29.330871333333334 732.3</gx:coord>

<when>2025-12-17T23:41:44.000Z</when>
<gx:coord>-114.30307733333332 29.330180333333335 723.6</gx:coord>

<when>2025-12-17T23:41:55.000Z</when>
<gx:coord>-114.30227916666666 29.32928 717.7</gx:coord>

<when>2025-12-17T23:42:06.000Z</when>
<gx:coord>-114.30145599999999 29.328546666666664 709.6</gx:coord>

<when>2025-12-17T23:42:17.000Z</when>
<gx:coord>-114.30030433333334 29.328401 705.6</gx:coord>

<when>2025-12-17T23:42:28.000Z</when>
<gx:coord>-114.29887666666667 29.328160166666667 695.5</gx:coord>

<when>2025-12-17T23:42:39.000Z</when>
<gx:coord>-114.2975085 29.327222833333334 687.5</gx:coord>

<when>2025-12-17T23:42:50.000Z</when>
<gx:coord>-114.29623500000001 29.32619516666667 680.6</gx:coord>

<when>2025-12-17T23:43:01.000Z</when>
<gx:coord>-114.29477366666667 29.32521733333333 675.0</gx:coord>

<when>2025-12-17T23:43:12.000Z</when>
<gx:coord>-114.29302350000002 29.3242245 670.1</gx:coord>

<when>2025-12-17T23:43:23.000Z</when>
<gx:coord>-114.29108599999999 29.3231305 665.0</gx:coord>

<when>2025-12-17T23:43:34.000Z</when>
<gx:coord>-114.28924716666667 29.322030666666667 658.7</gx:coord>

<when>2025-12-17T23:43:45.000Z</when>
<gx:coord>-114.28745400000001 29.320827 653.5</gx:coord>

<when>2025-12-17T23:43:56.000Z</when>
<gx:coord>-114.285413 29.319806333333336 646.9</gx:coord>

<when>2025-12-17T23:44:07.000Z</when>
<gx:coord>-114.28317066666665 29.318847833333333 645.3</gx:coord>

<when>2025-12-17T23:44:18.000Z</when>
<gx:coord>-114.28102733333331 29.317824166666664 643.2</gx:coord>

<when>2025-12-17T23:44:29.000Z</when>
<gx:coord>-114.2789785 29.31674483333334 640.1</gx:coord>

<when>2025-12-17T23:44:40.000Z</when>
<gx:coord>-114.27703266666667 29.31571816666667 642.2</gx:coord>

<when>2025-12-17T23:44:51.000Z</when>
<gx:coord>-114.27517449999999 29.3147765 636.0</gx:coord>

<when>2025-12-17T23:45:02.000Z</when>
<gx:coord>-114.2729025 29.313535833333336 627.8</gx:coord>

<when>2025-12-17T23:45:13.000Z</when>
<gx:coord>-114.27075233333335 29.3123745 624.7</gx:coord>

<when>2025-12-17T23:45:24.000Z</when>
<gx:coord>-114.26875833333334 29.311046333333334 621.7</gx:coord>

<when>2025-12-17T23:45:35.000Z</when>
<gx:coord>-114.26669433333333 29.309645500000002 617.7</gx:coord>

<when>2025-12-17T23:45:46.000Z</when>
<gx:coord>-114.2646 29.308229166666667 614.8</gx:coord>

<when>2025-12-17T23:45:57.000Z</when>
<gx:coord>-114.26241683333335 29.306750166666667 612.2</gx:coord>

<when>2025-12-17T23:46:08.000Z</when>
<gx:coord>-114.26025016666667 29.305292 608.7</gx:coord>

<when>2025-12-17T23:46:19.000Z</when>
<gx:coord>-114.25807183333333 29.303974 609.4</gx:coord>

<when>2025-12-17T23:46:30.000Z</when>
<gx:coord>-114.25557249999999 29.30295233333333 608.2</gx:coord>

<when>2025-12-17T23:46:41.000Z</when>
<gx:coord>-114.25304083333334 29.301887166666667 606.4</gx:coord>

<when>2025-12-17T23:46:52.000Z</when>
<gx:coord>-114.25092283333333 29.3003645 602.5</gx:coord>

<when>2025-12-17T23:47:03.000Z</when>
<gx:coord>-114.24881283333335 29.29871933333333 595.3</gx:coord>

<when>2025-12-17T23:47:14.000Z</when>
<gx:coord>-114.24707966666668 29.2973695 593.3</gx:coord>

<when>2025-12-17T23:47:25.000Z</when>
<gx:coord>-114.24518616666667 29.295899333333335 591.4</gx:coord>

<when>2025-12-17T23:47:36.000Z</when>
<gx:coord>-114.24323266666667 29.294371500000004 589.8</gx:coord>

<when>2025-12-17T23:47:47.000Z</when>
<gx:coord>-114.24097616666668 29.293052333333335 594.2</gx:coord>

<when>2025-12-17T23:47:58.000Z</when>
<gx:coord>-114.23879366666667 29.291940500000003 603.6</gx:coord>

<when>2025-12-17T23:48:09.000Z</when>
<gx:coord>-114.23670083333333 29.290873333333334 599.4</gx:coord>

<when>2025-12-17T23:48:20.000Z</when>
<gx:coord>-114.23450383333332 29.289757833333336 597.1</gx:coord>

<when>2025-12-17T23:48:31.000Z</when>
<gx:coord>-114.23238833333335 29.2886865 593.6</gx:coord>

<when>2025-12-17T23:48:42.000Z</when>
<gx:coord>-114.23016583333334 29.28755416666667 580.8</gx:coord>

<when>2025-12-17T23:48:53.000Z</when>
<gx:coord>-114.22785333333334 29.286375500000002 569.3</gx:coord>

<when>2025-12-17T23:49:04.000Z</when>
<gx:coord>-114.22563316666668 29.285261 571.9</gx:coord>

<when>2025-12-17T23:49:15.000Z</when>
<gx:coord>-114.22334933333335 29.2845225 567.6</gx:coord>

<when>2025-12-17T23:49:26.000Z</when>
<gx:coord>-114.2209485 29.283893499999998 564.4</gx:coord>

<when>2025-12-17T23:49:37.000Z</when>
<gx:coord>-114.21869533333332 29.282992166666666 564.2</gx:coord>

<when>2025-12-17T23:49:48.000Z</when>
<gx:coord>-114.2167675 29.281444000000004 560.5</gx:coord>

<when>2025-12-17T23:49:59.000Z</when>
<gx:coord>-114.21482916666668 29.27983016666667 557.3</gx:coord>

<when>2025-12-17T23:50:10.000Z</when>
<gx:coord>-114.21295733333334 29.278267500000002 549.6</gx:coord>

<when>2025-12-17T23:50:21.000Z</when>
<gx:coord>-114.21118816666667 29.27679483333333 554.0</gx:coord>

<when>2025-12-17T23:50:32.000Z</when>
<gx:coord>-114.20960250000002 29.275471666666665 553.8</gx:coord>

<when>2025-12-17T23:50:43.000Z</when>
<gx:coord>-114.2079525 29.274113000000003 552.8</gx:coord>

<when>2025-12-17T23:50:54.000Z</when>
<gx:coord>-114.20603466666668 29.273024000000003 554.9</gx:coord>

<when>2025-12-17T23:51:05.000Z</when>
<gx:coord>-114.20415966666665 29.27185383333333 556.9</gx:coord>

<when>2025-12-17T23:51:16.000Z</when>
<gx:coord>-114.202266 29.270575666666666 555.6</gx:coord>

<when>2025-12-17T23:51:27.000Z</when>
<gx:coord>-114.20031050000001 29.269539666666667 558.3</gx:coord>

<when>2025-12-17T23:51:38.000Z</when>
<gx:coord>-114.19814716666666 29.2690755 558.6</gx:coord>

<when>2025-12-17T23:51:49.000Z</when>
<gx:coord>-114.1958415 29.268472499999998 558.0</gx:coord>

<when>2025-12-17T23:52:00.000Z</when>
<gx:coord>-114.19368533333333 29.26747383333333 563.5</gx:coord>

<when>2025-12-17T23:52:11.000Z</when>
<gx:coord>-114.19149999999999 29.266448500000003 567.3</gx:coord>

<when>2025-12-17T23:52:22.000Z</when>
<gx:coord>-114.18922766666668 29.265385 567.1</gx:coord>

<when>2025-12-17T23:52:33.000Z</when>
<gx:coord>-114.186846 29.264267000000004 567.1</gx:coord>

<when>2025-12-17T23:52:44.000Z</when>
<gx:coord>-114.18445033333334 29.26314016666667 567.7</gx:coord>

<when>2025-12-17T23:52:55.000Z</when>
<gx:coord>-114.18210066666667 29.262034333333336 571.3</gx:coord>

<when>2025-12-17T23:53:06.000Z</when>
<gx:coord>-114.17988233333332 29.260980333333336 577.2</gx:coord>

<when>2025-12-17T23:53:17.000Z</when>
<gx:coord>-114.17790199999999 29.259580666666672 580.4</gx:coord>

<when>2025-12-17T23:53:28.000Z</when>
<gx:coord>-114.1759685 29.258039500000002 583.5</gx:coord>

<when>2025-12-17T23:53:39.000Z</when>
<gx:coord>-114.17399116666665 29.256460999999998 587.1</gx:coord>

<when>2025-12-17T23:53:50.000Z</when>
<gx:coord>-114.172037 29.25490033333333 589.3</gx:coord>

<when>2025-12-17T23:54:01.000Z</when>
<gx:coord>-114.1700905 29.25334966666667 585.4</gx:coord>

<when>2025-12-17T23:54:12.000Z</when>
<gx:coord>-114.1681305 29.251780666666665 590.5</gx:coord>

<when>2025-12-17T23:54:23.000Z</when>
<gx:coord>-114.166334 29.2500375 593.0</gx:coord>

<when>2025-12-17T23:54:34.000Z</when>
<gx:coord>-114.16456016666667 29.24822783333333 594.5</gx:coord>

<when>2025-12-17T23:54:45.000Z</when>
<gx:coord>-114.16281533333334 29.2464355 597.9</gx:coord>

<when>2025-12-17T23:54:56.000Z</when>
<gx:coord>-114.161062 29.244625166666665 595.9</gx:coord>

<when>2025-12-17T23:55:07.000Z</when>
<gx:coord>-114.15929466666667 29.242804833333334 593.2</gx:coord>

<when>2025-12-17T23:55:18.000Z</when>
<gx:coord>-114.15754433333335 29.240999000000002 590.0</gx:coord>

<when>2025-12-17T23:55:29.000Z</when>
<gx:coord>-114.15592283333332 29.239268999999997 588.8</gx:coord>

<when>2025-12-17T23:55:40.000Z</when>
<gx:coord>-114.15482283333334 29.237214 584.9</gx:coord>

<when>2025-12-17T23:55:51.000Z</when>
<gx:coord>-114.15381883333333 29.235007000000003 582.8</gx:coord>

<when>2025-12-17T23:56:02.000Z</when>
<gx:coord>-114.15309800000001 29.232700500000004 580.2</gx:coord>

<when>2025-12-17T23:56:13.000Z</when>
<gx:coord>-114.15242500000001 29.230436166666664 577.0</gx:coord>

<when>2025-12-17T23:56:24.000Z</when>
<gx:coord>-114.15177049999998 29.228263833333337 575.0</gx:coord>

<when>2025-12-17T23:56:35.000Z</when>
<gx:coord>-114.15109883333335 29.226019333333337 572.5</gx:coord>

<when>2025-12-17T23:56:46.000Z</when>
<gx:coord>-114.15042816666667 29.223772 569.9</gx:coord>

<when>2025-12-17T23:56:57.000Z</when>
<gx:coord>-114.14976416666666 29.221558333333338 566.4</gx:coord>

<when>2025-12-17T23:57:08.000Z</when>
<gx:coord>-114.14909100000001 29.219300166666667 565.0</gx:coord>

<when>2025-12-17T23:57:19.000Z</when>
<gx:coord>-114.14839033333334 29.216969000000002 562.2</gx:coord>

<when>2025-12-17T23:57:30.000Z</when>
<gx:coord>-114.14767666666667 29.21456783333333 559.5</gx:coord>

<when>2025-12-17T23:57:41.000Z</when>
<gx:coord>-114.14694816666666 29.212121333333336 557.1</gx:coord>

<when>2025-12-17T23:57:52.000Z</when>
<gx:coord>-114.14623733333335 29.20976033333333 555.9</gx:coord>

<when>2025-12-17T23:58:03.000Z</when>
<gx:coord>-114.14550966666665 29.207317166666666 552.9</gx:coord>

<when>2025-12-17T23:58:14.000Z</when>
<gx:coord>-114.14526266666665 29.205070666666664 559.4</gx:coord>

<when>2025-12-17T23:58:25.000Z</when>
<gx:coord>-114.14603116666667 29.202945500000002 558.1</gx:coord>

<when>2025-12-17T23:58:36.000Z</when>
<gx:coord>-114.14687383333333 29.200702166666662 553.1</gx:coord>

<when>2025-12-17T23:58:47.000Z</when>
<gx:coord>-114.14753983333334 29.198352666666665 548.4</gx:coord>

<when>2025-12-17T23:58:58.000Z</when>
<gx:coord>-114.14793316666668 29.195917833333336 546.7</gx:coord>

<when>2025-12-17T23:59:09.000Z</when>
<gx:coord>-114.14801833333334 29.193597666666665 540.7</gx:coord>

<when>2025-12-17T23:59:20.000Z</when>
<gx:coord>-114.14729983333334 29.191465333333333 535.3</gx:coord>

<when>2025-12-17T23:59:31.000Z</when>
<gx:coord>-114.14655166666668 29.189272833333334 528.1</gx:coord>

<when>2025-12-17T23:59:42.000Z</when>
<gx:coord>-114.1458125 29.187071999999997 530.6</gx:coord>

<when>2025-12-17T23:59:53.000Z</when>
<gx:coord>-114.145334 29.184969166666665 528.7</gx:coord>

<when>2025-12-18T00:00:04.000Z</when>
<gx:coord>-114.14588183333332 29.18289766666667 522.4</gx:coord>

<when>2025-12-18T00:00:15.000Z</when>
<gx:coord>-114.14614733333335 29.180884 518.7</gx:coord>

<when>2025-12-18T00:00:26.000Z</when>
<gx:coord>-114.14531333333335 29.178848833333337 516.6</gx:coord>

<when>2025-12-18T00:00:37.000Z</when>
<gx:coord>-114.14468049999999 29.176940166666668 524.9</gx:coord>

<when>2025-12-18T00:00:48.000Z</when>
<gx:coord>-114.14489800000001 29.17505983333333 524.8</gx:coord>

<when>2025-12-18T00:00:59.000Z</when>
<gx:coord>-114.14430233333333 29.17313766666667 521.4</gx:coord>

<when>2025-12-18T00:01:10.000Z</when>
<gx:coord>-114.14392316666665 29.171166333333336 521.9</gx:coord>

<when>2025-12-18T00:01:21.000Z</when>
<gx:coord>-114.1438965 29.168911 518.9</gx:coord>

<when>2025-12-18T00:01:32.000Z</when>
<gx:coord>-114.14387533333333 29.166492499999997 514.7</gx:coord>

<when>2025-12-18T00:01:43.000Z</when>
<gx:coord>-114.14410616666667 29.164139999999996 508.1</gx:coord>

<when>2025-12-18T00:01:54.000Z</when>
<gx:coord>-114.14438933333334 29.161813 507.2</gx:coord>

<when>2025-12-18T00:02:05.000Z</when>
<gx:coord>-114.14466516666668 29.159438833333336 505.3</gx:coord>

<when>2025-12-18T00:02:16.000Z</when>
<gx:coord>-114.144957 29.156978333333335 501.8</gx:coord>

<when>2025-12-18T00:02:27.000Z</when>
<gx:coord>-114.14525433333334 29.154511666666668 497.4</gx:coord>

<when>2025-12-18T00:02:38.000Z</when>
<gx:coord>-114.14554349999999 29.152058166666666 494.0</gx:coord>

<when>2025-12-18T00:02:49.000Z</when>
<gx:coord>-114.14584266666667 29.149510833333338 489.8</gx:coord>

<when>2025-12-18T00:03:00.000Z</when>
<gx:coord>-114.14613916666667 29.146977 487.2</gx:coord>

<when>2025-12-18T00:03:11.000Z</when>
<gx:coord>-114.14644533333333 29.144416166666662 483.0</gx:coord>

<when>2025-12-18T00:03:22.000Z</when>
<gx:coord>-114.14674916666667 29.141815166666667 480.0</gx:coord>

<when>2025-12-18T00:03:33.000Z</when>
<gx:coord>-114.14706333333334 29.139195166666664 476.3</gx:coord>

<when>2025-12-18T00:03:44.000Z</when>
<gx:coord>-114.14737083333333 29.136607833333333 472.3</gx:coord>

<when>2025-12-18T00:03:55.000Z</when>
<gx:coord>-114.14767366666668 29.134031333333336 468.2</gx:coord>

<when>2025-12-18T00:04:06.000Z</when>
<gx:coord>-114.14798666666665 29.13139083333333 464.2</gx:coord>

<when>2025-12-18T00:04:17.000Z</when>
<gx:coord>-114.14830933333333 29.128675166666667 459.5</gx:coord>

<when>2025-12-18T00:04:28.000Z</when>
<gx:coord>-114.14863316666667 29.125944333333337 456.6</gx:coord>

<when>2025-12-18T00:04:39.000Z</when>
<gx:coord>-114.14895 29.123286 453.3</gx:coord>

<when>2025-12-18T00:04:50.000Z</when>
<gx:coord>-114.14924216666668 29.120841166666665 450.1</gx:coord>

<when>2025-12-18T00:05:01.000Z</when>
<gx:coord>-114.14950733333332 29.118647333333335 446.8</gx:coord>

<when>2025-12-18T00:05:12.000Z</when>
<gx:coord>-114.14978016666667 29.116248000000002 442.9</gx:coord>

<when>2025-12-18T00:05:23.000Z</when>
<gx:coord>-114.15010333333333 29.113558833333332 437.4</gx:coord>

<when>2025-12-18T00:05:34.000Z</when>
<gx:coord>-114.15043266666667 29.110778166666666 433.6</gx:coord>

<when>2025-12-18T00:05:45.000Z</when>
<gx:coord>-114.15076983333331 29.107916333333332 429.2</gx:coord>

<when>2025-12-18T00:05:56.000Z</when>
<gx:coord>-114.15111366666666 29.10502783333333 424.1</gx:coord>

<when>2025-12-18T00:06:07.000Z</when>
<gx:coord>-114.15145733333333 29.102151166666665 419.3</gx:coord>

<when>2025-12-18T00:06:18.000Z</when>
<gx:coord>-114.15179199999999 29.099263333333337 414.3</gx:coord>

<when>2025-12-18T00:06:29.000Z</when>
<gx:coord>-114.15213683333334 29.096385666666666 411.2</gx:coord>

<when>2025-12-18T00:06:40.000Z</when>
<gx:coord>-114.15246683333335 29.09355833333333 408.0</gx:coord>

<when>2025-12-18T00:06:51.000Z</when>
<gx:coord>-114.15280666666668 29.090756000000003 402.7</gx:coord>

<when>2025-12-18T00:07:02.000Z</when>
<gx:coord>-114.15314283333333 29.087946000000002 397.7</gx:coord>

<when>2025-12-18T00:07:13.000Z</when>
<gx:coord>-114.15346900000002 29.085168999999997 394.0</gx:coord>

<when>2025-12-18T00:07:24.000Z</when>
<gx:coord>-114.15377850000002 29.082548499999998 390.7</gx:coord>

<when>2025-12-18T00:07:35.000Z</when>
<gx:coord>-114.1540525 29.080224166666667 387.3</gx:coord>

<when>2025-12-18T00:07:46.000Z</when>
<gx:coord>-114.154345 29.07778166666667 383.1</gx:coord>

<when>2025-12-18T00:07:57.000Z</when>
<gx:coord>-114.15465199999998 29.075207666666664 379.2</gx:coord>

<when>2025-12-18T00:08:08.000Z</when>
<gx:coord>-114.15496649999999 29.072536333333332 374.3</gx:coord>

<when>2025-12-18T00:08:19.000Z</when>
<gx:coord>-114.15528100000002 29.06984633333333 370.2</gx:coord>

<when>2025-12-18T00:08:30.000Z</when>
<gx:coord>-114.15560699999999 29.06717366666667 366.4</gx:coord>

<when>2025-12-18T00:08:41.000Z</when>
<gx:coord>-114.1555745 29.064496666666667 363.2</gx:coord>

<when>2025-12-18T00:08:52.000Z</when>
<gx:coord>-114.15518333333333 29.0618235 359.9</gx:coord>

<when>2025-12-18T00:09:03.000Z</when>
<gx:coord>-114.15480299999999 29.05919683333333 355.9</gx:coord>

<when>2025-12-18T00:09:14.000Z</when>
<gx:coord>-114.1544295 29.05659933333333 351.8</gx:coord>

<when>2025-12-18T00:09:25.000Z</when>
<gx:coord>-114.15405616666666 29.053999999999995 348.2</gx:coord>

<when>2025-12-18T00:09:36.000Z</when>
<gx:coord>-114.15369233333334 29.05145766666667 344.6</gx:coord>

<when>2025-12-18T00:09:47.000Z</when>
<gx:coord>-114.15330999999999 29.048887166666667 340.5</gx:coord>

<when>2025-12-18T00:09:58.000Z</when>
<gx:coord>-114.15298 29.0463895 336.9</gx:coord>

<when>2025-12-18T00:10:09.000Z</when>
<gx:coord>-114.15265666666667 29.044128666666666 334.2</gx:coord>

<when>2025-12-18T00:10:20.000Z</when>
<gx:coord>-114.1523235 29.042036999999997 333.1</gx:coord>

<when>2025-12-18T00:10:31.000Z</when>
<gx:coord>-114.15198666666666 29.039741000000003 331.2</gx:coord>

<when>2025-12-18T00:10:42.000Z</when>
<gx:coord>-114.15162833333333 29.037273333333328 326.8</gx:coord>

<when>2025-12-18T00:10:53.000Z</when>
<gx:coord>-114.15126616666666 29.034759666666666 323.4</gx:coord>

<when>2025-12-18T00:11:04.000Z</when>
<gx:coord>-114.15090433333334 29.032241833333334 321.1</gx:coord>

<when>2025-12-18T00:11:15.000Z</when>
<gx:coord>-114.15054016666666 29.029727666666666 319.1</gx:coord>

<when>2025-12-18T00:11:26.000Z</when>
<gx:coord>-114.15017133333335 29.027181000000002 317.5</gx:coord>

<when>2025-12-18T00:11:37.000Z</when>
<gx:coord>-114.14980833333333 29.024684833333335 316.1</gx:coord>

<when>2025-12-18T00:11:48.000Z</when>
<gx:coord>-114.14944666666666 29.02216616666666 312.2</gx:coord>

<when>2025-12-18T00:11:59.000Z</when>
<gx:coord>-114.149084 29.019660666666663 310.6</gx:coord>

<when>2025-12-18T00:12:10.000Z</when>
<gx:coord>-114.148705 29.017089499999997 306.5</gx:coord>

<when>2025-12-18T00:12:21.000Z</when>
<gx:coord>-114.14833133333335 29.014480166666665 303.1</gx:coord>

<when>2025-12-18T00:12:32.000Z</when>
<gx:coord>-114.14795816666668 29.011866499999996 301.4</gx:coord>

<when>2025-12-18T00:12:43.000Z</when>
<gx:coord>-114.14758166666667 29.00929083333333 298.7</gx:coord>

<when>2025-12-18T00:12:54.000Z</when>
<gx:coord>-114.147204 29.006699166666667 296.6</gx:coord>

<when>2025-12-18T00:13:05.000Z</when>
<gx:coord>-114.14686116666665 29.004205333333335 293.1</gx:coord>

<when>2025-12-18T00:13:16.000Z</when>
<gx:coord>-114.147228 29.001813500000004 290.0</gx:coord>

<when>2025-12-18T00:13:27.000Z</when>
<gx:coord>-114.14856383333333 28.99969583333333 284.2</gx:coord>

<when>2025-12-18T00:13:38.000Z</when>
<gx:coord>-114.1500025 28.997577666666665 280.8</gx:coord>

<when>2025-12-18T00:13:49.000Z</when>
<gx:coord>-114.1514125 28.995497833333335 278.2</gx:coord>

<when>2025-12-18T00:14:00.000Z</when>
<gx:coord>-114.152812 28.993411833333333 278.1</gx:coord>

<when>2025-12-18T00:14:11.000Z</when>
<gx:coord>-114.154258 28.991262 278.0</gx:coord>

<when>2025-12-18T00:14:22.000Z</when>
<gx:coord>-114.15575533333335 28.98904866666667 276.4</gx:coord>

<when>2025-12-18T00:14:33.000Z</when>
<gx:coord>-114.15723233333334 28.986789166666668 270.0</gx:coord>

<when>2025-12-18T00:14:44.000Z</when>
<gx:coord>-114.15822466666665 28.984472166666666 267.9</gx:coord>

<when>2025-12-18T00:14:55.000Z</when>
<gx:coord>-114.1593595 28.982365833333333 264.3</gx:coord>

<when>2025-12-18T00:15:06.000Z</when>
<gx:coord>-114.16073800000001 28.980329166666667 252.9</gx:coord>

<when>2025-12-18T00:15:17.000Z</when>
<gx:coord>-114.16174133333334 28.97820116666667 245.8</gx:coord>

<when>2025-12-18T00:15:28.000Z</when>
<gx:coord>-114.16199116666667 28.975935166666666 244.6</gx:coord>

<when>2025-12-18T00:15:39.000Z</when>
<gx:coord>-114.16156783333332 28.973841333333333 254.1</gx:coord>

<when>2025-12-18T00:15:50.000Z</when>
<gx:coord>-114.16129666666666 28.971712000000004 254.8</gx:coord>

<when>2025-12-18T00:16:01.000Z</when>
<gx:coord>-114.16114283333333 28.96941566666667 253.1</gx:coord>

<when>2025-12-18T00:16:12.000Z</when>
<gx:coord>-114.16098033333334 28.966996 251.8</gx:coord>

<when>2025-12-18T00:16:23.000Z</when>
<gx:coord>-114.16081583333334 28.964543000000003 249.8</gx:coord>

<when>2025-12-18T00:16:34.000Z</when>
<gx:coord>-114.16064550000002 28.961993999999997 247.8</gx:coord>

<when>2025-12-18T00:16:45.000Z</when>
<gx:coord>-114.1604765 28.95944383333333 245.8</gx:coord>

<when>2025-12-18T00:16:56.000Z</when>
<gx:coord>-114.16028866666666 28.956803666666662 242.7</gx:coord>

<when>2025-12-18T00:17:07.000Z</when>
<gx:coord>-114.16013149999999 28.954165166666666 239.7</gx:coord>

<when>2025-12-18T00:17:18.000Z</when>
<gx:coord>-114.15997466666667 28.951593000000003 238.8</gx:coord>

<when>2025-12-18T00:17:29.000Z</when>
<gx:coord>-114.16026033333334 28.949077499999998 235.8</gx:coord>

<when>2025-12-18T00:17:40.000Z</when>
<gx:coord>-114.16082066666668 28.9466055 232.8</gx:coord>

<when>2025-12-18T00:17:51.000Z</when>
<gx:coord>-114.16137383333334 28.944162666666664 230.0</gx:coord>

<when>2025-12-18T00:18:02.000Z</when>
<gx:coord>-114.16141549999999 28.941743166666665 227.7</gx:coord>

<when>2025-12-18T00:18:13.000Z</when>
<gx:coord>-114.16110833333332 28.939334666666664 225.0</gx:coord>

<when>2025-12-18T00:18:24.000Z</when>
<gx:coord>-114.16119750000001 28.93699466666667 219.6</gx:coord>

<when>2025-12-18T00:18:35.000Z</when>
<gx:coord>-114.16131150000001 28.9346825 218.1</gx:coord>

<when>2025-12-18T00:18:46.000Z</when>
<gx:coord>-114.16136583333333 28.93264133333333 215.9</gx:coord>

<when>2025-12-18T00:18:57.000Z</when>
<gx:coord>-114.16058766666666 28.93115116666667 205.7</gx:coord>

<when>2025-12-18T00:19:08.000Z</when>
<gx:coord>-114.15891866666668 28.929956999999998 200.6</gx:coord>

<when>2025-12-18T00:19:19.000Z</when>
<gx:coord>-114.15737733333332 28.928899166666664 205.4</gx:coord>

<when>2025-12-18T00:19:30.000Z</when>
<gx:coord>-114.15630250000001 28.9281625 206.2</gx:coord>

<when>2025-12-18T00:19:41.000Z</when>
<gx:coord>-114.15566866666668 28.927715666666668 206.4</gx:coord>

<when>2025-12-18T00:19:52.000Z</when>
<gx:coord>-114.15482500000002 28.9269035 208.5</gx:coord>

<when>2025-12-18T00:20:03.000Z</when>
<gx:coord>-114.15407466666666 28.925676666666664 209.7</gx:coord>

<when>2025-12-18T00:20:14.000Z</when>
<gx:coord>-114.15361399999999 28.92414516666667 209.1</gx:coord>

<when>2025-12-18T00:20:25.000Z</when>
<gx:coord>-114.15316116666666 28.922442999999998 206.3</gx:coord>

<when>2025-12-18T00:20:36.000Z</when>
<gx:coord>-114.15266316666666 28.920556 205.1</gx:coord>

<when>2025-12-18T00:20:47.000Z</when>
<gx:coord>-114.15212600000001 28.918529499999998 204.3</gx:coord>

<when>2025-12-18T00:20:58.000Z</when>
<gx:coord>-114.15153283333332 28.916304833333335 202.1</gx:coord>

<when>2025-12-18T00:21:09.000Z</when>
<gx:coord>-114.15093883333333 28.914043833333334 198.7</gx:coord>

<when>2025-12-18T00:21:20.000Z</when>
<gx:coord>-114.15033233333334 28.91175766666667 194.1</gx:coord>

<when>2025-12-18T00:21:31.000Z</when>
<gx:coord>-114.149705 28.909414833333337 194.1</gx:coord>

<when>2025-12-18T00:21:42.000Z</when>
<gx:coord>-114.14910416666667 28.907127 192.7</gx:coord>

<when>2025-12-18T00:21:53.000Z</when>
<gx:coord>-114.14851449999999 28.904896333333333 190.5</gx:coord>

<when>2025-12-18T00:22:04.000Z</when>
<gx:coord>-114.14796116666666 28.902790166666666 185.7</gx:coord>

<when>2025-12-18T00:22:15.000Z</when>
<gx:coord>-114.1468695 28.901039833333336 187.3</gx:coord>

<when>2025-12-18T00:22:26.000Z</when>
<gx:coord>-114.14535749999999 28.8994605 190.2</gx:coord>

<when>2025-12-18T00:22:37.000Z</when>
<gx:coord>-114.14398533333333 28.897849333333337 187.0</gx:coord>

<when>2025-12-18T00:22:48.000Z</when>
<gx:coord>-114.1428485 28.89611933333333 182.9</gx:coord>

<when>2025-12-18T00:22:59.000Z</when>
<gx:coord>-114.14167183333332 28.89430666666666 181.8</gx:coord>

<when>2025-12-18T00:23:10.000Z</when>
<gx:coord>-114.140475 28.892465 180.7</gx:coord>

<when>2025-12-18T00:23:21.000Z</when>
<gx:coord>-114.13951549999999 28.890487500000003 179.6</gx:coord>

<when>2025-12-18T00:23:32.000Z</when>
<gx:coord>-114.13877733333332 28.888360499999997 176.9</gx:coord>

<when>2025-12-18T00:23:43.000Z</when>
<gx:coord>-114.13806833333335 28.88630033333333 175.7</gx:coord>

<when>2025-12-18T00:23:54.000Z</when>
<gx:coord>-114.1373425 28.8841715 173.4</gx:coord>

<when>2025-12-18T00:24:05.000Z</when>
<gx:coord>-114.13662083333332 28.882085500000002 171.3</gx:coord>

<when>2025-12-18T00:24:16.000Z</when>
<gx:coord>-114.13593916666666 28.880098166666667 174.4</gx:coord>

<when>2025-12-18T00:24:27.000Z</when>
<gx:coord>-114.13525566666667 28.878132833333332 173.7</gx:coord>

<when>2025-12-18T00:24:38.000Z</when>
<gx:coord>-114.13476199999998 28.87610516666667 172.4</gx:coord>

<when>2025-12-18T00:24:49.000Z</when>
<gx:coord>-114.134549 28.874001500000002 170.4</gx:coord>

<when>2025-12-18T00:25:00.000Z</when>
<gx:coord>-114.13425166666666 28.87201633333333 169.1</gx:coord>

<when>2025-12-18T00:25:11.000Z</when>
<gx:coord>-114.133339 28.870112166666665 162.9</gx:coord>

<when>2025-12-18T00:25:22.000Z</when>
<gx:coord>-114.13228466666666 28.868075999999995 154.3</gx:coord>

<when>2025-12-18T00:25:33.000Z</when>
<gx:coord>-114.13130366666668 28.866200000000003 157.7</gx:coord>

<when>2025-12-18T00:25:44.000Z</when>
<gx:coord>-114.13035233333333 28.86429616666667 158.3</gx:coord>

<when>2025-12-18T00:25:55.000Z</when>
<gx:coord>-114.12993399999999 28.86244166666667 163.5</gx:coord>

<when>2025-12-18T00:26:06.000Z</when>
<gx:coord>-114.12959083333332 28.860492500000003 160.7</gx:coord>

<when>2025-12-18T00:26:17.000Z</when>
<gx:coord>-114.12923016666667 28.85847533333333 158.6</gx:coord>

<when>2025-12-18T00:26:28.000Z</when>
<gx:coord>-114.12887183333332 28.856435 156.2</gx:coord>

<when>2025-12-18T00:26:39.000Z</when>
<gx:coord>-114.128531 28.854471166666666 152.7</gx:coord>

<when>2025-12-18T00:26:50.000Z</when>
<gx:coord>-114.12816399999998 28.852410166666665 147.0</gx:coord>

<when>2025-12-18T00:27:01.000Z</when>
<gx:coord>-114.12783666666668 28.850687999999998 149.9</gx:coord>

<when>2025-12-18T00:27:12.000Z</when>
<gx:coord>-114.12748883333333 28.849034833333334 147.0</gx:coord>

<when>2025-12-18T00:27:23.000Z</when>
<gx:coord>-114.1271085 28.84721233333333 145.9</gx:coord>

<when>2025-12-18T00:27:34.000Z</when>
<gx:coord>-114.12667699999999 28.845163333333335 143.4</gx:coord>

<when>2025-12-18T00:27:45.000Z</when>
<gx:coord>-114.12623416666665 28.843059499999995 138.3</gx:coord>

<when>2025-12-18T00:27:56.000Z</when>
<gx:coord>-114.12577283333333 28.84085133333333 134.1</gx:coord>

<when>2025-12-18T00:28:07.000Z</when>
<gx:coord>-114.12533633333332 28.838685 132.4</gx:coord>

<when>2025-12-18T00:28:18.000Z</when>
<gx:coord>-114.12488866666666 28.836536666666667 130.1</gx:coord>

<when>2025-12-18T00:28:29.000Z</when>
<gx:coord>-114.1242875 28.834519333333333 124.2</gx:coord>

<when>2025-12-18T00:28:40.000Z</when>
<gx:coord>-114.12290516666665 28.832915333333336 121.8</gx:coord>

<when>2025-12-18T00:28:51.000Z</when>
<gx:coord>-114.12131466666666 28.832401166666667 131.5</gx:coord>

<when>2025-12-18T00:29:02.000Z</when>
<gx:coord>-114.119469 28.832617833333334 136.5</gx:coord>

<when>2025-12-18T00:29:13.000Z</when>
<gx:coord>-114.117264 28.832445500000002 137.3</gx:coord>

<when>2025-12-18T00:29:24.000Z</when>
<gx:coord>-114.11494599999999 28.832258666666668 140.5</gx:coord>

<when>2025-12-18T00:29:35.000Z</when>
<gx:coord>-114.11263699999999 28.831946833333337 144.7</gx:coord>

<when>2025-12-18T00:29:46.000Z</when>
<gx:coord>-114.11046683333333 28.831297166666666 152.8</gx:coord>

<when>2025-12-18T00:29:57.000Z</when>
<gx:coord>-114.10846016666667 28.830854666666664 156.7</gx:coord>

<when>2025-12-18T00:30:08.000Z</when>
<gx:coord>-114.10721649999999 28.831387499999998 168.9</gx:coord>

<when>2025-12-18T00:30:19.000Z</when>
<gx:coord>-114.10644716666665 28.830840333333338 176.0</gx:coord>

<when>2025-12-18T00:30:30.000Z</when>
<gx:coord>-114.10654983333333 28.82996483333333 183.8</gx:coord>

<when>2025-12-18T00:30:41.000Z</when>
<gx:coord>-114.10683300000001 28.828850333333335 192.4</gx:coord>

<when>2025-12-18T00:30:52.000Z</when>
<gx:coord>-114.10697116666667 28.827630999999997 201.5</gx:coord>

<when>2025-12-18T00:31:03.000Z</when>
<gx:coord>-114.10736316666667 28.826555666666664 207.0</gx:coord>

<when>2025-12-18T00:31:14.000Z</when>
<gx:coord>-114.10807216666666 28.8257185 211.9</gx:coord>

<when>2025-12-18T00:31:25.000Z</when>
<gx:coord>-114.10867316666666 28.8249685 213.5</gx:coord>

<when>2025-12-18T00:31:36.000Z</when>
<gx:coord>-114.10920966666666 28.823888000000004 220.5</gx:coord>

<when>2025-12-18T00:31:47.000Z</when>
<gx:coord>-114.10951316666666 28.822626833333334 229.5</gx:coord>

<when>2025-12-18T00:31:58.000Z</when>
<gx:coord>-114.10919450000002 28.821232333333334 231.4</gx:coord>

<when>2025-12-18T00:32:09.000Z</when>
<gx:coord>-114.10953733333332 28.819755333333333 230.7</gx:coord>

<when>2025-12-18T00:32:20.000Z</when>
<gx:coord>-114.11025466666666 28.818174999999997 233.3</gx:coord>

<when>2025-12-18T00:32:31.000Z</when>
<gx:coord>-114.11102116666667 28.816444833333335 233.3</gx:coord>

<when>2025-12-18T00:32:42.000Z</when>
<gx:coord>-114.1117945 28.814714666666667 234.2</gx:coord>

<when>2025-12-18T00:32:53.000Z</when>
<gx:coord>-114.112291 28.813045166666665 236.6</gx:coord>

<when>2025-12-18T00:33:04.000Z</when>
<gx:coord>-114.11196683333334 28.811500666666667 234.4</gx:coord>

<when>2025-12-18T00:33:15.000Z</when>
<gx:coord>-114.11139483333334 28.809975 239.6</gx:coord>

<when>2025-12-18T00:33:26.000Z</when>
<gx:coord>-114.11080433333333 28.808458000000005 240.4</gx:coord>

<when>2025-12-18T00:33:37.000Z</when>
<gx:coord>-114.11026366666668 28.80675816666667 239.2</gx:coord>

<when>2025-12-18T00:33:48.000Z</when>
<gx:coord>-114.10996349999999 28.805126333333337 239.2</gx:coord>

<when>2025-12-18T00:33:59.000Z</when>
<gx:coord>-114.10922133333334 28.803750166666667 238.2</gx:coord>

<when>2025-12-18T00:34:10.000Z</when>
<gx:coord>-114.10837616666667 28.802554833333335 230.3</gx:coord>

<when>2025-12-18T00:34:21.000Z</when>
<gx:coord>-114.10766399999999 28.801380333333334 220.2</gx:coord>

<when>2025-12-18T00:34:32.000Z</when>
<gx:coord>-114.10702933333332 28.80025483333333 218.7</gx:coord>

<when>2025-12-18T00:34:43.000Z</when>
<gx:coord>-114.10659416666667 28.799266499999998 215.8</gx:coord>

<when>2025-12-18T00:34:54.000Z</when>
<gx:coord>-114.10623483333332 28.798447166666666 210.6</gx:coord>

<when>2025-12-18T00:35:05.000Z</when>
<gx:coord>-114.10698833333332 28.797758833333333 203.4</gx:coord>

<when>2025-12-18T00:35:16.000Z</when>
<gx:coord>-114.10768449999999 28.796805499999998 194.3</gx:coord>

<when>2025-12-18T00:35:27.000Z</when>
<gx:coord>-114.10814216666668 28.795165166666667 189.7</gx:coord>

<when>2025-12-18T00:35:38.000Z</when>
<gx:coord>-114.10830849999999 28.793266166666665 184.2</gx:coord>

<when>2025-12-18T00:35:49.000Z</when>
<gx:coord>-114.10784116666667 28.791760999999997 174.6</gx:coord>

<when>2025-12-18T00:36:00.000Z</when>
<gx:coord>-114.10816733333334 28.790354 162.8</gx:coord>

<when>2025-12-18T00:36:11.000Z</when>
<gx:coord>-114.10830783333334 28.788619 155.5</gx:coord>

<when>2025-12-18T00:36:22.000Z</when>
<gx:coord>-114.10834099999998 28.786455166666663 150.4</gx:coord>

<when>2025-12-18T00:36:33.000Z</when>
<gx:coord>-114.10837583333333 28.784272 147.6</gx:coord>

<when>2025-12-18T00:36:44.000Z</when>
<gx:coord>-114.10865616666666 28.782112166666668 141.9</gx:coord>

<when>2025-12-18T00:36:55.000Z</when>
<gx:coord>-114.10876099999999 28.779971999999997 136.3</gx:coord>

<when>2025-12-18T00:37:06.000Z</when>
<gx:coord>-114.10842316666667 28.77790433333333 132.6</gx:coord>

<when>2025-12-18T00:37:17.000Z</when>
<gx:coord>-114.10829066666665 28.775864000000002 128.9</gx:coord>

<when>2025-12-18T00:37:28.000Z</when>
<gx:coord>-114.10823316666668 28.774071166666666 127.3</gx:coord>

<when>2025-12-18T00:37:39.000Z</when>
<gx:coord>-114.10906933333332 28.773207666666668 129.6</gx:coord>

<when>2025-12-18T00:37:50.000Z</when>
<gx:coord>-114.10921400000001 28.771938 129.4</gx:coord>

<when>2025-12-18T00:38:01.000Z</when>
<gx:coord>-114.10990850000002 28.7706395 131.1</gx:coord>

<when>2025-12-18T00:38:12.000Z</when>
<gx:coord>-114.110695 28.769139333333335 130.0</gx:coord>

<when>2025-12-18T00:38:23.000Z</when>
<gx:coord>-114.11090899999999 28.767337833333332 132.0</gx:coord>

<when>2025-12-18T00:38:34.000Z</when>
<gx:coord>-114.11107083333333 28.765456833333328 131.1</gx:coord>

<when>2025-12-18T00:38:45.000Z</when>
<gx:coord>-114.11124433333335 28.7634115 135.5</gx:coord>

<when>2025-12-18T00:38:56.000Z</when>
<gx:coord>-114.11142266666666 28.76133533333333 137.0</gx:coord>

<when>2025-12-18T00:39:07.000Z</when>
<gx:coord>-114.11159116666667 28.75937483333333 139.3</gx:coord>

<when>2025-12-18T00:39:18.000Z</when>
<gx:coord>-114.11175416666669 28.757504 149.0</gx:coord>

<when>2025-12-18T00:39:29.000Z</when>
<gx:coord>-114.11192516666667 28.755610333333333 147.4</gx:coord>

<when>2025-12-18T00:39:40.000Z</when>
<gx:coord>-114.11208066666669 28.753716833333336 148.0</gx:coord>

<when>2025-12-18T00:39:51.000Z</when>
<gx:coord>-114.11224849999999 28.751749000000004 152.7</gx:coord>

<when>2025-12-18T00:40:02.000Z</when>
<gx:coord>-114.11218849999999 28.749748333333333 155.3</gx:coord>

<when>2025-12-18T00:40:13.000Z</when>
<gx:coord>-114.11199683333334 28.747840333333336 155.9</gx:coord>

<when>2025-12-18T00:40:24.000Z</when>
<gx:coord>-114.11238716666666 28.746097333333335 150.8</gx:coord>

<when>2025-12-18T00:40:35.000Z</when>
<gx:coord>-114.112619 28.744425666666665 150.2</gx:coord>

<when>2025-12-18T00:40:46.000Z</when>
<gx:coord>-114.11210866666667 28.742610666666664 152.8</gx:coord>

<when>2025-12-18T00:40:57.000Z</when>
<gx:coord>-114.11153 28.740886833333334 153.8</gx:coord>

<when>2025-12-18T00:41:08.000Z</when>
<gx:coord>-114.11088066666667 28.73895716666667 143.5</gx:coord>

<when>2025-12-18T00:41:19.000Z</when>
<gx:coord>-114.11024450000001 28.737063499999998 149.4</gx:coord>

<when>2025-12-18T00:41:30.000Z</when>
<gx:coord>-114.10954216666666 28.734974333333337 144.3</gx:coord>

<when>2025-12-18T00:41:41.000Z</when>
<gx:coord>-114.10881116666665 28.732790666666666 134.7</gx:coord>

<when>2025-12-18T00:41:52.000Z</when>
<gx:coord>-114.10787666666666 28.730712 126.7</gx:coord>

<when>2025-12-18T00:42:03.000Z</when>
<gx:coord>-114.10663133333334 28.729019499999996 128.0</gx:coord>

<when>2025-12-18T00:42:14.000Z</when>
<gx:coord>-114.10542500000001 28.727411999999998 123.3</gx:coord>

<when>2025-12-18T00:42:25.000Z</when>
<gx:coord>-114.10426700000001 28.72596716666667 116.3</gx:coord>

<when>2025-12-18T00:42:36.000Z</when>
<gx:coord>-114.102651 28.724977833333334 109.4</gx:coord>

<when>2025-12-18T00:42:47.000Z</when>
<gx:coord>-114.10068116666667 28.724031666666665 104.6</gx:coord>

<when>2025-12-18T00:42:58.000Z</when>
<gx:coord>-114.09873033333334 28.723111666666668 101.6</gx:coord>

<when>2025-12-18T00:43:09.000Z</when>
<gx:coord>-114.09663800000001 28.722702166666668 98.7</gx:coord>

<when>2025-12-18T00:43:20.000Z</when>
<gx:coord>-114.09495983333333 28.722192166666666 96.6</gx:coord>

<when>2025-12-18T00:43:31.000Z</when>
<gx:coord>-114.09346583333333 28.721167666666663 106.5</gx:coord>

<when>2025-12-18T00:43:42.000Z</when>
<gx:coord>-114.09181166666667 28.720037666666666 112.5</gx:coord>

<when>2025-12-18T00:43:53.000Z</when>
<gx:coord>-114.09004566666665 28.71882833333333 117.7</gx:coord>

<when>2025-12-18T00:44:04.000Z</when>
<gx:coord>-114.08819483333333 28.717573500000004 122.9</gx:coord>

<when>2025-12-18T00:44:15.000Z</when>
<gx:coord>-114.08626633333333 28.716312000000002 131.2</gx:coord>

<when>2025-12-18T00:44:26.000Z</when>
<gx:coord>-114.084261 28.715325666666665 137.2</gx:coord>

<when>2025-12-18T00:44:37.000Z</when>
<gx:coord>-114.08281149999999 28.71418683333333 151.2</gx:coord>

<when>2025-12-18T00:44:48.000Z</when>
<gx:coord>-114.08226516666667 28.7126915 158.2</gx:coord>

<when>2025-12-18T00:44:59.000Z</when>
<gx:coord>-114.08200733333334 28.71098533333333 152.1</gx:coord>

<when>2025-12-18T00:45:10.000Z</when>
<gx:coord>-114.08235199999999 28.709312666666666 143.4</gx:coord>

<when>2025-12-18T00:45:21.000Z</when>
<gx:coord>-114.08165066666668 28.7079235 134.8</gx:coord>

<when>2025-12-18T00:45:32.000Z</when>
<gx:coord>-114.08037683333332 28.706886166666663 144.9</gx:coord>

<when>2025-12-18T00:45:43.000Z</when>
<gx:coord>-114.07937050000001 28.70604166666667 150.1</gx:coord>

<when>2025-12-18T00:45:54.000Z</when>
<gx:coord>-114.07804133333333 28.705521833333332 158.4</gx:coord>

<when>2025-12-18T00:46:05.000Z</when>
<gx:coord>-114.07635883333333 28.7048745 158.4</gx:coord>

<when>2025-12-18T00:46:16.000Z</when>
<gx:coord>-114.07455383333333 28.704170833333333 153.6</gx:coord>

<when>2025-12-18T00:46:27.000Z</when>
<gx:coord>-114.07284933333334 28.703392833333336 152.8</gx:coord>

<when>2025-12-18T00:46:38.000Z</when>
<gx:coord>-114.07132699999998 28.70215316666667 152.3</gx:coord>

<when>2025-12-18T00:46:49.000Z</when>
<gx:coord>-114.06973916666666 28.700796500000003 151.7</gx:coord>

<when>2025-12-18T00:47:00.000Z</when>
<gx:coord>-114.06863649999998 28.699037166666667 149.8</gx:coord>

<when>2025-12-18T00:47:11.000Z</when>
<gx:coord>-114.06758216666667 28.697315166666666 158.6</gx:coord>

<when>2025-12-18T00:47:22.000Z</when>
<gx:coord>-114.06592966666668 28.696045166666668 160.0</gx:coord>

<when>2025-12-18T00:47:33.000Z</when>
<gx:coord>-114.06418366666666 28.694777833333333 164.9</gx:coord>

<when>2025-12-18T00:47:44.000Z</when>
<gx:coord>-114.06255016666667 28.693608666666666 167.4</gx:coord>

<when>2025-12-18T00:47:55.000Z</when>
<gx:coord>-114.06088716666666 28.69241683333333 164.9</gx:coord>

<when>2025-12-18T00:48:06.000Z</when>
<gx:coord>-114.05936483333335 28.691095166666667 168.3</gx:coord>

<when>2025-12-18T00:48:17.000Z</when>
<gx:coord>-114.05819449999998 28.689470833333335 171.2</gx:coord>

<when>2025-12-18T00:48:28.000Z</when>
<gx:coord>-114.05706316666668 28.687890999999997 174.0</gx:coord>

<when>2025-12-18T00:48:39.000Z</when>
<gx:coord>-114.05577833333334 28.686626166666663 177.4</gx:coord>

<when>2025-12-18T00:48:50.000Z</when>
<gx:coord>-114.05419016666669 28.685380499999997 181.4</gx:coord>

<when>2025-12-18T00:49:01.000Z</when>
<gx:coord>-114.05275983333334 28.68394316666667 185.4</gx:coord>

<when>2025-12-18T00:49:12.000Z</when>
<gx:coord>-114.05144883333332 28.682664833333334 186.0</gx:coord>

<when>2025-12-18T00:49:23.000Z</when>
<gx:coord>-114.05087466666667 28.68111366666667 182.1</gx:coord>

<when>2025-12-18T00:49:34.000Z</when>
<gx:coord>-114.0501725 28.67971016666667 177.6</gx:coord>

<when>2025-12-18T00:49:45.000Z</when>
<gx:coord>-114.04897000000001 28.67807 169.9</gx:coord>

<when>2025-12-18T00:49:56.000Z</when>
<gx:coord>-114.04764966666669 28.676253166666665 163.8</gx:coord>

<when>2025-12-18T00:50:07.000Z</when>
<gx:coord>-114.046358 28.6744905 160.6</gx:coord>

<when>2025-12-18T00:50:18.000Z</when>
<gx:coord>-114.04503333333332 28.67269083333333 156.3</gx:coord>

<when>2025-12-18T00:50:29.000Z</when>
<gx:coord>-114.04372749999999 28.670901833333332 153.1</gx:coord>

<when>2025-12-18T00:50:40.000Z</when>
<gx:coord>-114.042412 28.669106666666668 148.1</gx:coord>

<when>2025-12-18T00:50:51.000Z</when>
<gx:coord>-114.04109799999999 28.6673255 144.4</gx:coord>

<when>2025-12-18T00:51:02.000Z</when>
<gx:coord>-114.03958633333332 28.66573583333333 142.8</gx:coord>

<when>2025-12-18T00:51:13.000Z</when>
<gx:coord>-114.03784633333335 28.664198333333335 141.5</gx:coord>

<when>2025-12-18T00:51:24.000Z</when>
<gx:coord>-114.03607366666665 28.662644833333335 140.3</gx:coord>

<when>2025-12-18T00:51:35.000Z</when>
<gx:coord>-114.034326 28.661049666666667 137.9</gx:coord>

<when>2025-12-18T00:51:46.000Z</when>
<gx:coord>-114.03286183333333 28.65918033333333 136.1</gx:coord>

<when>2025-12-18T00:51:57.000Z</when>
<gx:coord>-114.0314875 28.657219499999997 133.9</gx:coord>

<when>2025-12-18T00:52:08.000Z</when>
<gx:coord>-114.03040166666666 28.655443666666663 134.4</gx:coord>

<when>2025-12-18T00:52:19.000Z</when>
<gx:coord>-114.0302635 28.653554166666662 134.4</gx:coord>

<when>2025-12-18T00:52:30.000Z</when>
<gx:coord>-114.02993933333333 28.65164183333333 131.7</gx:coord>

<when>2025-12-18T00:52:41.000Z</when>
<gx:coord>-114.02905366666667 28.649577833333336 128.2</gx:coord>

<when>2025-12-18T00:52:52.000Z</when>
<gx:coord>-114.02814233333332 28.647487666666667 127.8</gx:coord>

<when>2025-12-18T00:53:03.000Z</when>
<gx:coord>-114.02681383333332 28.645720666666662 129.9</gx:coord>

<when>2025-12-18T00:53:14.000Z</when>
<gx:coord>-114.02539533333332 28.644073166666665 129.0</gx:coord>

<when>2025-12-18T00:53:25.000Z</when>
<gx:coord>-114.02399866666669 28.642458166666664 125.2</gx:coord>

<when>2025-12-18T00:53:36.000Z</when>
<gx:coord>-114.02271649999999 28.640963333333335 125.1</gx:coord>

<when>2025-12-18T00:53:47.000Z</when>
<gx:coord>-114.02182283333335 28.639777000000002 123.8</gx:coord>

<when>2025-12-18T00:53:58.000Z</when>
<gx:coord>-114.02122933333334 28.638604833333336 123.2</gx:coord>

<when>2025-12-18T00:54:09.000Z</when>
<gx:coord>-114.02060949999999 28.637329833333336 118.3</gx:coord>

<when>2025-12-18T00:54:20.000Z</when>
<gx:coord>-114.02009083333333 28.636068 120.7</gx:coord>

<when>2025-12-18T00:54:31.000Z</when>
<gx:coord>-114.0201995 28.634788166666667 120.1</gx:coord>

<when>2025-12-18T00:54:42.000Z</when>
<gx:coord>-114.02088616666667 28.63341666666667 119.1</gx:coord>

<when>2025-12-18T00:54:53.000Z</when>
<gx:coord>-114.02157216666667 28.63211383333333 119.2</gx:coord>

<when>2025-12-18T00:55:04.000Z</when>
<gx:coord>-114.02241833333333 28.630931499999996 118.6</gx:coord>

<when>2025-12-18T00:55:15.000Z</when>
<gx:coord>-114.02379633333334 28.629811166666666 117.1</gx:coord>

<when>2025-12-18T00:55:26.000Z</when>
<gx:coord>-114.02542700000001 28.628586499999997 115.9</gx:coord>

<when>2025-12-18T00:55:37.000Z</when>
<gx:coord>-114.02743516666666 28.62745333333333 114.3</gx:coord>

<when>2025-12-18T00:55:48.000Z</when>
<gx:coord>-114.02947033333334 28.6261665 113.1</gx:coord>

<when>2025-12-18T00:55:59.000Z</when>
<gx:coord>-114.03139449999999 28.624780499999996 112.3</gx:coord>

<when>2025-12-18T00:56:10.000Z</when>
<gx:coord>-114.03328983333334 28.623370333333334 110.8</gx:coord>

<when>2025-12-18T00:56:21.000Z</when>
<gx:coord>-114.03477966666667 28.621797833333336 106.6</gx:coord>

<when>2025-12-18T00:56:32.000Z</when>
<gx:coord>-114.03614716666668 28.620104 105.7</gx:coord>

<when>2025-12-18T00:56:43.000Z</when>
<gx:coord>-114.03768766666666 28.618737166666666 109.3</gx:coord>

<when>2025-12-18T00:56:54.000Z</when>
<gx:coord>-114.0396255 28.617844666666663 109.8</gx:coord>

<when>2025-12-18T00:57:05.000Z</when>
<gx:coord>-114.04168683333334 28.61705716666667 113.2</gx:coord>

<when>2025-12-18T00:57:16.000Z</when>
<gx:coord>-114.04332883333333 28.616043833333332 112.2</gx:coord>

<when>2025-12-18T00:57:27.000Z</when>
<gx:coord>-114.04527533333334 28.614619 103.0</gx:coord>

<when>2025-12-18T00:57:38.000Z</when>
<gx:coord>-114.0470765 28.613235666666665 100.2</gx:coord>

<when>2025-12-18T00:57:49.000Z</when>
<gx:coord>-114.04837583333334 28.611467500000003 96.8</gx:coord>

<when>2025-12-18T00:58:00.000Z</when>
<gx:coord>-114.04965949999999 28.60960616666667 97.7</gx:coord>

<when>2025-12-18T00:58:11.000Z</when>
<gx:coord>-114.05066633333333 28.607787833333337 96.5</gx:coord>

<when>2025-12-18T00:58:22.000Z</when>
<gx:coord>-114.05035383333333 28.605710666666663 93.2</gx:coord>

<when>2025-12-18T00:58:33.000Z</when>
<gx:coord>-114.0497195 28.603639666666663 98.2</gx:coord>

<when>2025-12-18T00:58:44.000Z</when>
<gx:coord>-114.04932783333334 28.60159583333333 98.4</gx:coord>

<when>2025-12-18T00:58:55.000Z</when>
<gx:coord>-114.04900366666668 28.599618666666668 101.0</gx:coord>

<when>2025-12-18T00:59:06.000Z</when>
<gx:coord>-114.04870016666668 28.5976505 94.5</gx:coord>

<when>2025-12-18T00:59:17.000Z</when>
<gx:coord>-114.04838516666665 28.595581999999997 88.5</gx:coord>

<when>2025-12-18T00:59:28.000Z</when>
<gx:coord>-114.04809166666668 28.59353583333333 85.9</gx:coord>

<when>2025-12-18T00:59:39.000Z</when>
<gx:coord>-114.04825533333333 28.591562 83.8</gx:coord>

<when>2025-12-18T00:59:50.000Z</when>
<gx:coord>-114.04878816666665 28.589599666666665 80.4</gx:coord>

<when>2025-12-18T01:00:01.000Z</when>
<gx:coord>-114.04917683333333 28.587739333333335 78.3</gx:coord>

<when>2025-12-18T01:00:12.000Z</when>
<gx:coord>-114.04943999999999 28.585745499999998 75.6</gx:coord>

<when>2025-12-18T01:00:23.000Z</when>
<gx:coord>-114.04966600000002 28.583906666666667 78.5</gx:coord>

<when>2025-12-18T01:00:34.000Z</when>
<gx:coord>-114.04990016666667 28.582079 75.3</gx:coord>

<when>2025-12-18T01:00:45.000Z</when>
<gx:coord>-114.05012983333333 28.580281833333334 76.0</gx:coord>

<when>2025-12-18T01:00:56.000Z</when>
<gx:coord>-114.05036216666667 28.578575833333336 80.2</gx:coord>

<when>2025-12-18T01:01:07.000Z</when>
<gx:coord>-114.05057683333334 28.576903666666666 80.2</gx:coord>

<when>2025-12-18T01:01:18.000Z</when>
<gx:coord>-114.05078883333333 28.575268666666663 77.4</gx:coord>

<when>2025-12-18T01:01:29.000Z</when>
<gx:coord>-114.05101350000001 28.573564666666666 73.0</gx:coord>

<when>2025-12-18T01:01:40.000Z</when>
<gx:coord>-114.05122783333333 28.571866833333335 71.4</gx:coord>

<when>2025-12-18T01:01:51.000Z</when>
<gx:coord>-114.05138516666666 28.571160333333335 68.9</gx:coord>

<when>2025-12-18T01:02:02.000Z</when>
<gx:coord>-114.05168450000001 28.571077666666664 68.0</gx:coord>

<when>2025-12-18T01:02:13.000Z</when>
<gx:coord>-114.05198966666667 28.570878833333335 67.3</gx:coord>

<when>2025-12-18T01:02:24.000Z</when>
<gx:coord>-114.05227850000001 28.570649000000003 67.2</gx:coord>

<when>2025-12-18T01:02:35.000Z</when>
<gx:coord>-114.05260500000001 28.57042 66.7</gx:coord>

<when>2025-12-18T01:02:46.000Z</when>
<gx:coord>-114.05296833333333 28.570157000000002 66.2</gx:coord>

<when>2025-12-18T01:02:57.000Z</when>
<gx:coord>-114.05339716666667 28.569862333333337 65.2</gx:coord>

<when>2025-12-18T01:03:08.000Z</when>
<gx:coord>-114.05384066666666 28.569549999999996 64.3</gx:coord>

<when>2025-12-18T01:03:19.000Z</when>
<gx:coord>-114.05410033333334 28.56935716666667 63.7</gx:coord>

<when>2025-12-18T01:03:30.000Z</when>
<gx:coord>-114.05433999999998 28.569218166666662 63.0</gx:coord>

<when>2025-12-18T01:03:41.000Z</when>
<gx:coord>-114.05456116666667 28.5691125 62.3</gx:coord>

<when>2025-12-18T01:03:52.000Z</when>
<gx:coord>-114.05479016666668 28.5690455 60.1</gx:coord>

<when>2025-12-18T01:04:03.000Z</when>
<gx:coord>-114.05508933333334 28.568905166666664 61.4</gx:coord>

<when>2025-12-18T01:04:14.000Z</when>
<gx:coord>-114.055484 28.568761666666667 62.1</gx:coord>

<when>2025-12-18T01:04:25.000Z</when>
<gx:coord>-114.05590716666666 28.568602499999997 62.0</gx:coord>

<when>2025-12-18T01:04:36.000Z</when>
<gx:coord>-114.0563255 28.568446 60.6</gx:coord>

<when>2025-12-18T01:04:47.000Z</when>
<gx:coord>-114.05672616666668 28.568314499999996 59.8</gx:coord>

<when>2025-12-18T01:04:58.000Z</when>
<gx:coord>-114.05705716666668 28.56812916666667 59.6</gx:coord>

<when>2025-12-18T01:05:09.000Z</when>
<gx:coord>-114.05735766666666 28.567906500000003 57.8</gx:coord>

<when>2025-12-18T01:05:20.000Z</when>
<gx:coord>-114.05772033333332 28.567615833333335 58.0</gx:coord>

<when>2025-12-18T01:05:31.000Z</when>
<gx:coord>-114.05824466666667 28.567227000000003 58.2</gx:coord>

<when>2025-12-18T01:05:42.000Z</when>
<gx:coord>-114.0587605 28.56686816666667 56.3</gx:coord>

<when>2025-12-18T01:05:53.000Z</when>
<gx:coord>-114.0591395 28.566628999999995 54.2</gx:coord>

<when>2025-12-18T01:06:04.000Z</when>
<gx:coord>-114.05936750000001 28.566410166666667 48.8</gx:coord>

<when>2025-12-18T01:06:15.000Z</when>
<gx:coord>-114.05962816666667 28.56614666666667 44.2</gx:coord>

<when>2025-12-18T01:06:26.000Z</when>
<gx:coord>-114.05988199999999 28.5658975 44.1</gx:coord>

<when>2025-12-18T01:06:37.000Z</when>
<gx:coord>-114.06021333333335 28.565748999999997 44.4</gx:coord>

<when>2025-12-18T01:06:48.000Z</when>
<gx:coord>-114.06058066666668 28.56553516666667 46.1</gx:coord>

<when>2025-12-18T01:06:59.000Z</when>
<gx:coord>-114.060784 28.565303499999995 48.3</gx:coord>

<when>2025-12-18T01:07:10.000Z</when>
<gx:coord>-114.06112366666666 28.565045666666666 50.5</gx:coord>

<when>2025-12-18T01:07:21.000Z</when>
<gx:coord>-114.06156316666666 28.564924333333337 50.6</gx:coord>

<when>2025-12-18T01:07:32.000Z</when>
<gx:coord>-114.06209500000001 28.564813166666667 50.5</gx:coord>

<when>2025-12-18T01:07:43.000Z</when>
<gx:coord>-114.06266933333333 28.564617833333333 49.6</gx:coord>

<when>2025-12-18T01:07:54.000Z</when>
<gx:coord>-114.06308366666666 28.564461666666663 47.9</gx:coord>

<when>2025-12-18T01:08:05.000Z</when>
<gx:coord>-114.0634015 28.56443 48.3</gx:coord>

<when>2025-12-18T01:08:38.000Z</when>
<gx:coord>-114.06344883333334 28.56440733333333 45.5</gx:coord>

<when>2025-12-18T01:09:00.000Z</when>
<gx:coord>-114.06385816666668 28.564372499999998 45.4</gx:coord>

<when>2025-12-18T01:09:11.000Z</when>
<gx:coord>-114.06424866666666 28.56431 45.0</gx:coord>

<when>2025-12-18T01:09:22.000Z</when>
<gx:coord>-114.06462716666668 28.56422916666667 44.2</gx:coord>

<when>2025-12-18T01:09:33.000Z</when>
<gx:coord>-114.06500816666667 28.56414183333333 43.2</gx:coord>

<when>2025-12-18T01:09:44.000Z</when>
<gx:coord>-114.06534116666666 28.564019666666663 44.2</gx:coord>

<when>2025-12-18T01:09:55.000Z</when>
<gx:coord>-114.06563666666668 28.563823333333335 42.4</gx:coord>

<when>2025-12-18T01:10:06.000Z</when>
<gx:coord>-114.06596983333333 28.563766499999996 38.3</gx:coord>

<when>2025-12-18T01:10:17.000Z</when>
<gx:coord>-114.06631866666666 28.563769333333333 34.3</gx:coord>

<when>2025-12-18T01:10:28.000Z</when>
<gx:coord>-114.06666483333332 28.563697499999996 31.8</gx:coord>

<when>2025-12-18T01:10:39.000Z</when>
<gx:coord>-114.06698316666667 28.563611833333333 33.5</gx:coord>

<when>2025-12-18T01:10:50.000Z</when>
<gx:coord>-114.06736183333332 28.563467666666664 34.2</gx:coord>

<when>2025-12-18T01:11:01.000Z</when>
<gx:coord>-114.06774583333332 28.563321166666665 34.0</gx:coord>

<when>2025-12-18T01:11:12.000Z</when>
<gx:coord>-114.06818566666668 28.56324516666667 34.8</gx:coord>

<when>2025-12-18T01:11:23.000Z</when>
<gx:coord>-114.06864750000001 28.563207000000002 36.5</gx:coord>

<when>2025-12-18T01:11:34.000Z</when>
<gx:coord>-114.06908333333334 28.5631615 39.0</gx:coord>

<when>2025-12-18T01:11:45.000Z</when>
<gx:coord>-114.06953316666667 28.563048000000002 39.7</gx:coord>

<when>2025-12-18T01:11:56.000Z</when>
<gx:coord>-114.06995383333333 28.562934000000002 39.9</gx:coord>

<when>2025-12-18T01:12:07.000Z</when>
<gx:coord>-114.07040083333335 28.562804833333335 39.6</gx:coord>

<when>2025-12-18T01:12:18.000Z</when>
<gx:coord>-114.07086166666667 28.562649000000004 39.1</gx:coord>

<when>2025-12-18T01:12:29.000Z</when>
<gx:coord>-114.07153216666666 28.562487 38.5</gx:coord>

<when>2025-12-18T01:12:40.000Z</when>
<gx:coord>-114.07206550000001 28.562149166666668 36.3</gx:coord>

<when>2025-12-18T01:12:51.000Z</when>
<gx:coord>-114.0725375 28.561742666666667 34.1</gx:coord>

<when>2025-12-18T01:13:02.000Z</when>
<gx:coord>-114.0729695 28.561314 36.2</gx:coord>

<when>2025-12-18T01:13:13.000Z</when>
<gx:coord>-114.07341783333335 28.560842499999996 36.0</gx:coord>

<when>2025-12-18T01:13:24.000Z</when>
<gx:coord>-114.07390133333335 28.560336666666664 34.5</gx:coord>

<when>2025-12-18T01:13:35.000Z</when>
<gx:coord>-114.07439083333333 28.55982033333333 33.6</gx:coord>

<when>2025-12-18T01:13:46.000Z</when>
<gx:coord>-114.07481950000002 28.55932716666667 32.8</gx:coord>

<when>2025-12-18T01:13:57.000Z</when>
<gx:coord>-114.07519883333335 28.5588775 32.9</gx:coord>

<when>2025-12-18T01:14:08.000Z</when>
<gx:coord>-114.07559933333332 28.558397333333332 31.1</gx:coord>

<when>2025-12-18T01:14:19.000Z</when>
<gx:coord>-114.07597849999999 28.55799366666667 30.7</gx:coord>

<when>2025-12-18T01:14:30.000Z</when>
<gx:coord>-114.07638966666667 28.55753233333333 29.2</gx:coord>

<when>2025-12-18T01:14:41.000Z</when>
<gx:coord>-114.07680299999998 28.557037666666663 28.4</gx:coord>

<when>2025-12-18T01:14:52.000Z</when>
<gx:coord>-114.07725649999999 28.556474499999997 27.7</gx:coord>

<when>2025-12-18T01:15:03.000Z</when>
<gx:coord>-114.07777633333332 28.555912666666668 27.6</gx:coord>

<when>2025-12-18T01:15:14.000Z</when>
<gx:coord>-114.07833166666666 28.55536083333333 27.3</gx:coord>

<when>2025-12-18T01:15:25.000Z</when>
<gx:coord>-114.07891233333334 28.554831166666666 26.3</gx:coord>

<when>2025-12-18T01:15:36.000Z</when>
<gx:coord>-114.07951416666668 28.55425266666667 26.0</gx:coord>

<when>2025-12-18T01:15:47.000Z</when>
<gx:coord>-114.080193 28.55363033333333 25.3</gx:coord>

<when>2025-12-18T01:15:58.000Z</when>
<gx:coord>-114.08084316666667 28.552975999999997 24.1</gx:coord>

<when>2025-12-18T01:16:09.000Z</when>
<gx:coord>-114.0815035 28.552318333333332 23.0</gx:coord>

<when>2025-12-18T01:16:20.000Z</when>
<gx:coord>-114.08207616666665 28.551726666666664 21.4</gx:coord>

<when>2025-12-18T01:16:31.000Z</when>
<gx:coord>-114.08262666666666 28.5511625 21.3</gx:coord>

<when>2025-12-18T01:16:42.000Z</when>
<gx:coord>-114.08312550000001 28.550619833333332 20.9</gx:coord>

<when>2025-12-18T01:16:53.000Z</when>
<gx:coord>-114.0836935 28.55003883333333 20.3</gx:coord>

<when>2025-12-18T01:17:04.000Z</when>
<gx:coord>-114.08431100000001 28.549411166666665 19.1</gx:coord>

<when>2025-12-18T01:17:15.000Z</when>
<gx:coord>-114.08491616666667 28.54879133333333 18.1</gx:coord>

<when>2025-12-18T01:17:26.000Z</when>
<gx:coord>-114.08534033333332 28.548180666666667 17.5</gx:coord>

<when>2025-12-18T01:17:37.000Z</when>
<gx:coord>-114.08575983333334 28.547556666666665 16.5</gx:coord>

<when>2025-12-18T01:17:48.000Z</when>
<gx:coord>-114.08626516666666 28.5469845 14.5</gx:coord>

<when>2025-12-18T01:17:59.000Z</when>
<gx:coord>-114.08680199999999 28.546452833333333 13.0</gx:coord>

<when>2025-12-18T01:18:10.000Z</when>
<gx:coord>-114.08733033333334 28.546184499999995 8.8</gx:coord>

<when>2025-12-18T01:18:21.000Z</when>
<gx:coord>-114.08744700000001 28.546083833333334 7.0</gx:coord>

<when>2025-12-18T01:20:33.000Z</when>
<gx:coord>-114.08748783333334 28.5460475 9.0</gx:coord>

<when>2025-12-18T01:20:44.000Z</when>
<gx:coord>-114.08773850000001 28.545926166666664 7.2</gx:coord>

<when>2025-12-18T01:20:55.000Z</when>
<gx:coord>-114.088053 28.545821999999998 6.4</gx:coord>

<when>2025-12-18T01:21:06.000Z</when>
<gx:coord>-114.0884025 28.54572466666667 5.3</gx:coord>

<when>2025-12-18T01:21:17.000Z</when>
<gx:coord>-114.08870233333333 28.54542333333333 3.9</gx:coord>

<when>2025-12-18T01:21:28.000Z</when>
<gx:coord>-114.0890815 28.545191999999997 2.4</gx:coord>

<when>2025-12-18T01:21:39.000Z</when>
<gx:coord>-114.08940249999999 28.544932000000003 2.2</gx:coord>

<when>2025-12-18T01:21:50.000Z</when>
<gx:coord>-114.08972416666666 28.544699833333333 1.4</gx:coord>

<when>2025-12-18T01:22:01.000Z</when>
<gx:coord>-114.08999 28.544540666666663 1.6</gx:coord>

<when>2025-12-18T01:22:45.000Z</when>
<gx:coord>-114.0901565 28.544448333333335 2.9</gx:coord>

<when>2025-12-18T01:22:56.000Z</when>
<gx:coord>-114.09045749999999 28.544350500000004 2.8</gx:coord>

<when>2025-12-18T01:23:29.000Z</when>
<gx:coord>-114.09066983333332 28.544226000000002 3.0</gx:coord>

<when>2025-12-18T01:23:40.000Z</when>
<gx:coord>-114.09122216666668 28.543981500000005 2.5</gx:coord>

<when>2025-12-18T01:23:51.000Z</when>
<gx:coord>-114.09178033333335 28.54374683333333 1.8</gx:coord>

<when>2025-12-18T01:24:02.000Z</when>
<gx:coord>-114.09241166666668 28.543484333333335 2.0</gx:coord>

<when>2025-12-18T01:24:13.000Z</when>
<gx:coord>-114.09297683333334 28.543308166666666 1.9</gx:coord>

<when>2025-12-18T01:24:24.000Z</when>
<gx:coord>-114.09333066666667 28.543188333333333 1.8</gx:coord>

<when>2025-12-18T01:24:35.000Z</when>
<gx:coord>-114.09350500000001 28.543198 3.4</gx:coord>

<when>2025-12-18T01:24:46.000Z</when>
<gx:coord>-114.09356033333333 28.543222333333333 3.4</gx:coord>

<when>2025-12-18T01:24:57.000Z</when>
<gx:coord>-114.09354083333334 28.543318833333334 3.3</gx:coord>

<when>2025-12-18T01:25:08.000Z</when>
<gx:coord>-114.09347449999999 28.543337333333337 3.8</gx:coord>

<when>2025-12-18T01:25:41.000Z</when>
<gx:coord>-114.09351733333332 28.543308333333336 3.1</gx:coord>

<when>2025-12-18T01:26:03.000Z</when>
<gx:coord>-114.0934525 28.543233499999996 4.9</gx:coord>

<when>2025-12-18T01:26:14.000Z</when>
<gx:coord>-114.09334566666666 28.543173499999998 4.7</gx:coord>

<when>2025-12-18T01:26:36.000Z</when>
<gx:coord>-114.09341133333334 28.543191666666665 3.4</gx:coord>

<when>2025-12-18T01:26:47.000Z</when>
<gx:coord>-114.09346433333333 28.543177500000002 3.5</gx:coord>

<when>2025-12-18T01:27:09.000Z</when>
<gx:coord>-114.09352566666666 28.543171666666662 4.7</gx:coord>

<when>2025-12-18T01:27:53.000Z</when>
<gx:coord>-114.09357999999999 28.54319466666667 1.5</gx:coord>
</gx:Track>
</Placemark></Document></kml>
