<?xml version="1.0" encoding="UTF-8" ?><gpx version="1.1" creator="GPSLogger 135 - http://gpslogger.mendhak.com/" xmlns:xsi="http://www.w3.org/2001/XMLSchema-instance" xmlns="http://www.topografix.com/GPX/1/1" xmlns:gpxtpx="http://www.garmin.com/xmlschemas/TrackPointExtension/v2" xsi:schemaLocation="http://www.topografix.com/GPX/1/1 http://www.topografix.com/GPX/1/1/gpx.xsd http://www.garmin.com/xmlschemas/TrackPointExtension/v2 https://www8.garmin.com/xmlschemas/TrackPointExtensionv2.xsd "><metadata><time>2025-12-30T17:34:04.000Z</time></metadata><trk><name>20251230</name><trkseg><trkpt lat="24.0539795" lon="-109.98910916666667"><ele>2.6</ele><time>2025-12-30T17:34:04.000Z</time><extensions><gpxtpx:TrackPointExtension><gpxtpx:speed>0.23574278</gpxtpx:speed></gpxtpx:TrackPointExtension></extensions><geoidheight>-32.4</geoidheight><src>gps</src><sat>6</sat><hdop>2.61</hdop><vdop>2.68</vdop><pdop>3.74</pdop></trkpt>
<trkpt lat="24.0539875" lon="-109.98917666666667"><ele>8.5</ele><time>2025-12-30T17:35:33.000Z</time><extensions><gpxtpx:TrackPointExtension><gpxtpx:speed>0.040148333</gpxtpx:speed></gpxtpx:TrackPointExtension></extensions><geoidheight>-32.4</geoidheight><src>gps</src><sat>11</sat><hdop>1.39</hdop><vdop>1.44</vdop><pdop>2.01</pdop><dgpsid>0000</dgpsid></trkpt>
<trkpt lat="24.054029333333332" lon="-109.98915816666667"><ele>10.0</ele><time>2025-12-30T17:40:41.000Z</time><extensions><gpxtpx:TrackPointExtension><gpxtpx:speed>0.021103611</gpxtpx:speed></gpxtpx:TrackPointExtension></extensions><geoidheight>-32.4</geoidheight><src>gps</src><sat>17</sat><hdop>0.65</hdop><vdop>0.79</vdop><pdop>1.02</pdop><dgpsid>0000</dgpsid></trkpt>
<trkpt lat="24.054019333333333" lon="-109.9892225"><ele>14.8</ele><time>2025-12-30T17:42:31.000Z</time><extensions><gpxtpx:TrackPointExtension><gpxtpx:speed>0.024191944</gpxtpx:speed></gpxtpx:TrackPointExtension></extensions><geoidheight>-32.4</geoidheight><src>gps</src><sat>17</sat><hdop>0.67</hdop><vdop>0.77</vdop><pdop>1.02</pdop><dgpsid>0000</dgpsid></trkpt>
<trkpt lat="24.054030333333337" lon="-109.98917383333334"><ele>12.4</ele><time>2025-12-30T17:43:59.000Z</time><extensions><gpxtpx:TrackPointExtension><gpxtpx:speed>0.02985389</gpxtpx:speed></gpxtpx:TrackPointExtension></extensions><geoidheight>-32.4</geoidheight><src>gps</src><sat>17</sat><hdop>0.62</hdop><vdop>0.80</vdop><pdop>1.01</pdop><dgpsid>0000</dgpsid></trkpt>
<trkpt lat="24.054017833333333" lon="-109.98922149999999"><ele>17.6</ele><time>2025-12-30T17:48:12.000Z</time><extensions><gpxtpx:TrackPointExtension><gpxtpx:speed>0.04581028</gpxtpx:speed></gpxtpx:TrackPointExtension></extensions><geoidheight>-32.4</geoidheight><src>gps</src><sat>17</sat><hdop>0.66</hdop><vdop>0.88</vdop><pdop>1.10</pdop><dgpsid>0000</dgpsid></trkpt>
<trkpt lat="24.054008333333332" lon="-109.98917066666667"><ele>4.8</ele><time>2025-12-30T17:49:51.000Z</time><extensions><gpxtpx:TrackPointExtension><gpxtpx:speed>0.028309721</gpxtpx:speed></gpxtpx:TrackPointExtension></extensions><geoidheight>-32.4</geoidheight><src>gps</src><sat>16</sat><hdop>0.71</hdop><vdop>0.91</vdop><pdop>1.16</pdop><dgpsid>0000</dgpsid></trkpt>
<trkpt lat="24.0540335" lon="-109.9892135"><ele>17.7</ele><time>2025-12-30T17:57:33.000Z</time><extensions><gpxtpx:TrackPointExtension><gpxtpx:speed>0.038089443</gpxtpx:speed></gpxtpx:TrackPointExtension></extensions><geoidheight>-32.4</geoidheight><src>gps</src><sat>17</sat><hdop>0.69</hdop><vdop>1.03</vdop><pdop>1.24</pdop><dgpsid>0000</dgpsid></trkpt>
<trkpt lat="24.053999833333332" lon="-109.98916883333335"><ele>12.2</ele><time>2025-12-30T17:59:56.000Z</time><extensions><gpxtpx:TrackPointExtension><gpxtpx:speed>0.014412222</gpxtpx:speed></gpxtpx:TrackPointExtension></extensions><geoidheight>-32.4</geoidheight><src>gps</src><sat>18</sat><hdop>0.73</hdop><vdop>1.06</vdop><pdop>1.28</pdop><dgpsid>0000</dgpsid></trkpt>
<trkpt lat="24.054055499999997" lon="-109.98916883333335"><ele>13.4</ele><time>2025-12-30T18:06:21.000Z</time><extensions><gpxtpx:TrackPointExtension><gpxtpx:speed>0.007206111</gpxtpx:speed></gpxtpx:TrackPointExtension></extensions><geoidheight>-32.4</geoidheight><src>gps</src><sat>18</sat><hdop>0.60</hdop><vdop>0.86</vdop><pdop>1.05</pdop><dgpsid>0000</dgpsid></trkpt>
<trkpt lat="24.054010333333334" lon="-109.989167"><ele>8.9</ele><time>2025-12-30T18:07:38.000Z</time><extensions><gpxtpx:TrackPointExtension><gpxtpx:speed>0.012868055</gpxtpx:speed></gpxtpx:TrackPointExtension></extensions><geoidheight>-32.4</geoidheight><src>gps</src><sat>18</sat><hdop>0.71</hdop><vdop>1.00</vdop><pdop>1.22</pdop><dgpsid>0000</dgpsid></trkpt>
<trkpt lat="24.053906166666668" lon="-109.9892665"><ele>13.4</ele><time>2025-12-30T19:19:33.000Z</time><extensions><gpxtpx:TrackPointExtension><gpxtpx:speed>0.07103167</gpxtpx:speed></gpxtpx:TrackPointExtension></extensions><geoidheight>-32.4</geoidheight><src>gps</src><hdop>1.05</hdop><vdop>1.63</vdop><pdop>1.94</pdop></trkpt>
<trkpt lat="24.0539435" lon="-109.98923066666666"><ele>12.9</ele><time>2025-12-30T19:19:43.000Z</time><extensions><gpxtpx:TrackPointExtension><gpxtpx:speed>0.021618333</gpxtpx:speed></gpxtpx:TrackPointExtension></extensions><geoidheight>-32.4</geoidheight><src>gps</src><sat>12</sat><hdop>0.76</hdop><vdop>1.28</vdop><pdop>1.48</pdop></trkpt>
<trkpt lat="24.053981333333333" lon="-109.98919966666666"><ele>8.5</ele><time>2025-12-30T19:19:56.000Z</time><extensions><gpxtpx:TrackPointExtension><gpxtpx:speed>0.010294445</gpxtpx:speed></gpxtpx:TrackPointExtension></extensions><geoidheight>-32.4</geoidheight><src>gps</src><sat>13</sat><hdop>0.68</hdop><vdop>1.28</vdop><pdop>1.45</pdop></trkpt>
<trkpt lat="24.054019833333335" lon="-109.98916149999998"><ele>10.3</ele><time>2025-12-30T19:20:51.000Z</time><extensions><gpxtpx:TrackPointExtension><gpxtpx:speed>0.007206111</gpxtpx:speed></gpxtpx:TrackPointExtension></extensions><geoidheight>-32.4</geoidheight><src>gps</src><sat>16</sat><hdop>0.66</hdop><vdop>1.29</vdop><pdop>1.45</pdop></trkpt>
<trkpt lat="24.054028833333337" lon="-109.98910849999999"><ele>3.2</ele><time>2025-12-30T19:23:36.000Z</time><extensions><gpxtpx:TrackPointExtension><gpxtpx:speed>0.024706667</gpxtpx:speed></gpxtpx:TrackPointExtension></extensions><geoidheight>-32.4</geoidheight><src>gps</src><sat>19</sat><hdop>0.61</hdop><vdop>0.98</vdop><pdop>1.15</pdop><dgpsid>0000</dgpsid></trkpt>
<trkpt lat="24.0540115" lon="-109.9890575"><ele>-6.3</ele><time>2025-12-30T19:27:05.000Z</time><extensions><gpxtpx:TrackPointExtension><gpxtpx:speed>0.021618333</gpxtpx:speed></gpxtpx:TrackPointExtension></extensions><geoidheight>-32.4</geoidheight><src>gps</src><sat>20</sat><hdop>0.59</hdop><vdop>1.01</vdop><pdop>1.17</pdop><dgpsid>0000</dgpsid></trkpt>
<trkpt lat="24.05401283333333" lon="-109.98911466666665"><ele>-3.6</ele><time>2025-12-30T19:34:25.000Z</time><extensions><gpxtpx:TrackPointExtension><gpxtpx:speed>0.048383888</gpxtpx:speed></gpxtpx:TrackPointExtension></extensions><geoidheight>-32.4</geoidheight><src>gps</src><sat>19</sat><hdop>0.56</hdop><vdop>0.99</vdop><pdop>1.14</pdop><dgpsid>0000</dgpsid></trkpt>
<trkpt lat="24.054035666666664" lon="-109.98915933333335"><ele>11.8</ele><time>2025-12-30T19:42:07.000Z</time><extensions><gpxtpx:TrackPointExtension><gpxtpx:speed>0.02058889</gpxtpx:speed></gpxtpx:TrackPointExtension></extensions><geoidheight>-32.4</geoidheight><src>gps</src><sat>19</sat><hdop>0.53</hdop><vdop>0.99</vdop><pdop>1.12</pdop><dgpsid>0000</dgpsid></trkpt>
<trkpt lat="24.054005500000002" lon="-109.98919883333335"><ele>11.4</ele><time>2025-12-30T19:45:03.000Z</time><extensions><gpxtpx:TrackPointExtension><gpxtpx:speed>0.03448639</gpxtpx:speed></gpxtpx:TrackPointExtension></extensions><geoidheight>-32.4</geoidheight><src>gps</src><sat>18</sat><hdop>0.55</hdop><vdop>0.97</vdop><pdop>1.11</pdop><dgpsid>0000</dgpsid></trkpt>
<trkpt lat="24.053992" lon="-109.98914666666666"><ele>4.8</ele><time>2025-12-30T19:45:47.000Z</time><extensions><gpxtpx:TrackPointExtension><gpxtpx:speed>0.015441666</gpxtpx:speed></gpxtpx:TrackPointExtension></extensions><geoidheight>-32.4</geoidheight><src>gps</src><sat>19</sat><hdop>0.53</hdop><vdop>0.92</vdop><pdop>1.06</pdop><dgpsid>0000</dgpsid></trkpt>
<trkpt lat="24.05393616666667" lon="-109.98919916666667"><ele>22.9</ele><time>2025-12-30T22:16:02.000Z</time><extensions><gpxtpx:TrackPointExtension><gpxtpx:speed>0.08647333</gpxtpx:speed></gpxtpx:TrackPointExtension></extensions><geoidheight>-32.4</geoidheight><src>gps</src><sat>5</sat><hdop>1.32</hdop><vdop>1.82</vdop><pdop>2.25</pdop></trkpt>
<trkpt lat="24.053974833333335" lon="-109.98915716666667"><ele>19.1</ele><time>2025-12-30T22:16:13.000Z</time><extensions><gpxtpx:TrackPointExtension><gpxtpx:speed>0.031398054</gpxtpx:speed></gpxtpx:TrackPointExtension></extensions><geoidheight>-32.4</geoidheight><src>gps</src><sat>12</sat><hdop>0.93</hdop><vdop>1.21</vdop><pdop>1.52</pdop></trkpt>
<trkpt lat="24.054021666666667" lon="-109.98917733333334"><ele>15.9</ele><time>2025-12-30T22:19:53.000Z</time><extensions><gpxtpx:TrackPointExtension><gpxtpx:speed>0.019559445</gpxtpx:speed></gpxtpx:TrackPointExtension></extensions><geoidheight>-32.4</geoidheight><src>gps</src><sat>16</sat><hdop>0.76</hdop><vdop>1.10</vdop><pdop>1.33</pdop><dgpsid>0000</dgpsid></trkpt>
<trkpt lat="24.05401133333333" lon="-109.98912233333334"><ele>6.6</ele><time>2025-12-30T22:22:27.000Z</time><extensions><gpxtpx:TrackPointExtension><gpxtpx:speed>0.037574723</gpxtpx:speed></gpxtpx:TrackPointExtension></extensions><geoidheight>-32.4</geoidheight><src>gps</src><sat>17</sat><hdop>0.66</hdop><vdop>0.94</vdop><pdop>1.15</pdop><dgpsid>0000</dgpsid></trkpt>
<trkpt lat="24.053972666666663" lon="-109.98909"><ele>3.4</ele><time>2025-12-30T22:24:17.000Z</time><extensions><gpxtpx:TrackPointExtension><gpxtpx:speed>0.023677222</gpxtpx:speed></gpxtpx:TrackPointExtension></extensions><geoidheight>-32.4</geoidheight><src>gps</src><sat>17</sat><hdop>0.74</hdop><vdop>1.08</vdop><pdop>1.30</pdop><dgpsid>0000</dgpsid></trkpt>
<trkpt lat="24.053983833333337" lon="-109.9891445"><ele>9.1</ele><time>2025-12-30T22:30:31.000Z</time><extensions><gpxtpx:TrackPointExtension><gpxtpx:speed>0.024191944</gpxtpx:speed></gpxtpx:TrackPointExtension></extensions><geoidheight>-32.4</geoidheight><src>gps</src><sat>18</sat><hdop>0.65</hdop><vdop>0.96</vdop><pdop>1.16</pdop><dgpsid>0000</dgpsid></trkpt>
</trkseg></trk></gpx>