<?xml version="1.0" encoding="UTF-8" ?><gpx version="1.1" creator="GPSLogger 135 - http://gpslogger.mendhak.com/" xmlns:xsi="http://www.w3.org/2001/XMLSchema-instance" xmlns="http://www.topografix.com/GPX/1/1" xmlns:gpxtpx="http://www.garmin.com/xmlschemas/TrackPointExtension/v2" xsi:schemaLocation="http://www.topografix.com/GPX/1/1 http://www.topografix.com/GPX/1/1/gpx.xsd http://www.garmin.com/xmlschemas/TrackPointExtension/v2 https://www8.garmin.com/xmlschemas/TrackPointExtensionv2.xsd "><metadata><time>2025-12-31T18:28:03.000Z</time></metadata><trk><name>20251231</name><trkseg><trkpt lat="24.054021333333335" lon="-109.98914416666666"><ele>14.0</ele><time>2025-12-31T18:28:03.000Z</time><extensions><gpxtpx:TrackPointExtension><gpxtpx:speed>0.20897722</gpxtpx:speed></gpxtpx:TrackPointExtension></extensions><geoidheight>-32.4</geoidheight><src>gps</src><sat>6</sat><hdop>1.71</hdop><vdop>2.46</vdop><pdop>2.99</pdop></trkpt>
<trkpt lat="24.05397816666667" lon="-109.98912966666667"><ele>-1.0</ele><time>2025-12-31T18:45:38.000Z</time><extensions><gpxtpx:TrackPointExtension><gpxtpx:speed>0.020074166</gpxtpx:speed></gpxtpx:TrackPointExtension></extensions><geoidheight>-32.4</geoidheight><src>gps</src><sat>17</sat><hdop>0.57</hdop><vdop>0.96</vdop><pdop>1.12</pdop><dgpsid>0000</dgpsid></trkpt>
<trkpt lat="24.053989666666666" lon="-109.98919016666666"><ele>12.2</ele><time>2025-12-31T18:53:53.000Z</time><extensions><gpxtpx:TrackPointExtension><gpxtpx:speed>0.015441666</gpxtpx:speed></gpxtpx:TrackPointExtension></extensions><geoidheight>-32.4</geoidheight><src>gps</src><sat>16</sat><hdop>0.67</hdop><vdop>1.18</vdop><pdop>1.36</pdop><dgpsid>0000</dgpsid></trkpt>
<trkpt lat="24.053948" lon="-109.98916316666667"><ele>7.3</ele><time>2025-12-31T19:01:46.000Z</time><extensions><gpxtpx:TrackPointExtension><gpxtpx:speed>0.0324275</gpxtpx:speed></gpxtpx:TrackPointExtension></extensions><geoidheight>-32.4</geoidheight><src>gps</src><sat>15</sat><hdop>0.71</hdop><vdop>1.15</vdop><pdop>1.36</pdop><dgpsid>0000</dgpsid></trkpt>
<trkpt lat="24.0539875" lon="-109.9891385"><ele>6.8</ele><time>2025-12-31T19:10:34.000Z</time><extensions><gpxtpx:TrackPointExtension><gpxtpx:speed>0.013382778</gpxtpx:speed></gpxtpx:TrackPointExtension></extensions><geoidheight>-32.4</geoidheight><src>gps</src><sat>17</sat><hdop>0.53</hdop><vdop>0.88</vdop><pdop>1.03</pdop><dgpsid>0000</dgpsid></trkpt>
</trkseg></trk></gpx>