<?xml version="1.0" encoding="UTF-8"?><kml xmlns="http://www.opengis.net/kml/2.2" xmlns:gx="http://www.google.com/kml/ext/2.2" xmlns:kml="http://www.opengis.net/kml/2.2" xmlns:atom="http://www.w3.org/2005/Atom"><Document><name>2025-12-30T17:34:04.000Z</name>
<Placemark>
<gx:Track>

<when>2025-12-30T17:34:04.000Z</when>
<gx:coord>-109.98910916666667 24.0539795 2.6</gx:coord>

<when>2025-12-30T17:35:33.000Z</when>
<gx:coord>-109.98917666666667 24.0539875 8.5</gx:coord>

<when>2025-12-30T17:40:41.000Z</when>
<gx:coord>-109.98915816666667 24.054029333333332 10.0</gx:coord>

<when>2025-12-30T17:42:31.000Z</when>
<gx:coord>-109.9892225 24.054019333333333 14.8</gx:coord>

<when>2025-12-30T17:43:59.000Z</when>
<gx:coord>-109.98917383333334 24.054030333333337 12.4</gx:coord>

<when>2025-12-30T17:48:12.000Z</when>
<gx:coord>-109.98922149999999 24.054017833333333 17.6</gx:coord>

<when>2025-12-30T17:49:51.000Z</when>
<gx:coord>-109.98917066666667 24.054008333333332 4.8</gx:coord>

<when>2025-12-30T17:57:33.000Z</when>
<gx:coord>-109.9892135 24.0540335 17.7</gx:coord>

<when>2025-12-30T17:59:56.000Z</when>
<gx:coord>-109.98916883333335 24.053999833333332 12.2</gx:coord>

<when>2025-12-30T18:06:21.000Z</when>
<gx:coord>-109.98916883333335 24.054055499999997 13.4</gx:coord>

<when>2025-12-30T18:07:38.000Z</when>
<gx:coord>-109.989167 24.054010333333334 8.9</gx:coord>

<when>2025-12-30T19:19:33.000Z</when>
<gx:coord>-109.9892665 24.053906166666668 13.4</gx:coord>

<when>2025-12-30T19:19:43.000Z</when>
<gx:coord>-109.98923066666666 24.0539435 12.9</gx:coord>

<when>2025-12-30T19:19:56.000Z</when>
<gx:coord>-109.98919966666666 24.053981333333333 8.5</gx:coord>

<when>2025-12-30T19:20:51.000Z</when>
<gx:coord>-109.98916149999998 24.054019833333335 10.3</gx:coord>

<when>2025-12-30T19:23:36.000Z</when>
<gx:coord>-109.98910849999999 24.054028833333337 3.2</gx:coord>

<when>2025-12-30T19:27:05.000Z</when>
<gx:coord>-109.9890575 24.0540115 -6.3</gx:coord>

<when>2025-12-30T19:34:25.000Z</when>
<gx:coord>-109.98911466666665 24.05401283333333 -3.6</gx:coord>

<when>2025-12-30T19:42:07.000Z</when>
<gx:coord>-109.98915933333335 24.054035666666664 11.8</gx:coord>

<when>2025-12-30T19:45:03.000Z</when>
<gx:coord>-109.98919883333335 24.054005500000002 11.4</gx:coord>

<when>2025-12-30T19:45:47.000Z</when>
<gx:coord>-109.98914666666666 24.053992 4.8</gx:coord>

<when>2025-12-30T22:16:02.000Z</when>
<gx:coord>-109.98919916666667 24.05393616666667 22.9</gx:coord>

<when>2025-12-30T22:16:13.000Z</when>
<gx:coord>-109.98915716666667 24.053974833333335 19.1</gx:coord>

<when>2025-12-30T22:19:53.000Z</when>
<gx:coord>-109.98917733333334 24.054021666666667 15.9</gx:coord>

<when>2025-12-30T22:22:27.000Z</when>
<gx:coord>-109.98912233333334 24.05401133333333 6.6</gx:coord>

<when>2025-12-30T22:24:17.000Z</when>
<gx:coord>-109.98909 24.053972666666663 3.4</gx:coord>

<when>2025-12-30T22:30:31.000Z</when>
<gx:coord>-109.9891445 24.053983833333337 9.1</gx:coord>
</gx:Track>
</Placemark></Document></kml>
