<?xml version="1.0" encoding="UTF-8"?><kml xmlns="http://www.opengis.net/kml/2.2" xmlns:gx="http://www.google.com/kml/ext/2.2" xmlns:kml="http://www.opengis.net/kml/2.2" xmlns:atom="http://www.w3.org/2005/Atom"><Document><name>2025-12-19T00:29:33.000Z</name>
<Placemark>
<gx:Track>

<when>2025-12-19T00:29:33.000Z</when>
<gx:coord>-114.09353166666666 28.54318616666667 7.8</gx:coord>

<when>2025-12-19T00:33:02.000Z</when>
<gx:coord>-114.09339416666666 28.543188333333333 5.3</gx:coord>

<when>2025-12-19T00:33:13.000Z</when>
<gx:coord>-114.09327516666666 28.543185166666664 4.7</gx:coord>

<when>2025-12-19T00:33:24.000Z</when>
<gx:coord>-114.09322249999998 28.543191499999995 5.0</gx:coord>

<when>2025-12-19T00:33:35.000Z</when>
<gx:coord>-114.09310233333332 28.543236 6.7</gx:coord>

<when>2025-12-19T00:33:46.000Z</when>
<gx:coord>-114.09286933333333 28.543333833333335 6.3</gx:coord>

<when>2025-12-19T00:33:57.000Z</when>
<gx:coord>-114.09262583333333 28.543405666666665 4.7</gx:coord>

<when>2025-12-19T00:34:08.000Z</when>
<gx:coord>-114.09240816666667 28.543479499999997 4.5</gx:coord>

<when>2025-12-19T00:34:19.000Z</when>
<gx:coord>-114.09213266666666 28.543585833333335 4.9</gx:coord>

<when>2025-12-19T00:34:30.000Z</when>
<gx:coord>-114.09166116666665 28.54378416666667 5.1</gx:coord>

<when>2025-12-19T00:34:41.000Z</when>
<gx:coord>-114.09105433333335 28.544039166666668 4.9</gx:coord>

<when>2025-12-19T00:34:52.000Z</when>
<gx:coord>-114.09059766666665 28.544255 4.0</gx:coord>

<when>2025-12-19T00:35:03.000Z</when>
<gx:coord>-114.09013466666666 28.544437500000004 2.4</gx:coord>

<when>2025-12-19T00:35:14.000Z</when>
<gx:coord>-114.08981 28.544640333333337 2.3</gx:coord>

<when>2025-12-19T00:35:25.000Z</when>
<gx:coord>-114.08950000000002 28.544816833333336 2.6</gx:coord>

<when>2025-12-19T00:35:36.000Z</when>
<gx:coord>-114.0893035 28.545006833333332 2.7</gx:coord>

<when>2025-12-19T00:35:47.000Z</when>
<gx:coord>-114.08909533333332 28.54515483333333 2.7</gx:coord>

<when>2025-12-19T00:35:58.000Z</when>
<gx:coord>-114.088805 28.545317 2.5</gx:coord>

<when>2025-12-19T00:36:09.000Z</when>
<gx:coord>-114.08855116666668 28.545551833333334 2.3</gx:coord>

<when>2025-12-19T00:36:20.000Z</when>
<gx:coord>-114.088227 28.545779833333334 3.4</gx:coord>

<when>2025-12-19T00:36:31.000Z</when>
<gx:coord>-114.0877955 28.545890833333335 3.3</gx:coord>

<when>2025-12-19T00:36:42.000Z</when>
<gx:coord>-114.08742516666668 28.546114333333335 3.8</gx:coord>

<when>2025-12-19T00:36:53.000Z</when>
<gx:coord>-114.08706966666665 28.546285833333332 6.6</gx:coord>

<when>2025-12-19T00:37:04.000Z</when>
<gx:coord>-114.08672550000001 28.546491999999997 8.9</gx:coord>

<when>2025-12-19T00:37:15.000Z</when>
<gx:coord>-114.08634866666668 28.546847333333336 10.3</gx:coord>

<when>2025-12-19T00:37:26.000Z</when>
<gx:coord>-114.08592433333334 28.547347666666663 12.4</gx:coord>

<when>2025-12-19T00:37:37.000Z</when>
<gx:coord>-114.08557049999999 28.54782883333333 13.2</gx:coord>

<when>2025-12-19T00:37:48.000Z</when>
<gx:coord>-114.08519916666667 28.548313333333333 13.7</gx:coord>

<when>2025-12-19T00:37:59.000Z</when>
<gx:coord>-114.08478850000002 28.548787333333333 14.3</gx:coord>

<when>2025-12-19T00:38:10.000Z</when>
<gx:coord>-114.0843285 28.549211833333334 14.7</gx:coord>

<when>2025-12-19T00:38:21.000Z</when>
<gx:coord>-114.0839045 28.549645499999997 15.5</gx:coord>

<when>2025-12-19T00:38:32.000Z</when>
<gx:coord>-114.08350800000001 28.55010483333333 16.2</gx:coord>

<when>2025-12-19T00:38:43.000Z</when>
<gx:coord>-114.08308383333333 28.550525500000003 16.3</gx:coord>

<when>2025-12-19T00:38:54.000Z</when>
<gx:coord>-114.08258116666666 28.550792833333336 17.4</gx:coord>

<when>2025-12-19T00:39:05.000Z</when>
<gx:coord>-114.08202816666666 28.55105866666667 18.4</gx:coord>

<when>2025-12-19T00:39:16.000Z</when>
<gx:coord>-114.0814455 28.55142916666667 19.1</gx:coord>

<when>2025-12-19T00:39:27.000Z</when>
<gx:coord>-114.08083200000002 28.551790166666667 19.0</gx:coord>

<when>2025-12-19T00:39:38.000Z</when>
<gx:coord>-114.08022633333333 28.552002333333334 19.9</gx:coord>

<when>2025-12-19T00:39:49.000Z</when>
<gx:coord>-114.07964433333333 28.552130000000002 19.7</gx:coord>

<when>2025-12-19T00:40:00.000Z</when>
<gx:coord>-114.0791345 28.552217333333335 19.3</gx:coord>

<when>2025-12-19T00:40:11.000Z</when>
<gx:coord>-114.07862883333334 28.552372166666668 20.2</gx:coord>

<when>2025-12-19T00:40:22.000Z</when>
<gx:coord>-114.07813666666668 28.55245616666667 21.7</gx:coord>

<when>2025-12-19T00:40:33.000Z</when>
<gx:coord>-114.07759116666666 28.552543333333332 21.8</gx:coord>

<when>2025-12-19T00:40:44.000Z</when>
<gx:coord>-114.07700600000001 28.552629833333338 22.5</gx:coord>

<when>2025-12-19T00:40:55.000Z</when>
<gx:coord>-114.076349 28.552765 22.7</gx:coord>

<when>2025-12-19T00:41:06.000Z</when>
<gx:coord>-114.07568233333335 28.552896666666665 22.9</gx:coord>

<when>2025-12-19T00:41:17.000Z</when>
<gx:coord>-114.07508683333332 28.553012833333334 23.7</gx:coord>

<when>2025-12-19T00:41:28.000Z</when>
<gx:coord>-114.07450633333335 28.553185666666664 23.9</gx:coord>

<when>2025-12-19T00:41:39.000Z</when>
<gx:coord>-114.07409666666666 28.55331083333333 24.8</gx:coord>

<when>2025-12-19T00:41:50.000Z</when>
<gx:coord>-114.07367583333334 28.553384166666667 22.3</gx:coord>

<when>2025-12-19T00:42:01.000Z</when>
<gx:coord>-114.07328983333333 28.55331233333333 20.5</gx:coord>

<when>2025-12-19T00:42:12.000Z</when>
<gx:coord>-114.0729515 28.553266500000003 20.3</gx:coord>

<when>2025-12-19T00:42:23.000Z</when>
<gx:coord>-114.07269616666666 28.55325433333333 18.1</gx:coord>

<when>2025-12-19T00:42:34.000Z</when>
<gx:coord>-114.07239266666666 28.553206333333332 17.8</gx:coord>

<when>2025-12-19T00:42:45.000Z</when>
<gx:coord>-114.07208383333334 28.553266500000003 18.9</gx:coord>

<when>2025-12-19T00:42:56.000Z</when>
<gx:coord>-114.07181483333333 28.553476166666663 21.4</gx:coord>

<when>2025-12-19T00:43:07.000Z</when>
<gx:coord>-114.071508 28.55368616666666 22.0</gx:coord>

<when>2025-12-19T00:43:18.000Z</when>
<gx:coord>-114.07107533333334 28.553799166666668 22.8</gx:coord>

<when>2025-12-19T00:43:29.000Z</when>
<gx:coord>-114.07062616666666 28.553878833333336 22.0</gx:coord>

<when>2025-12-19T00:43:40.000Z</when>
<gx:coord>-114.07025 28.553962499999997 21.7</gx:coord>

<when>2025-12-19T00:43:51.000Z</when>
<gx:coord>-114.06987383333332 28.554087166666665 23.7</gx:coord>

<when>2025-12-19T00:44:02.000Z</when>
<gx:coord>-114.06941299999998 28.554118499999998 25.4</gx:coord>

<when>2025-12-19T00:44:13.000Z</when>
<gx:coord>-114.06868866666667 28.554241499999996 25.5</gx:coord>

<when>2025-12-19T00:44:24.000Z</when>
<gx:coord>-114.06801666666667 28.554394833333337 25.4</gx:coord>

<when>2025-12-19T00:44:35.000Z</when>
<gx:coord>-114.06747133333334 28.554472666666666 24.6</gx:coord>

<when>2025-12-19T00:44:46.000Z</when>
<gx:coord>-114.0669525 28.554588833333334 23.4</gx:coord>

<when>2025-12-19T00:44:57.000Z</when>
<gx:coord>-114.06659300000001 28.554664499999998 24.3</gx:coord>

<when>2025-12-19T00:45:08.000Z</when>
<gx:coord>-114.06611983333332 28.554757666666667 25.8</gx:coord>

<when>2025-12-19T00:45:19.000Z</when>
<gx:coord>-114.06559100000001 28.554718 25.1</gx:coord>

<when>2025-12-19T00:45:30.000Z</when>
<gx:coord>-114.06513883333334 28.554621833333332 24.3</gx:coord>

<when>2025-12-19T00:45:41.000Z</when>
<gx:coord>-114.06470466666666 28.554479 24.5</gx:coord>

<when>2025-12-19T00:45:52.000Z</when>
<gx:coord>-114.06430999999999 28.5544415 25.3</gx:coord>

<when>2025-12-19T00:46:03.000Z</when>
<gx:coord>-114.06391916666668 28.554506333333332 26.8</gx:coord>

<when>2025-12-19T00:46:14.000Z</when>
<gx:coord>-114.06359533333334 28.5547485 29.1</gx:coord>

<when>2025-12-19T00:46:25.000Z</when>
<gx:coord>-114.06315233333335 28.554933166666668 30.0</gx:coord>

<when>2025-12-19T00:46:36.000Z</when>
<gx:coord>-114.0628325 28.554959999999998 28.5</gx:coord>

<when>2025-12-19T00:46:47.000Z</when>
<gx:coord>-114.06245733333331 28.554848666666665 30.5</gx:coord>

<when>2025-12-19T00:46:58.000Z</when>
<gx:coord>-114.06202233333333 28.554616333333335 30.8</gx:coord>

<when>2025-12-19T00:47:09.000Z</when>
<gx:coord>-114.06147866666667 28.554544000000003 30.8</gx:coord>

<when>2025-12-19T00:47:20.000Z</when>
<gx:coord>-114.06109816666667 28.55456416666667 31.7</gx:coord>

<when>2025-12-19T00:47:31.000Z</when>
<gx:coord>-114.0606915 28.554589333333336 32.9</gx:coord>

<when>2025-12-19T00:47:42.000Z</when>
<gx:coord>-114.06033899999998 28.5544205 33.0</gx:coord>

<when>2025-12-19T00:47:53.000Z</when>
<gx:coord>-114.0599725 28.554258333333337 32.0</gx:coord>

<when>2025-12-19T00:48:04.000Z</when>
<gx:coord>-114.0596055 28.554099166666667 29.6</gx:coord>

<when>2025-12-19T00:48:15.000Z</when>
<gx:coord>-114.059097 28.55404716666667 29.3</gx:coord>

<when>2025-12-19T00:48:26.000Z</when>
<gx:coord>-114.05869266666666 28.553971833333335 29.0</gx:coord>

<when>2025-12-19T00:48:37.000Z</when>
<gx:coord>-114.05825233333334 28.553865333333338 29.7</gx:coord>

<when>2025-12-19T00:48:48.000Z</when>
<gx:coord>-114.05775450000002 28.553786 30.4</gx:coord>

<when>2025-12-19T00:48:59.000Z</when>
<gx:coord>-114.05737316666666 28.553544333333335 30.1</gx:coord>

<when>2025-12-19T00:49:10.000Z</when>
<gx:coord>-114.05705449999999 28.55319383333333 28.8</gx:coord>

<when>2025-12-19T00:49:21.000Z</when>
<gx:coord>-114.05657816666665 28.55299316666667 29.9</gx:coord>

<when>2025-12-19T00:49:32.000Z</when>
<gx:coord>-114.05608050000001 28.552824499999996 31.7</gx:coord>

<when>2025-12-19T00:49:43.000Z</when>
<gx:coord>-114.05557083333333 28.55271683333334 32.9</gx:coord>

<when>2025-12-19T00:49:54.000Z</when>
<gx:coord>-114.05502416666668 28.552604166666665 34.0</gx:coord>

<when>2025-12-19T00:50:05.000Z</when>
<gx:coord>-114.05454933333334 28.552494166666666 34.4</gx:coord>

<when>2025-12-19T00:50:16.000Z</when>
<gx:coord>-114.05443066666666 28.552363666666665 34.9</gx:coord>

<when>2025-12-19T00:53:56.000Z</when>
<gx:coord>-114.054355 28.552277333333336 36.8</gx:coord>

<when>2025-12-19T00:54:18.000Z</when>
<gx:coord>-114.054373 28.552332333333332 36.5</gx:coord>

<when>2025-12-19T00:54:40.000Z</when>
<gx:coord>-114.05433233333333 28.552270833333335 36.3</gx:coord>

<when>2025-12-19T00:54:51.000Z</when>
<gx:coord>-114.054227 28.552068166666665 35.7</gx:coord>

<when>2025-12-19T00:55:02.000Z</when>
<gx:coord>-114.05405583333335 28.551261333333333 38.0</gx:coord>

<when>2025-12-19T00:55:13.000Z</when>
<gx:coord>-114.05355966666666 28.55027283333333 44.6</gx:coord>

<when>2025-12-19T00:55:24.000Z</when>
<gx:coord>-114.05296666666666 28.54940016666667 47.9</gx:coord>

<when>2025-12-19T00:55:35.000Z</when>
<gx:coord>-114.05233750000001 28.548489166666666 48.7</gx:coord>

<when>2025-12-19T00:55:46.000Z</when>
<gx:coord>-114.05173500000001 28.54755733333333 51.5</gx:coord>

<when>2025-12-19T00:55:57.000Z</when>
<gx:coord>-114.05119233333335 28.546371500000003 54.5</gx:coord>

<when>2025-12-19T00:56:08.000Z</when>
<gx:coord>-114.05060066666668 28.545010666666666 60.5</gx:coord>

<when>2025-12-19T00:56:19.000Z</when>
<gx:coord>-114.04997583333333 28.543556833333334 66.6</gx:coord>

<when>2025-12-19T00:56:30.000Z</when>
<gx:coord>-114.04933766666666 28.542074666666668 72.8</gx:coord>

<when>2025-12-19T00:56:41.000Z</when>
<gx:coord>-114.04869066666667 28.540577666666664 74.3</gx:coord>

<when>2025-12-19T00:56:52.000Z</when>
<gx:coord>-114.0480785 28.5391655 75.9</gx:coord>

<when>2025-12-19T00:57:03.000Z</when>
<gx:coord>-114.04751900000001 28.537861333333332 76.6</gx:coord>

<when>2025-12-19T00:57:14.000Z</when>
<gx:coord>-114.04696216666667 28.536555333333332 74.2</gx:coord>

<when>2025-12-19T00:57:25.000Z</when>
<gx:coord>-114.04639183333332 28.535197 72.3</gx:coord>

<when>2025-12-19T00:57:36.000Z</when>
<gx:coord>-114.04560699999999 28.533884166666667 72.8</gx:coord>

<when>2025-12-19T00:57:47.000Z</when>
<gx:coord>-114.04445983333332 28.532930000000004 75.1</gx:coord>

<when>2025-12-19T00:57:58.000Z</when>
<gx:coord>-114.04304716666665 28.531843166666665 64.6</gx:coord>

<when>2025-12-19T00:58:09.000Z</when>
<gx:coord>-114.04171133333332 28.530808833333335 63.3</gx:coord>

<when>2025-12-19T00:58:20.000Z</when>
<gx:coord>-114.04046883333334 28.529854 59.4</gx:coord>

<when>2025-12-19T00:58:31.000Z</when>
<gx:coord>-114.03919016666666 28.529173833333335 55.4</gx:coord>

<when>2025-12-19T00:58:42.000Z</when>
<gx:coord>-114.038861 28.528945500000003 53.3</gx:coord>

<when>2025-12-19T01:03:50.000Z</when>
<gx:coord>-114.03880400000001 28.5289575 55.2</gx:coord>

<when>2025-12-19T01:04:01.000Z</when>
<gx:coord>-114.038463 28.528889666666668 54.1</gx:coord>

<when>2025-12-19T01:04:12.000Z</when>
<gx:coord>-114.03773316666665 28.528583333333337 48.4</gx:coord>

<when>2025-12-19T01:04:23.000Z</when>
<gx:coord>-114.03691183333333 28.527963666666665 41.2</gx:coord>

<when>2025-12-19T01:04:34.000Z</when>
<gx:coord>-114.03658066666667 28.527099500000002 33.1</gx:coord>

<when>2025-12-19T01:04:45.000Z</when>
<gx:coord>-114.03721066666667 28.526237 24.6</gx:coord>

<when>2025-12-19T01:04:56.000Z</when>
<gx:coord>-114.03764716666667 28.52525366666667 26.6</gx:coord>

<when>2025-12-19T01:05:07.000Z</when>
<gx:coord>-114.03681966666666 28.52410766666667 32.3</gx:coord>

<when>2025-12-19T01:05:18.000Z</when>
<gx:coord>-114.03662950000002 28.523063333333333 40.2</gx:coord>

<when>2025-12-19T01:05:29.000Z</when>
<gx:coord>-114.03670833333332 28.52207283333333 47.5</gx:coord>

<when>2025-12-19T01:05:40.000Z</when>
<gx:coord>-114.03593733333334 28.5208075 46.9</gx:coord>

<when>2025-12-19T01:05:51.000Z</when>
<gx:coord>-114.03472349999998 28.52004583333333 54.9</gx:coord>

<when>2025-12-19T01:06:02.000Z</when>
<gx:coord>-114.03336266666665 28.51923283333333 58.8</gx:coord>

<when>2025-12-19T01:06:13.000Z</when>
<gx:coord>-114.03211883333333 28.518005833333337 59.2</gx:coord>

<when>2025-12-19T01:06:24.000Z</when>
<gx:coord>-114.03106333333332 28.516432166666664 57.6</gx:coord>

<when>2025-12-19T01:06:35.000Z</when>
<gx:coord>-114.02998683333333 28.514826166666662 60.2</gx:coord>

<when>2025-12-19T01:06:46.000Z</when>
<gx:coord>-114.02894983333333 28.513265166666663 59.2</gx:coord>

<when>2025-12-19T01:06:57.000Z</when>
<gx:coord>-114.02790016666668 28.51170516666667 44.9</gx:coord>

<when>2025-12-19T01:07:08.000Z</when>
<gx:coord>-114.02674883333333 28.510422833333337 36.1</gx:coord>

<when>2025-12-19T01:07:19.000Z</when>
<gx:coord>-114.02564866666668 28.50960866666667 34.1</gx:coord>

<when>2025-12-19T01:07:30.000Z</when>
<gx:coord>-114.02507283333334 28.509195 32.2</gx:coord>

<when>2025-12-19T01:07:41.000Z</when>
<gx:coord>-114.02491666666668 28.5090405 30.2</gx:coord>

<when>2025-12-19T01:07:52.000Z</when>
<gx:coord>-114.02487083333332 28.508987666666666 29.7</gx:coord>

<when>2025-12-19T01:08:58.000Z</when>
<gx:coord>-114.02475183333333 28.508854166666666 33.5</gx:coord>

<when>2025-12-19T01:09:09.000Z</when>
<gx:coord>-114.0246595 28.508757666666664 33.9</gx:coord>

<when>2025-12-19T01:09:42.000Z</when>
<gx:coord>-114.02457083333333 28.508695666666668 32.7</gx:coord>

<when>2025-12-19T01:10:37.000Z</when>
<gx:coord>-114.02443116666667 28.508603333333333 31.9</gx:coord>

<when>2025-12-19T01:10:48.000Z</when>
<gx:coord>-114.0241925 28.508526500000002 32.2</gx:coord>

<when>2025-12-19T01:10:59.000Z</when>
<gx:coord>-114.0238935 28.508365166666668 33.4</gx:coord>

<when>2025-12-19T01:11:10.000Z</when>
<gx:coord>-114.02354366666665 28.508111833333334 32.1</gx:coord>

<when>2025-12-19T01:11:21.000Z</when>
<gx:coord>-114.02268283333333 28.507487833333336 30.8</gx:coord>

<when>2025-12-19T01:11:32.000Z</when>
<gx:coord>-114.02132000000002 28.506503833333333 30.4</gx:coord>

<when>2025-12-19T01:11:43.000Z</when>
<gx:coord>-114.01981666666667 28.505430999999998 34.6</gx:coord>

<when>2025-12-19T01:11:54.000Z</when>
<gx:coord>-114.01834883333335 28.504348333333336 39.6</gx:coord>

<when>2025-12-19T01:12:05.000Z</when>
<gx:coord>-114.017904 28.502777 48.1</gx:coord>

<when>2025-12-19T01:12:16.000Z</when>
<gx:coord>-114.01843216666666 28.501350666666667 60.8</gx:coord>

<when>2025-12-19T01:12:27.000Z</when>
<gx:coord>-114.01812550000001 28.49991316666667 66.7</gx:coord>

<when>2025-12-19T01:12:38.000Z</when>
<gx:coord>-114.01731999999998 28.498225 66.4</gx:coord>

<when>2025-12-19T01:12:49.000Z</when>
<gx:coord>-114.01641566666667 28.496334166666664 64.5</gx:coord>

<when>2025-12-19T01:13:00.000Z</when>
<gx:coord>-114.01545516666665 28.494307499999998 63.0</gx:coord>

<when>2025-12-19T01:13:11.000Z</when>
<gx:coord>-114.01448233333333 28.49242166666667 62.4</gx:coord>

<when>2025-12-19T01:13:22.000Z</when>
<gx:coord>-114.01315183333332 28.490705499999997 49.1</gx:coord>

<when>2025-12-19T01:13:33.000Z</when>
<gx:coord>-114.01174199999998 28.488938666666666 52.0</gx:coord>

<when>2025-12-19T01:13:44.000Z</when>
<gx:coord>-114.01055966666667 28.487241666666666 61.1</gx:coord>

<when>2025-12-19T01:13:55.000Z</when>
<gx:coord>-114.00986466666667 28.485138 61.8</gx:coord>

<when>2025-12-19T01:14:06.000Z</when>
<gx:coord>-114.00919666666665 28.4828455 61.5</gx:coord>

<when>2025-12-19T01:14:17.000Z</when>
<gx:coord>-114.00854333333334 28.480611333333332 59.7</gx:coord>

<when>2025-12-19T01:14:28.000Z</when>
<gx:coord>-114.00789016666667 28.47837983333333 58.5</gx:coord>

<when>2025-12-19T01:14:39.000Z</when>
<gx:coord>-114.00723116666668 28.476132500000002 56.9</gx:coord>

<when>2025-12-19T01:14:50.000Z</when>
<gx:coord>-114.0065835 28.47392 55.9</gx:coord>

<when>2025-12-19T01:15:01.000Z</when>
<gx:coord>-114.00541849999999 28.472234333333336 49.8</gx:coord>

<when>2025-12-19T01:15:12.000Z</when>
<gx:coord>-114.00396966666668 28.470836833333337 36.4</gx:coord>

<when>2025-12-19T01:15:23.000Z</when>
<gx:coord>-114.00283816666666 28.46919833333333 32.1</gx:coord>

<when>2025-12-19T01:15:34.000Z</when>
<gx:coord>-114.00158016666667 28.46728333333333 34.5</gx:coord>

<when>2025-12-19T01:15:45.000Z</when>
<gx:coord>-114.00040433333334 28.465336666666666 39.1</gx:coord>

<when>2025-12-19T01:15:56.000Z</when>
<gx:coord>-113.99945366666667 28.463169833333335 41.8</gx:coord>

<when>2025-12-19T01:16:07.000Z</when>
<gx:coord>-113.99857133333335 28.461097166666665 48.9</gx:coord>

<when>2025-12-19T01:16:18.000Z</when>
<gx:coord>-113.99769450000001 28.459051999999996 51.0</gx:coord>

<when>2025-12-19T01:16:29.000Z</when>
<gx:coord>-113.99678266666666 28.456934166666663 48.1</gx:coord>

<when>2025-12-19T01:16:40.000Z</when>
<gx:coord>-113.99586633333332 28.454775 44.7</gx:coord>

<when>2025-12-19T01:16:51.000Z</when>
<gx:coord>-113.99512433333332 28.4525655 43.5</gx:coord>

<when>2025-12-19T01:17:02.000Z</when>
<gx:coord>-113.99457983333332 28.450280333333332 40.7</gx:coord>

<when>2025-12-19T01:17:13.000Z</when>
<gx:coord>-113.99401933333333 28.447929999999996 38.3</gx:coord>

<when>2025-12-19T01:17:24.000Z</when>
<gx:coord>-113.99346249999999 28.445593666666664 35.9</gx:coord>

<when>2025-12-19T01:17:35.000Z</when>
<gx:coord>-113.9928965 28.443224166666663 33.0</gx:coord>

<when>2025-12-19T01:17:46.000Z</when>
<gx:coord>-113.99236283333333 28.440981333333337 28.3</gx:coord>

<when>2025-12-19T01:17:57.000Z</when>
<gx:coord>-113.99183399999998 28.438793166666663 25.2</gx:coord>

<when>2025-12-19T01:18:08.000Z</when>
<gx:coord>-113.99131766666666 28.436625000000003 28.4</gx:coord>

<when>2025-12-19T01:18:19.000Z</when>
<gx:coord>-113.99083016666667 28.434574166666668 33.8</gx:coord>

<when>2025-12-19T01:18:30.000Z</when>
<gx:coord>-113.99032516666666 28.43245866666667 34.1</gx:coord>

<when>2025-12-19T01:18:41.000Z</when>
<gx:coord>-113.98981033333332 28.4303055 34.9</gx:coord>

<when>2025-12-19T01:18:52.000Z</when>
<gx:coord>-113.98928233333332 28.42806666666667 34.4</gx:coord>

<when>2025-12-19T01:19:03.000Z</when>
<gx:coord>-113.98872283333334 28.425692000000005 32.8</gx:coord>

<when>2025-12-19T01:19:14.000Z</when>
<gx:coord>-113.98828299999998 28.42333233333333 33.1</gx:coord>

<when>2025-12-19T01:19:25.000Z</when>
<gx:coord>-113.98836083333332 28.420980166666663 33.5</gx:coord>

<when>2025-12-19T01:19:36.000Z</when>
<gx:coord>-113.98857433333333 28.41868566666667 31.9</gx:coord>

<when>2025-12-19T01:19:47.000Z</when>
<gx:coord>-113.98879649999999 28.416441499999998 31.0</gx:coord>

<when>2025-12-19T01:19:58.000Z</when>
<gx:coord>-113.98900766666665 28.414215833333333 29.8</gx:coord>

<when>2025-12-19T01:20:09.000Z</when>
<gx:coord>-113.98920466666665 28.412014999999997 29.4</gx:coord>

<when>2025-12-19T01:20:20.000Z</when>
<gx:coord>-113.98940900000001 28.409788499999998 29.9</gx:coord>

<when>2025-12-19T01:20:31.000Z</when>
<gx:coord>-113.98960783333332 28.4075485 29.6</gx:coord>

<when>2025-12-19T01:20:42.000Z</when>
<gx:coord>-113.99002899999999 28.405453833333333 29.4</gx:coord>

<when>2025-12-19T01:20:53.000Z</when>
<gx:coord>-113.99113416666665 28.403515500000005 28.6</gx:coord>

<when>2025-12-19T01:21:04.000Z</when>
<gx:coord>-113.9922575 28.401592833333332 27.3</gx:coord>

<when>2025-12-19T01:21:15.000Z</when>
<gx:coord>-113.99337133333331 28.399666000000003 26.7</gx:coord>

<when>2025-12-19T01:21:26.000Z</when>
<gx:coord>-113.99418050000001 28.397651333333336 27.0</gx:coord>

<when>2025-12-19T01:21:37.000Z</when>
<gx:coord>-113.99486683333335 28.395638333333334 24.1</gx:coord>

<when>2025-12-19T01:21:48.000Z</when>
<gx:coord>-113.99552133333333 28.393755166666665 23.2</gx:coord>

<when>2025-12-19T01:21:59.000Z</when>
<gx:coord>-113.99592966666665 28.39176416666667 22.7</gx:coord>

<when>2025-12-19T01:22:10.000Z</when>
<gx:coord>-113.99623150000001 28.389730666666665 22.5</gx:coord>

<when>2025-12-19T01:22:21.000Z</when>
<gx:coord>-113.99649333333333 28.38794983333333 22.0</gx:coord>

<when>2025-12-19T01:22:32.000Z</when>
<gx:coord>-113.99677083333333 28.386034166666665 22.2</gx:coord>

<when>2025-12-19T01:22:43.000Z</when>
<gx:coord>-113.99705083333335 28.3840885 22.2</gx:coord>

<when>2025-12-19T01:22:54.000Z</when>
<gx:coord>-113.99731333333332 28.382234 22.6</gx:coord>

<when>2025-12-19T01:23:05.000Z</when>
<gx:coord>-113.99760466666666 28.380049500000002 22.1</gx:coord>

<when>2025-12-19T01:23:16.000Z</when>
<gx:coord>-113.99794416666667 28.3777155 21.9</gx:coord>

<when>2025-12-19T01:23:27.000Z</when>
<gx:coord>-113.99827850000001 28.375341166666665 21.4</gx:coord>

<when>2025-12-19T01:23:38.000Z</when>
<gx:coord>-113.99862366666666 28.372936333333335 21.4</gx:coord>

<when>2025-12-19T01:23:49.000Z</when>
<gx:coord>-113.99895233333334 28.370682333333335 20.5</gx:coord>

<when>2025-12-19T01:24:00.000Z</when>
<gx:coord>-113.99909716666667 28.368473166666664 22.2</gx:coord>

<when>2025-12-19T01:24:11.000Z</when>
<gx:coord>-113.999114 28.366224333333335 22.6</gx:coord>

<when>2025-12-19T01:24:22.000Z</when>
<gx:coord>-113.999132 28.36400516666667 21.6</gx:coord>

<when>2025-12-19T01:24:33.000Z</when>
<gx:coord>-113.99914150000001 28.361777500000002 21.5</gx:coord>

<when>2025-12-19T01:24:44.000Z</when>
<gx:coord>-113.9991505 28.359498500000004 19.1</gx:coord>

<when>2025-12-19T01:24:55.000Z</when>
<gx:coord>-113.99916866666666 28.357274500000003 20.2</gx:coord>

<when>2025-12-19T01:25:06.000Z</when>
<gx:coord>-113.99918033333333 28.354990166666667 19.6</gx:coord>

<when>2025-12-19T01:25:17.000Z</when>
<gx:coord>-113.99918666666666 28.3527005 18.3</gx:coord>

<when>2025-12-19T01:25:28.000Z</when>
<gx:coord>-113.9991995 28.350421666666662 19.4</gx:coord>

<when>2025-12-19T01:25:39.000Z</when>
<gx:coord>-113.99921316666665 28.348141166666665 19.8</gx:coord>

<when>2025-12-19T01:25:50.000Z</when>
<gx:coord>-113.99922749999999 28.345863666666666 19.0</gx:coord>

<when>2025-12-19T01:26:01.000Z</when>
<gx:coord>-113.99923533333335 28.34351033333333 18.3</gx:coord>

<when>2025-12-19T01:26:12.000Z</when>
<gx:coord>-113.99924883333333 28.341143333333335 16.8</gx:coord>

<when>2025-12-19T01:26:23.000Z</when>
<gx:coord>-113.99926599999999 28.3387215 16.0</gx:coord>

<when>2025-12-19T01:26:34.000Z</when>
<gx:coord>-113.99928049999998 28.336301333333335 16.9</gx:coord>

<when>2025-12-19T01:26:45.000Z</when>
<gx:coord>-113.99929900000001 28.3339245 17.0</gx:coord>

<when>2025-12-19T01:26:56.000Z</when>
<gx:coord>-113.99931933333333 28.33156933333333 17.7</gx:coord>

<when>2025-12-19T01:27:07.000Z</when>
<gx:coord>-113.99933549999999 28.329178833333337 18.1</gx:coord>

<when>2025-12-19T01:27:18.000Z</when>
<gx:coord>-113.9993505 28.3267845 20.0</gx:coord>

<when>2025-12-19T01:27:29.000Z</when>
<gx:coord>-113.99936799999999 28.32435383333333 21.2</gx:coord>

<when>2025-12-19T01:27:40.000Z</when>
<gx:coord>-113.99938500000002 28.3221 25.7</gx:coord>

<when>2025-12-19T01:27:51.000Z</when>
<gx:coord>-113.99939783333333 28.319976166666667 25.1</gx:coord>

<when>2025-12-19T01:28:02.000Z</when>
<gx:coord>-113.99941199999999 28.31803016666667 25.3</gx:coord>

<when>2025-12-19T01:28:13.000Z</when>
<gx:coord>-113.99942216666668 28.316006666666667 25.5</gx:coord>

<when>2025-12-19T01:28:24.000Z</when>
<gx:coord>-113.99943966666666 28.313863666666666 30.8</gx:coord>

<when>2025-12-19T01:28:35.000Z</when>
<gx:coord>-113.99943916666668 28.31175783333333 30.4</gx:coord>

<when>2025-12-19T01:28:46.000Z</when>
<gx:coord>-113.99945033333333 28.309692499999997 30.1</gx:coord>

<when>2025-12-19T01:28:57.000Z</when>
<gx:coord>-113.99945866666667 28.30788466666667 29.6</gx:coord>

<when>2025-12-19T01:29:08.000Z</when>
<gx:coord>-113.99946766666666 28.30638066666667 26.9</gx:coord>

<when>2025-12-19T01:29:19.000Z</when>
<gx:coord>-113.9994265 28.305348166666665 25.0</gx:coord>

<when>2025-12-19T01:29:30.000Z</when>
<gx:coord>-113.99934716666667 28.304878999999996 23.1</gx:coord>

<when>2025-12-19T01:29:41.000Z</when>
<gx:coord>-113.9992635 28.30464116666667 21.8</gx:coord>

<when>2025-12-19T01:29:52.000Z</when>
<gx:coord>-113.99931766666666 28.304397499999997 20.3</gx:coord>

<when>2025-12-19T01:30:03.000Z</when>
<gx:coord>-113.99930366666668 28.304130499999996 19.9</gx:coord>

<when>2025-12-19T01:30:14.000Z</when>
<gx:coord>-113.99931083333334 28.30384033333333 19.5</gx:coord>

<when>2025-12-19T01:30:25.000Z</when>
<gx:coord>-113.99937816666667 28.303533833333336 18.2</gx:coord>

<when>2025-12-19T01:30:36.000Z</when>
<gx:coord>-113.99939100000002 28.303198166666668 18.2</gx:coord>

<when>2025-12-19T01:30:47.000Z</when>
<gx:coord>-113.99939350000001 28.302849166666668 18.3</gx:coord>

<when>2025-12-19T01:30:58.000Z</when>
<gx:coord>-113.99941383333335 28.30254166666667 17.0</gx:coord>

<when>2025-12-19T01:31:09.000Z</when>
<gx:coord>-113.99942766666666 28.302264833333332 17.1</gx:coord>

<when>2025-12-19T01:31:20.000Z</when>
<gx:coord>-113.99943516666666 28.301908833333332 18.5</gx:coord>

<when>2025-12-19T01:31:31.000Z</when>
<gx:coord>-113.99941633333334 28.30157733333333 17.7</gx:coord>

<when>2025-12-19T01:31:42.000Z</when>
<gx:coord>-113.99940233333334 28.301246833333334 18.8</gx:coord>

<when>2025-12-19T01:31:53.000Z</when>
<gx:coord>-113.99939466666667 28.300897166666665 20.3</gx:coord>

<when>2025-12-19T01:32:04.000Z</when>
<gx:coord>-113.99939199999999 28.300560833333332 20.6</gx:coord>

<when>2025-12-19T01:32:15.000Z</when>
<gx:coord>-113.99939850000001 28.300249833333336 21.2</gx:coord>

<when>2025-12-19T01:32:26.000Z</when>
<gx:coord>-113.99940333333333 28.29993683333333 20.9</gx:coord>

<when>2025-12-19T01:32:37.000Z</when>
<gx:coord>-113.999399 28.299591666666668 21.2</gx:coord>

<when>2025-12-19T01:32:48.000Z</when>
<gx:coord>-113.99940183333335 28.29923833333333 21.5</gx:coord>

<when>2025-12-19T01:32:59.000Z</when>
<gx:coord>-113.99940716666667 28.298870833333332 21.0</gx:coord>

<when>2025-12-19T01:33:10.000Z</when>
<gx:coord>-113.99941199999999 28.298489333333336 22.3</gx:coord>

<when>2025-12-19T01:33:21.000Z</when>
<gx:coord>-113.99940649999999 28.298111666666667 22.1</gx:coord>

<when>2025-12-19T01:33:32.000Z</when>
<gx:coord>-113.99941133333331 28.297725999999997 22.2</gx:coord>

<when>2025-12-19T01:33:43.000Z</when>
<gx:coord>-113.99940516666666 28.297363000000004 21.7</gx:coord>

<when>2025-12-19T01:33:54.000Z</when>
<gx:coord>-113.99939466666667 28.297061333333332 21.9</gx:coord>

<when>2025-12-19T01:34:05.000Z</when>
<gx:coord>-113.99941500000001 28.296817166666663 21.9</gx:coord>

<when>2025-12-19T01:34:16.000Z</when>
<gx:coord>-113.99942316666666 28.29660066666667 21.1</gx:coord>

<when>2025-12-19T01:34:27.000Z</when>
<gx:coord>-113.99942333333333 28.2963845 21.9</gx:coord>

<when>2025-12-19T01:34:38.000Z</when>
<gx:coord>-113.99942016666667 28.2961325 21.5</gx:coord>

<when>2025-12-19T01:34:49.000Z</when>
<gx:coord>-113.99942283333333 28.295863666666666 21.2</gx:coord>

<when>2025-12-19T01:35:00.000Z</when>
<gx:coord>-113.99941533333335 28.295567 19.6</gx:coord>

<when>2025-12-19T01:35:11.000Z</when>
<gx:coord>-113.99941983333335 28.29530366666667 19.3</gx:coord>

<when>2025-12-19T01:35:22.000Z</when>
<gx:coord>-113.99940866666665 28.2950515 19.2</gx:coord>

<when>2025-12-19T01:35:33.000Z</when>
<gx:coord>-113.99942000000001 28.294795333333333 19.7</gx:coord>

<when>2025-12-19T01:35:44.000Z</when>
<gx:coord>-113.99942566666665 28.294568833333333 20.4</gx:coord>

<when>2025-12-19T01:35:55.000Z</when>
<gx:coord>-113.99942483333334 28.294338333333332 20.2</gx:coord>

<when>2025-12-19T01:36:06.000Z</when>
<gx:coord>-113.99941216666666 28.29413983333333 19.4</gx:coord>

<when>2025-12-19T01:36:17.000Z</when>
<gx:coord>-113.99941050000001 28.293945833333336 20.2</gx:coord>

<when>2025-12-19T01:36:28.000Z</when>
<gx:coord>-113.99941199999999 28.29367366666667 20.1</gx:coord>

<when>2025-12-19T01:36:39.000Z</when>
<gx:coord>-113.999418 28.293232166666666 18.6</gx:coord>

<when>2025-12-19T01:36:50.000Z</when>
<gx:coord>-113.99944033333334 28.292512666666667 19.6</gx:coord>

<when>2025-12-19T01:37:01.000Z</when>
<gx:coord>-113.99943950000001 28.2918145 20.1</gx:coord>

<when>2025-12-19T01:37:12.000Z</when>
<gx:coord>-113.99943533333332 28.291171500000004 20.7</gx:coord>

<when>2025-12-19T01:37:23.000Z</when>
<gx:coord>-113.99945266666667 28.29047816666667 21.3</gx:coord>

<when>2025-12-19T01:37:34.000Z</when>
<gx:coord>-113.999448 28.289807000000003 21.9</gx:coord>

<when>2025-12-19T01:37:45.000Z</when>
<gx:coord>-113.99943766666665 28.289313333333332 23.0</gx:coord>

<when>2025-12-19T01:37:56.000Z</when>
<gx:coord>-113.9994645 28.28898333333333 23.1</gx:coord>

<when>2025-12-19T01:38:07.000Z</when>
<gx:coord>-113.9994935 28.28861566666667 23.8</gx:coord>

<when>2025-12-19T01:38:18.000Z</when>
<gx:coord>-113.99949233333334 28.2882545 26.4</gx:coord>

<when>2025-12-19T01:38:29.000Z</when>
<gx:coord>-113.99949733333332 28.287917833333335 27.8</gx:coord>

<when>2025-12-19T01:38:40.000Z</when>
<gx:coord>-113.99936716666667 28.287601166666665 29.0</gx:coord>

<when>2025-12-19T01:38:51.000Z</when>
<gx:coord>-113.99925516666666 28.287323333333333 27.9</gx:coord>

<when>2025-12-19T01:39:02.000Z</when>
<gx:coord>-113.99924666666666 28.287169333333335 27.4</gx:coord>

<when>2025-12-19T01:41:10.000Z</when>
<gx:coord>-113.99917883333335 28.287466000000002 28.1</gx:coord>

<when>2025-12-19T01:54:32.000Z</when>
<gx:coord>-113.99964550000001 28.281702499999998 31.1</gx:coord>

<when>2025-12-19T01:54:43.000Z</when>
<gx:coord>-113.99965133333332 28.280691333333333 32.6</gx:coord>

<when>2025-12-19T01:54:54.000Z</when>
<gx:coord>-113.99964983333332 28.279856666666667 34.2</gx:coord>

<when>2025-12-19T01:55:05.000Z</when>
<gx:coord>-113.99965116666665 28.27913566666667 35.5</gx:coord>

<when>2025-12-19T01:55:16.000Z</when>
<gx:coord>-113.99965383333334 28.278262 35.3</gx:coord>

<when>2025-12-19T01:55:27.000Z</when>
<gx:coord>-113.99966316666665 28.276988666666664 34.1</gx:coord>

<when>2025-12-19T01:55:38.000Z</when>
<gx:coord>-113.99967616666666 28.275518 33.2</gx:coord>

<when>2025-12-19T01:55:49.000Z</when>
<gx:coord>-113.99968916666667 28.273756333333335 33.1</gx:coord>

<when>2025-12-19T01:56:00.000Z</when>
<gx:coord>-113.99970316666668 28.27213 34.1</gx:coord>

<when>2025-12-19T01:56:11.000Z</when>
<gx:coord>-113.99971916666667 28.270479333333334 33.6</gx:coord>

<when>2025-12-19T01:56:22.000Z</when>
<gx:coord>-113.99973200000001 28.268813666666667 33.4</gx:coord>

<when>2025-12-19T01:56:33.000Z</when>
<gx:coord>-113.99974233333333 28.267037 33.8</gx:coord>

<when>2025-12-19T01:56:44.000Z</when>
<gx:coord>-113.99974583333332 28.265175999999997 33.6</gx:coord>

<when>2025-12-19T01:56:55.000Z</when>
<gx:coord>-113.99975366666668 28.263278833333334 35.3</gx:coord>

<when>2025-12-19T01:57:06.000Z</when>
<gx:coord>-113.99976566666668 28.261374833333335 37.4</gx:coord>

<when>2025-12-19T01:57:17.000Z</when>
<gx:coord>-113.99977783333334 28.259593000000002 40.2</gx:coord>

<when>2025-12-19T01:57:28.000Z</when>
<gx:coord>-113.99979216666667 28.257969166666665 40.7</gx:coord>

<when>2025-12-19T01:57:39.000Z</when>
<gx:coord>-113.99980550000001 28.256256 40.6</gx:coord>

<when>2025-12-19T01:57:50.000Z</when>
<gx:coord>-113.99981799999999 28.25448816666667 40.7</gx:coord>

<when>2025-12-19T01:58:01.000Z</when>
<gx:coord>-113.99982716666666 28.25261683333333 40.7</gx:coord>

<when>2025-12-19T01:58:12.000Z</when>
<gx:coord>-113.9998165 28.250629000000004 40.1</gx:coord>

<when>2025-12-19T01:58:23.000Z</when>
<gx:coord>-113.9998645 28.248377833333333 40.8</gx:coord>

<when>2025-12-19T01:58:34.000Z</when>
<gx:coord>-113.9998715 28.2461765 41.1</gx:coord>

<when>2025-12-19T01:58:45.000Z</when>
<gx:coord>-113.99988183333335 28.244013166666665 43.3</gx:coord>

<when>2025-12-19T01:58:56.000Z</when>
<gx:coord>-113.99990000000001 28.241862333333334 40.8</gx:coord>

<when>2025-12-19T01:59:07.000Z</when>
<gx:coord>-113.99990916666665 28.239681000000004 40.3</gx:coord>

<when>2025-12-19T01:59:18.000Z</when>
<gx:coord>-113.99991733333333 28.23749516666667 40.1</gx:coord>

<when>2025-12-19T01:59:29.000Z</when>
<gx:coord>-113.99992849999998 28.235293833333337 38.8</gx:coord>

<when>2025-12-19T01:59:40.000Z</when>
<gx:coord>-113.99993883333333 28.233090666666666 37.0</gx:coord>

<when>2025-12-19T01:59:51.000Z</when>
<gx:coord>-113.99995533333335 28.230895333333333 35.3</gx:coord>

<when>2025-12-19T02:00:02.000Z</when>
<gx:coord>-113.99996516666667 28.228701500000003 36.4</gx:coord>

<when>2025-12-19T02:00:13.000Z</when>
<gx:coord>-113.9999845 28.22652783333333 36.8</gx:coord>

<when>2025-12-19T02:00:24.000Z</when>
<gx:coord>-113.99999083333333 28.224299166666665 37.2</gx:coord>

<when>2025-12-19T02:00:35.000Z</when>
<gx:coord>-114.000005 28.22205333333333 35.2</gx:coord>

<when>2025-12-19T02:00:46.000Z</when>
<gx:coord>-114.00003516666666 28.219810833333334 35.0</gx:coord>

<when>2025-12-19T02:00:57.000Z</when>
<gx:coord>-114.00016266666668 28.21756583333333 35.3</gx:coord>

<when>2025-12-19T02:01:08.000Z</when>
<gx:coord>-114.00029966666668 28.215296333333338 35.4</gx:coord>

<when>2025-12-19T02:01:19.000Z</when>
<gx:coord>-114.00043483333333 28.213061999999997 34.2</gx:coord>

<when>2025-12-19T02:01:30.000Z</when>
<gx:coord>-114.00056583333331 28.210858833333337 32.2</gx:coord>

<when>2025-12-19T02:01:41.000Z</when>
<gx:coord>-114.00068850000001 28.20889366666667 34.8</gx:coord>

<when>2025-12-19T02:01:52.000Z</when>
<gx:coord>-114.00081783333331 28.206757 34.6</gx:coord>

<when>2025-12-19T02:02:03.000Z</when>
<gx:coord>-114.0009515 28.204592499999997 34.7</gx:coord>

<when>2025-12-19T02:02:14.000Z</when>
<gx:coord>-114.00107933333332 28.202422666666667 35.0</gx:coord>

<when>2025-12-19T02:02:25.000Z</when>
<gx:coord>-114.00121966666666 28.2001785 32.6</gx:coord>

<when>2025-12-19T02:02:36.000Z</when>
<gx:coord>-114.00135550000002 28.197935999999995 31.7</gx:coord>

<when>2025-12-19T02:02:47.000Z</when>
<gx:coord>-114.00149566666666 28.195622166666666 31.4</gx:coord>

<when>2025-12-19T02:02:58.000Z</when>
<gx:coord>-114.00163866666665 28.193206666666665 29.2</gx:coord>

<when>2025-12-19T02:03:09.000Z</when>
<gx:coord>-114.00178749999999 28.19084083333333 28.4</gx:coord>

<when>2025-12-19T02:03:20.000Z</when>
<gx:coord>-114.00193300000001 28.1884255 28.4</gx:coord>

<when>2025-12-19T02:03:31.000Z</when>
<gx:coord>-114.00207416666666 28.186015833333332 26.8</gx:coord>

<when>2025-12-19T02:03:42.000Z</when>
<gx:coord>-114.0022145 28.183731166666668 29.1</gx:coord>

<when>2025-12-19T02:03:53.000Z</when>
<gx:coord>-114.002358 28.18145116666667 28.0</gx:coord>

<when>2025-12-19T02:04:04.000Z</when>
<gx:coord>-114.0024985 28.17915816666667 29.1</gx:coord>

<when>2025-12-19T02:04:15.000Z</when>
<gx:coord>-114.00263716666664 28.176962166666666 28.8</gx:coord>

<when>2025-12-19T02:04:26.000Z</when>
<gx:coord>-114.00276433333332 28.17468516666667 29.3</gx:coord>

<when>2025-12-19T02:04:37.000Z</when>
<gx:coord>-114.00291183333333 28.172352999999998 29.8</gx:coord>

<when>2025-12-19T02:04:48.000Z</when>
<gx:coord>-114.00304866666666 28.170023833333335 27.4</gx:coord>

<when>2025-12-19T02:04:59.000Z</when>
<gx:coord>-114.00319116666667 28.1677095 26.1</gx:coord>

<when>2025-12-19T02:05:10.000Z</when>
<gx:coord>-114.00333266666667 28.16538366666667 24.1</gx:coord>

<when>2025-12-19T02:05:21.000Z</when>
<gx:coord>-114.003478 28.163056833333332 27.7</gx:coord>

<when>2025-12-19T02:05:32.000Z</when>
<gx:coord>-114.00361633333333 28.160782333333334 29.0</gx:coord>

<when>2025-12-19T02:05:43.000Z</when>
<gx:coord>-114.00375933333335 28.158423000000003 30.0</gx:coord>

<when>2025-12-19T02:05:54.000Z</when>
<gx:coord>-114.00390399999999 28.1560105 30.6</gx:coord>

<when>2025-12-19T02:06:05.000Z</when>
<gx:coord>-114.00405700000002 28.153536833333337 30.5</gx:coord>

<when>2025-12-19T02:06:16.000Z</when>
<gx:coord>-114.00420749999999 28.151060999999995 30.1</gx:coord>

<when>2025-12-19T02:06:27.000Z</when>
<gx:coord>-114.00435999999999 28.148568833333336 28.9</gx:coord>

<when>2025-12-19T02:06:38.000Z</when>
<gx:coord>-114.00451766666666 28.146085500000005 28.1</gx:coord>

<when>2025-12-19T02:06:49.000Z</when>
<gx:coord>-114.00466300000001 28.1436775 26.9</gx:coord>

<when>2025-12-19T02:07:00.000Z</when>
<gx:coord>-114.00481083333334 28.141348666666666 26.2</gx:coord>

<when>2025-12-19T02:07:11.000Z</when>
<gx:coord>-114.00495933333335 28.13891266666667 25.9</gx:coord>

<when>2025-12-19T02:07:22.000Z</when>
<gx:coord>-114.00509816666666 28.136386666666667 22.8</gx:coord>

<when>2025-12-19T02:07:33.000Z</when>
<gx:coord>-114.00525616666667 28.133919833333334 19.0</gx:coord>

<when>2025-12-19T02:07:44.000Z</when>
<gx:coord>-114.00540066666666 28.1315015 18.3</gx:coord>

<when>2025-12-19T02:07:55.000Z</when>
<gx:coord>-114.00555250000001 28.129121666666666 17.9</gx:coord>

<when>2025-12-19T02:08:06.000Z</when>
<gx:coord>-114.00568416666668 28.126938000000003 20.2</gx:coord>

<when>2025-12-19T02:08:17.000Z</when>
<gx:coord>-114.00581166666667 28.124830499999998 20.8</gx:coord>

<when>2025-12-19T02:08:28.000Z</when>
<gx:coord>-114.00593533333334 28.122775666666666 20.1</gx:coord>

<when>2025-12-19T02:08:39.000Z</when>
<gx:coord>-114.00604816666667 28.120662 20.2</gx:coord>

<when>2025-12-19T02:08:50.000Z</when>
<gx:coord>-114.00616149999999 28.11854 20.0</gx:coord>

<when>2025-12-19T02:09:01.000Z</when>
<gx:coord>-114.00626766666667 28.116384500000002 18.8</gx:coord>

<when>2025-12-19T02:09:12.000Z</when>
<gx:coord>-114.00637783333335 28.1142305 18.2</gx:coord>

<when>2025-12-19T02:09:23.000Z</when>
<gx:coord>-114.00649200000001 28.112053999999997 18.5</gx:coord>

<when>2025-12-19T02:09:34.000Z</when>
<gx:coord>-114.00660316666666 28.109879999999997 18.2</gx:coord>

<when>2025-12-19T02:09:45.000Z</when>
<gx:coord>-114.00672266666668 28.107672166666664 16.1</gx:coord>

<when>2025-12-19T02:09:56.000Z</when>
<gx:coord>-114.00683566666666 28.10552116666667 15.5</gx:coord>

<when>2025-12-19T02:10:07.000Z</when>
<gx:coord>-114.00692533333334 28.103794 16.1</gx:coord>

<when>2025-12-19T02:10:18.000Z</when>
<gx:coord>-114.0070085 28.102185166666665 13.4</gx:coord>

<when>2025-12-19T02:10:29.000Z</when>
<gx:coord>-114.00710216666667 28.100312999999996 11.4</gx:coord>

<when>2025-12-19T02:10:40.000Z</when>
<gx:coord>-114.00719216666667 28.09858733333333 15.8</gx:coord>

<when>2025-12-19T02:10:51.000Z</when>
<gx:coord>-114.00728616666666 28.096724000000002 17.7</gx:coord>

<when>2025-12-19T02:11:02.000Z</when>
<gx:coord>-114.0073865 28.094859333333336 17.9</gx:coord>

<when>2025-12-19T02:11:13.000Z</when>
<gx:coord>-114.00748899999999 28.092863333333337 17.9</gx:coord>

<when>2025-12-19T02:11:24.000Z</when>
<gx:coord>-114.00759416666666 28.09087566666667 18.0</gx:coord>

<when>2025-12-19T02:11:35.000Z</when>
<gx:coord>-114.00769133333333 28.08908033333333 18.2</gx:coord>

<when>2025-12-19T02:11:46.000Z</when>
<gx:coord>-114.00776499999999 28.087806666666665 17.8</gx:coord>

<when>2025-12-19T02:11:57.000Z</when>
<gx:coord>-114.00792333333332 28.087790333333334 18.4</gx:coord>

<when>2025-12-19T02:12:08.000Z</when>
<gx:coord>-114.00802333333334 28.087892000000004 18.9</gx:coord>

<when>2025-12-19T02:12:19.000Z</when>
<gx:coord>-114.00806766666668 28.088024833333332 18.3</gx:coord>

<when>2025-12-19T02:12:30.000Z</when>
<gx:coord>-114.00810866666667 28.088196833333335 17.7</gx:coord>

<when>2025-12-19T02:12:41.000Z</when>
<gx:coord>-114.00813233333335 28.088260666666663 18.3</gx:coord>

<when>2025-12-19T02:13:47.000Z</when>
<gx:coord>-114.00814749999999 28.088324333333336 18.9</gx:coord>

<when>2025-12-19T02:13:58.000Z</when>
<gx:coord>-114.00820133333333 28.088484 18.4</gx:coord>

<when>2025-12-19T02:14:09.000Z</when>
<gx:coord>-114.00830716666665 28.088677333333333 18.4</gx:coord>

<when>2025-12-19T02:14:20.000Z</when>
<gx:coord>-114.00840616666667 28.0890025 18.1</gx:coord>

<when>2025-12-19T02:14:31.000Z</when>
<gx:coord>-114.00853833333333 28.089398 18.8</gx:coord>

<when>2025-12-19T02:14:42.000Z</when>
<gx:coord>-114.00878733333333 28.089767166666668 18.6</gx:coord>

<when>2025-12-19T02:14:53.000Z</when>
<gx:coord>-114.00901916666665 28.09013333333333 18.9</gx:coord>

<when>2025-12-19T02:15:04.000Z</when>
<gx:coord>-114.0091605 28.09044516666667 19.1</gx:coord>

<when>2025-12-19T02:15:15.000Z</when>
<gx:coord>-114.00935066666668 28.090782166666667 19.2</gx:coord>

<when>2025-12-19T02:15:26.000Z</when>
<gx:coord>-114.00954233333331 28.091123833333334 18.8</gx:coord>

<when>2025-12-19T02:15:37.000Z</when>
<gx:coord>-114.00969933333333 28.091462333333332 18.6</gx:coord>

<when>2025-12-19T02:15:48.000Z</when>
<gx:coord>-114.00986816666666 28.091784 18.1</gx:coord>

<when>2025-12-19T02:15:59.000Z</when>
<gx:coord>-114.00999133333335 28.09201816666667 18.0</gx:coord>

<when>2025-12-19T02:16:10.000Z</when>
<gx:coord>-114.01011066666666 28.092275333333337 17.1</gx:coord>

<when>2025-12-19T02:16:21.000Z</when>
<gx:coord>-114.01028283333332 28.092545499999996 15.8</gx:coord>

<when>2025-12-19T02:16:32.000Z</when>
<gx:coord>-114.01049216666667 28.0927905 16.4</gx:coord>

<when>2025-12-19T02:16:43.000Z</when>
<gx:coord>-114.01066366666667 28.0930605 16.8</gx:coord>

<when>2025-12-19T02:16:54.000Z</when>
<gx:coord>-114.01078866666667 28.093329166666663 17.8</gx:coord>

<when>2025-12-19T02:17:05.000Z</when>
<gx:coord>-114.01090649999999 28.0936185 17.8</gx:coord>

<when>2025-12-19T02:17:16.000Z</when>
<gx:coord>-114.01097399999999 28.093910833333332 17.1</gx:coord>

<when>2025-12-19T02:17:27.000Z</when>
<gx:coord>-114.0110675 28.094217333333336 16.9</gx:coord>

<when>2025-12-19T02:17:38.000Z</when>
<gx:coord>-114.011173 28.094520499999998 16.2</gx:coord>

<when>2025-12-19T02:17:49.000Z</when>
<gx:coord>-114.01133033333332 28.0947955 15.7</gx:coord>

<when>2025-12-19T02:18:00.000Z</when>
<gx:coord>-114.01139633333332 28.094864999999995 16.5</gx:coord>

<when>2025-12-19T02:18:55.000Z</when>
<gx:coord>-114.01142016666667 28.094905 16.8</gx:coord>

<when>2025-12-19T02:19:06.000Z</when>
<gx:coord>-114.01151066666668 28.0950335 17.8</gx:coord>

<when>2025-12-19T02:19:17.000Z</when>
<gx:coord>-114.01160916666667 28.095179833333336 18.9</gx:coord>

<when>2025-12-19T02:19:28.000Z</when>
<gx:coord>-114.01171816666668 28.095334666666666 18.6</gx:coord>

<when>2025-12-19T02:19:39.000Z</when>
<gx:coord>-114.01183483333334 28.095462166666668 18.6</gx:coord>

<when>2025-12-19T02:19:50.000Z</when>
<gx:coord>-114.01198516666666 28.0956165 18.9</gx:coord>

<when>2025-12-19T02:20:01.000Z</when>
<gx:coord>-114.012135 28.095805499999997 19.2</gx:coord>

<when>2025-12-19T02:20:12.000Z</when>
<gx:coord>-114.01227133333332 28.096064333333334 18.7</gx:coord>

<when>2025-12-19T02:20:23.000Z</when>
<gx:coord>-114.01247066666669 28.096343499999996 18.1</gx:coord>

<when>2025-12-19T02:20:34.000Z</when>
<gx:coord>-114.012734 28.096595 17.7</gx:coord>

<when>2025-12-19T02:20:45.000Z</when>
<gx:coord>-114.0130005 28.096851333333333 17.8</gx:coord>

<when>2025-12-19T02:20:56.000Z</when>
<gx:coord>-114.01325683333334 28.09708933333333 17.5</gx:coord>

<when>2025-12-19T02:21:07.000Z</when>
<gx:coord>-114.01355866666667 28.097345833333332 17.3</gx:coord>

<when>2025-12-19T02:21:18.000Z</when>
<gx:coord>-114.013863 28.097597166666667 17.4</gx:coord>

<when>2025-12-19T02:21:29.000Z</when>
<gx:coord>-114.01416733333332 28.0978525 17.3</gx:coord>

<when>2025-12-19T02:21:40.000Z</when>
<gx:coord>-114.01447633333333 28.098120833333336 16.4</gx:coord>

<when>2025-12-19T02:21:51.000Z</when>
<gx:coord>-114.01477316666666 28.098375333333333 16.4</gx:coord>

<when>2025-12-19T02:22:02.000Z</when>
<gx:coord>-114.01504066666666 28.098616 16.0</gx:coord>

<when>2025-12-19T02:22:13.000Z</when>
<gx:coord>-114.01530149999999 28.098853333333334 15.7</gx:coord>

<when>2025-12-19T02:22:24.000Z</when>
<gx:coord>-114.015555 28.0990655 15.4</gx:coord>

<when>2025-12-19T02:22:35.000Z</when>
<gx:coord>-114.01585316666666 28.09929683333333 15.3</gx:coord>

<when>2025-12-19T02:22:46.000Z</when>
<gx:coord>-114.01615166666667 28.099524499999998 14.5</gx:coord>

<when>2025-12-19T02:22:57.000Z</when>
<gx:coord>-114.01650483333333 28.099754 13.9</gx:coord>

<when>2025-12-19T02:23:08.000Z</when>
<gx:coord>-114.01680499999999 28.09995483333333 12.5</gx:coord>

<when>2025-12-19T02:23:19.000Z</when>
<gx:coord>-114.01714116666666 28.100174666666664 12.8</gx:coord>

<when>2025-12-19T02:23:30.000Z</when>
<gx:coord>-114.01746816666667 28.1003675 12.6</gx:coord>

<when>2025-12-19T02:23:41.000Z</when>
<gx:coord>-114.01771916666667 28.10055983333333 11.2</gx:coord>

<when>2025-12-19T02:23:52.000Z</when>
<gx:coord>-114.01800833333333 28.1007845 11.5</gx:coord>

<when>2025-12-19T02:24:03.000Z</when>
<gx:coord>-114.01826600000001 28.100927166666665 11.4</gx:coord>

<when>2025-12-19T02:24:14.000Z</when>
<gx:coord>-114.018409 28.101047499999996 11.0</gx:coord>

<when>2025-12-19T02:26:48.000Z</when>
<gx:coord>-114.0184925 28.101107333333335 7.7</gx:coord>

<when>2025-12-19T02:26:59.000Z</when>
<gx:coord>-114.01858750000001 28.101156999999997 7.7</gx:coord>

<when>2025-12-19T02:27:10.000Z</when>
<gx:coord>-114.018702 28.101243999999998 9.1</gx:coord>

<when>2025-12-19T02:27:21.000Z</when>
<gx:coord>-114.01878233333333 28.101329000000003 11.2</gx:coord>

<when>2025-12-19T02:27:32.000Z</when>
<gx:coord>-114.01886799999998 28.10140483333333 11.6</gx:coord>

<when>2025-12-19T02:27:43.000Z</when>
<gx:coord>-114.018984 28.101497499999997 11.5</gx:coord>

<when>2025-12-19T02:27:54.000Z</when>
<gx:coord>-114.01910616666667 28.10159383333333 12.3</gx:coord>

<when>2025-12-19T02:28:05.000Z</when>
<gx:coord>-114.01920116666666 28.10168266666667 10.5</gx:coord>

<when>2025-12-19T02:28:16.000Z</when>
<gx:coord>-114.019373 28.101803166666667 9.1</gx:coord>

<when>2025-12-19T02:28:27.000Z</when>
<gx:coord>-114.01965366666667 28.101920166666666 8.9</gx:coord>

<when>2025-12-19T02:28:38.000Z</when>
<gx:coord>-114.01989800000001 28.102050500000004 8.8</gx:coord>

<when>2025-12-19T02:28:49.000Z</when>
<gx:coord>-114.01999983333332 28.102171833333333 7.1</gx:coord>

<when>2025-12-19T02:29:00.000Z</when>
<gx:coord>-114.020087 28.1022645 6.6</gx:coord>

<when>2025-12-19T02:31:45.000Z</when>
<gx:coord>-114.02020766666668 28.102255833333334 2.8</gx:coord>

<when>2025-12-19T02:32:40.000Z</when>
<gx:coord>-114.02017150000002 28.1021665 7.7</gx:coord>

<when>2025-12-19T02:32:51.000Z</when>
<gx:coord>-114.02018883333334 28.10206783333333 6.9</gx:coord>

<when>2025-12-19T02:33:02.000Z</when>
<gx:coord>-114.02024266666668 28.101867333333335 5.0</gx:coord>

<when>2025-12-19T02:33:13.000Z</when>
<gx:coord>-114.02029533333334 28.101656000000002 4.7</gx:coord>

<when>2025-12-19T02:33:24.000Z</when>
<gx:coord>-114.02034649999999 28.10139766666667 4.0</gx:coord>

<when>2025-12-19T02:33:35.000Z</when>
<gx:coord>-114.02040233333334 28.101102833333336 4.0</gx:coord>

<when>2025-12-19T02:33:46.000Z</when>
<gx:coord>-114.02045833333335 28.100798499999996 4.1</gx:coord>

<when>2025-12-19T02:33:57.000Z</when>
<gx:coord>-114.02052 28.1004795 4.1</gx:coord>

<when>2025-12-19T02:34:08.000Z</when>
<gx:coord>-114.02057549999999 28.100174999999997 3.5</gx:coord>

<when>2025-12-19T02:34:19.000Z</when>
<gx:coord>-114.02061966666666 28.09989483333333 3.2</gx:coord>

<when>2025-12-19T02:34:30.000Z</when>
<gx:coord>-114.02066833333335 28.09962983333333 3.7</gx:coord>

<when>2025-12-19T02:34:41.000Z</when>
<gx:coord>-114.02073999999999 28.099360499999996 3.8</gx:coord>

<when>2025-12-19T02:34:52.000Z</when>
<gx:coord>-114.02080133333332 28.09900283333333 3.1</gx:coord>

<when>2025-12-19T02:35:03.000Z</when>
<gx:coord>-114.02085100000001 28.098647833333334 2.8</gx:coord>

<when>2025-12-19T02:35:14.000Z</when>
<gx:coord>-114.02090466666665 28.098298500000002 3.4</gx:coord>

<when>2025-12-19T02:35:25.000Z</when>
<gx:coord>-114.02096133333335 28.097958666666667 4.4</gx:coord>

<when>2025-12-19T02:35:36.000Z</when>
<gx:coord>-114.02100233333334 28.097622 4.8</gx:coord>

<when>2025-12-19T02:35:47.000Z</when>
<gx:coord>-114.02102966666668 28.09730383333333 5.1</gx:coord>

<when>2025-12-19T02:35:58.000Z</when>
<gx:coord>-114.02108000000001 28.09697866666667 5.1</gx:coord>

<when>2025-12-19T02:36:09.000Z</when>
<gx:coord>-114.02112000000001 28.096648833333333 6.0</gx:coord>

<when>2025-12-19T02:36:20.000Z</when>
<gx:coord>-114.02117133333334 28.09634583333333 6.5</gx:coord>

<when>2025-12-19T02:36:31.000Z</when>
<gx:coord>-114.02122116666666 28.096034500000005 7.2</gx:coord>

<when>2025-12-19T02:36:42.000Z</when>
<gx:coord>-114.02123883333334 28.095714833333332 8.1</gx:coord>

<when>2025-12-19T02:36:53.000Z</when>
<gx:coord>-114.02123233333332 28.0953995 8.4</gx:coord>

<when>2025-12-19T02:37:04.000Z</when>
<gx:coord>-114.02120283333333 28.095099833333332 9.6</gx:coord>

<when>2025-12-19T02:37:15.000Z</when>
<gx:coord>-114.02107516666668 28.094848499999998 12.2</gx:coord>

<when>2025-12-19T02:37:26.000Z</when>
<gx:coord>-114.02086650000001 28.094650833333336 13.6</gx:coord>

<when>2025-12-19T02:37:37.000Z</when>
<gx:coord>-114.02078533333334 28.094419500000004 14.1</gx:coord>

<when>2025-12-19T02:37:48.000Z</when>
<gx:coord>-114.02092783333335 28.094198833333333 12.4</gx:coord>

<when>2025-12-19T02:37:59.000Z</when>
<gx:coord>-114.02107116666666 28.09400633333333 12.1</gx:coord>

<when>2025-12-19T02:38:10.000Z</when>
<gx:coord>-114.02122616666665 28.093735999999996 12.1</gx:coord>

<when>2025-12-19T02:38:21.000Z</when>
<gx:coord>-114.02127733333333 28.093431333333335 12.5</gx:coord>

<when>2025-12-19T02:38:32.000Z</when>
<gx:coord>-114.02121216666667 28.093140666666667 11.8</gx:coord>

<when>2025-12-19T02:38:43.000Z</when>
<gx:coord>-114.02108683333333 28.092867333333334 13.6</gx:coord>

<when>2025-12-19T02:38:54.000Z</when>
<gx:coord>-114.02097 28.092601666666663 14.1</gx:coord>

<when>2025-12-19T02:39:05.000Z</when>
<gx:coord>-114.02086466666667 28.092312833333335 14.5</gx:coord>

<when>2025-12-19T02:39:16.000Z</when>
<gx:coord>-114.02077266666666 28.092026166666663 14.5</gx:coord>

<when>2025-12-19T02:39:27.000Z</when>
<gx:coord>-114.02067549999998 28.0917485 13.2</gx:coord>

<when>2025-12-19T02:39:38.000Z</when>
<gx:coord>-114.020723 28.0916235 12.8</gx:coord>

<when>2025-12-19T02:39:49.000Z</when>
<gx:coord>-114.02078633333333 28.091602833333333 11.4</gx:coord>

<when>2025-12-19T02:40:00.000Z</when>
<gx:coord>-114.02091783333331 28.091607999999997 8.8</gx:coord>

<when>2025-12-19T02:40:11.000Z</when>
<gx:coord>-114.02104133333333 28.091618833333335 5.3</gx:coord>

<when>2025-12-19T02:40:22.000Z</when>
<gx:coord>-114.02119583333334 28.0916795 4.2</gx:coord>

<when>2025-12-19T02:40:33.000Z</when>
<gx:coord>-114.02134483333333 28.091784333333333 5.7</gx:coord>

<when>2025-12-19T02:40:44.000Z</when>
<gx:coord>-114.021497 28.091896833333333 6.2</gx:coord>

<when>2025-12-19T02:40:55.000Z</when>
<gx:coord>-114.02165733333335 28.091998166666666 6.8</gx:coord>

<when>2025-12-19T02:41:06.000Z</when>
<gx:coord>-114.02185466666667 28.092119000000004 6.5</gx:coord>

<when>2025-12-19T02:41:17.000Z</when>
<gx:coord>-114.0220555 28.092268833333332 6.1</gx:coord>

<when>2025-12-19T02:41:28.000Z</when>
<gx:coord>-114.02226083333335 28.092366000000002 5.6</gx:coord>

<when>2025-12-19T02:41:39.000Z</when>
<gx:coord>-114.02237650000001 28.0923585 5.4</gx:coord>

<when>2025-12-19T02:44:35.000Z</when>
<gx:coord>-114.02244983333334 28.09235683333333 5.6</gx:coord>

<when>2025-12-19T02:44:46.000Z</when>
<gx:coord>-114.02252983333334 28.092314499999997 3.3</gx:coord>

<when>2025-12-19T02:45:30.000Z</when>
<gx:coord>-114.02251766666669 28.092398333333335 4.3</gx:coord>

<when>2025-12-19T02:45:41.000Z</when>
<gx:coord>-114.02252383333334 28.092477833333337 3.5</gx:coord>

<when>2025-12-19T02:45:52.000Z</when>
<gx:coord>-114.0224995 28.092531666666666 3.8</gx:coord>

<when>2025-12-19T02:46:25.000Z</when>
<gx:coord>-114.02248800000001 28.09257566666667 5.1</gx:coord>

<when>2025-12-19T02:49:21.000Z</when>
<gx:coord>-114.02250899999999 28.092531166666664 2.9</gx:coord>

<when>2025-12-19T02:49:54.000Z</when>
<gx:coord>-114.02247316666666 28.092576 0.8</gx:coord>

<when>2025-12-19T02:51:11.000Z</when>
<gx:coord>-114.02254166666668 28.092515166666665 2.6</gx:coord>

<when>2025-12-19T02:51:33.000Z</when>
<gx:coord>-114.02249483333331 28.092546666666667 1.7</gx:coord>

<when>2025-12-19T02:53:34.000Z</when>
<gx:coord>-114.02254033333332 28.0924755 4.1</gx:coord>

<when>2025-12-19T02:53:45.000Z</when>
<gx:coord>-114.02250616666667 28.09242733333333 3.5</gx:coord>

<when>2025-12-19T02:53:56.000Z</when>
<gx:coord>-114.02246333333332 28.092399999999998 3.7</gx:coord>

<when>2025-12-19T02:54:18.000Z</when>
<gx:coord>-114.02253649999999 28.092470000000002 5.6</gx:coord>

<when>2025-12-19T02:54:40.000Z</when>
<gx:coord>-114.0225735 28.092507166666664 7.4</gx:coord>
</gx:Track>
</Placemark></Document></kml>
