<?xml version="1.0" encoding="UTF-8"?><kml xmlns="http://www.opengis.net/kml/2.2" xmlns:gx="http://www.google.com/kml/ext/2.2" xmlns:kml="http://www.opengis.net/kml/2.2" xmlns:atom="http://www.w3.org/2005/Atom"><Document><name>2025-12-28T22:05:03.000Z</name>
<Placemark>
<gx:Track>

<when>2025-12-28T22:05:03.000Z</when>
<gx:coord>-109.98908983333334 24.0539515 9.1</gx:coord>

<when>2025-12-28T22:05:24.000Z</when>
<gx:coord>-109.98906316666668 24.054027333333337 13.6</gx:coord>

<when>2025-12-28T22:07:14.000Z</when>
<gx:coord>-109.98910599999999 24.054001666666668 16.2</gx:coord>

<when>2025-12-28T22:10:54.000Z</when>
<gx:coord>-109.98915116666667 24.054028499999998 14.2</gx:coord>

<when>2025-12-28T22:13:17.000Z</when>
<gx:coord>-109.98919749999999 24.054051833333332 20.9</gx:coord>

<when>2025-12-28T22:14:34.000Z</when>
<gx:coord>-109.98915283333332 24.054027833333333 14.9</gx:coord>

<when>2025-12-28T23:32:32.000Z</when>
<gx:coord>-109.98910666666667 24.053984833333335 30.6</gx:coord>

<when>2025-12-28T23:36:01.000Z</when>
<gx:coord>-109.98914883333333 24.054016166666663 28.7</gx:coord>

<when>2025-12-28T23:37:29.000Z</when>
<gx:coord>-109.98919716666666 24.054037333333333 30.1</gx:coord>

<when>2025-12-28T23:40:36.000Z</when>
<gx:coord>-109.98916666666668 24.053993999999996 31.4</gx:coord>

<when>2025-12-28T23:42:15.000Z</when>
<gx:coord>-109.98911933333332 24.053980166666665 21.5</gx:coord>

<when>2025-12-28T23:44:27.000Z</when>
<gx:coord>-109.98917250000001 24.053989333333334 12.3</gx:coord>

<when>2025-12-28T23:47:34.000Z</when>
<gx:coord>-109.98911266666667 24.053993166666668 8.3</gx:coord>

<when>2025-12-28T23:50:19.000Z</when>
<gx:coord>-109.98917099999998 24.053992 13.4</gx:coord>

<when>2025-12-28T23:51:36.000Z</when>
<gx:coord>-109.98912116666666 24.053983666666667 10.9</gx:coord>

<when>2025-12-28T23:54:54.000Z</when>
<gx:coord>-109.989178 24.05398566666667 8.8</gx:coord>

<when>2025-12-28T23:56:55.000Z</when>
<gx:coord>-109.98915933333335 24.053941666666667 22.1</gx:coord>
</gx:Track>
</Placemark></Document></kml>
