<?xml version="1.0" encoding="UTF-8"?><kml xmlns="http://www.opengis.net/kml/2.2" xmlns:gx="http://www.google.com/kml/ext/2.2" xmlns:kml="http://www.opengis.net/kml/2.2" xmlns:atom="http://www.w3.org/2005/Atom"><Document><name>2025-12-21T16:44:03.000Z</name>
<Placemark>
<gx:Track>

<when>2025-12-21T16:44:03.000Z</when>
<gx:coord>-110.95402833333334 24.179218 171.6</gx:coord>

<when>2025-12-21T16:44:13.000Z</when>
<gx:coord>-110.95408100000002 24.179224999999995 169.8</gx:coord>

<when>2025-12-21T16:45:55.000Z</when>
<gx:coord>-110.95403200000001 24.179217 173.2</gx:coord>

<when>2025-12-21T17:02:42.000Z</when>
<gx:coord>-110.95393533333332 24.1792185 167.9</gx:coord>

<when>2025-12-21T17:02:54.000Z</when>
<gx:coord>-110.9537685 24.179278999999998 170.7</gx:coord>

<when>2025-12-21T17:03:05.000Z</when>
<gx:coord>-110.95355416666668 24.179413500000003 168.0</gx:coord>

<when>2025-12-21T17:03:16.000Z</when>
<gx:coord>-110.95329283333334 24.179454166666666 167.0</gx:coord>

<when>2025-12-21T17:03:27.000Z</when>
<gx:coord>-110.95304616666665 24.17942833333333 167.6</gx:coord>

<when>2025-12-21T17:03:38.000Z</when>
<gx:coord>-110.95283716666667 24.179347333333332 166.9</gx:coord>

<when>2025-12-21T17:03:49.000Z</when>
<gx:coord>-110.9525865 24.179394499999997 167.5</gx:coord>

<when>2025-12-21T17:04:00.000Z</when>
<gx:coord>-110.95235083333334 24.179507833333332 169.2</gx:coord>

<when>2025-12-21T17:04:11.000Z</when>
<gx:coord>-110.9521395 24.17963516666667 170.4</gx:coord>

<when>2025-12-21T17:04:22.000Z</when>
<gx:coord>-110.95191449999999 24.1797145 168.3</gx:coord>

<when>2025-12-21T17:04:33.000Z</when>
<gx:coord>-110.95167349999998 24.179704500000003 168.2</gx:coord>

<when>2025-12-21T17:04:44.000Z</when>
<gx:coord>-110.95142583333333 24.179665666666665 168.3</gx:coord>

<when>2025-12-21T17:04:55.000Z</when>
<gx:coord>-110.95114833333334 24.179604333333334 169.5</gx:coord>

<when>2025-12-21T17:05:06.000Z</when>
<gx:coord>-110.95086549999999 24.17952833333333 171.1</gx:coord>

<when>2025-12-21T17:05:17.000Z</when>
<gx:coord>-110.95051200000002 24.17958983333333 172.6</gx:coord>

<when>2025-12-21T17:05:28.000Z</when>
<gx:coord>-110.95025366666665 24.179790166666667 169.7</gx:coord>

<when>2025-12-21T17:05:39.000Z</when>
<gx:coord>-110.950001 24.179977833333336 169.6</gx:coord>

<when>2025-12-21T17:05:50.000Z</when>
<gx:coord>-110.94975233333335 24.180142666666665 167.7</gx:coord>

<when>2025-12-21T17:06:01.000Z</when>
<gx:coord>-110.94936983333334 24.180190999999997 168.6</gx:coord>

<when>2025-12-21T17:06:12.000Z</when>
<gx:coord>-110.94895733333333 24.180144000000002 171.4</gx:coord>

<when>2025-12-21T17:06:23.000Z</when>
<gx:coord>-110.94855366666667 24.180223333333334 172.4</gx:coord>

<when>2025-12-21T17:06:34.000Z</when>
<gx:coord>-110.94830533333334 24.180505499999995 171.7</gx:coord>

<when>2025-12-21T17:06:45.000Z</when>
<gx:coord>-110.94816583333335 24.180883499999997 170.0</gx:coord>

<when>2025-12-21T17:06:56.000Z</when>
<gx:coord>-110.94801350000002 24.181177666666667 167.3</gx:coord>

<when>2025-12-21T17:07:07.000Z</when>
<gx:coord>-110.94799966666666 24.181517833333334 164.3</gx:coord>

<when>2025-12-21T17:07:18.000Z</when>
<gx:coord>-110.9479105 24.181894166666666 162.8</gx:coord>

<when>2025-12-21T17:07:29.000Z</when>
<gx:coord>-110.94776883333334 24.182307666666663 169.2</gx:coord>

<when>2025-12-21T17:07:40.000Z</when>
<gx:coord>-110.94758083333333 24.18274816666667 173.1</gx:coord>

<when>2025-12-21T17:07:51.000Z</when>
<gx:coord>-110.94749883333334 24.183202833333333 175.5</gx:coord>

<when>2025-12-21T17:08:02.000Z</when>
<gx:coord>-110.947306 24.183526666666662 174.5</gx:coord>

<when>2025-12-21T17:08:13.000Z</when>
<gx:coord>-110.94704599999999 24.183801000000003 171.7</gx:coord>

<when>2025-12-21T17:08:24.000Z</when>
<gx:coord>-110.94678366666668 24.18402133333333 172.4</gx:coord>

<when>2025-12-21T17:08:35.000Z</when>
<gx:coord>-110.94650133333334 24.1841375 171.8</gx:coord>

<when>2025-12-21T17:08:46.000Z</when>
<gx:coord>-110.94626733333334 24.184332333333334 170.4</gx:coord>

<when>2025-12-21T17:08:57.000Z</when>
<gx:coord>-110.94612783333332 24.184504833333335 171.3</gx:coord>

<when>2025-12-21T17:09:08.000Z</when>
<gx:coord>-110.94598749999999 24.184684333333333 170.3</gx:coord>

<when>2025-12-21T17:09:19.000Z</when>
<gx:coord>-110.94587000000001 24.184823166666668 170.3</gx:coord>

<when>2025-12-21T17:09:30.000Z</when>
<gx:coord>-110.94576933333335 24.184931666666664 169.8</gx:coord>

<when>2025-12-21T17:09:41.000Z</when>
<gx:coord>-110.94571466666666 24.185054166666667 170.7</gx:coord>

<when>2025-12-21T17:12:37.000Z</when>
<gx:coord>-110.94568550000001 24.185090833333334 171.2</gx:coord>

<when>2025-12-21T17:14:52.000Z</when>
<gx:coord>-110.94576766666665 24.18513683333333 0.0</gx:coord>

<when>2025-12-21T17:15:25.000Z</when>
<gx:coord>-110.94571766666668 24.185081666666665 174.2</gx:coord>

<when>2025-12-21T17:18:32.000Z</when>
<gx:coord>-110.9456005 24.185044833333336 171.2</gx:coord>

<when>2025-12-21T17:18:43.000Z</when>
<gx:coord>-110.945578 24.18480833333333 171.0</gx:coord>

<when>2025-12-21T17:18:54.000Z</when>
<gx:coord>-110.94550966666665 24.184446499999996 172.8</gx:coord>

<when>2025-12-21T17:19:05.000Z</when>
<gx:coord>-110.94547200000001 24.18347383333333 168.3</gx:coord>

<when>2025-12-21T17:19:16.000Z</when>
<gx:coord>-110.94540333333335 24.182128499999997 161.6</gx:coord>

<when>2025-12-21T17:19:27.000Z</when>
<gx:coord>-110.944684 24.18099933333333 159.5</gx:coord>

<when>2025-12-21T17:19:38.000Z</when>
<gx:coord>-110.94351783333335 24.180391333333333 155.5</gx:coord>

<when>2025-12-21T17:19:49.000Z</when>
<gx:coord>-110.9423315 24.17981483333333 149.4</gx:coord>

<when>2025-12-21T17:20:00.000Z</when>
<gx:coord>-110.94093183333334 24.17912816666667 142.5</gx:coord>

<when>2025-12-21T17:20:11.000Z</when>
<gx:coord>-110.93922516666667 24.17828716666667 138.2</gx:coord>

<when>2025-12-21T17:20:22.000Z</when>
<gx:coord>-110.93746883333333 24.17743066666667 132.3</gx:coord>

<when>2025-12-21T17:20:33.000Z</when>
<gx:coord>-110.93557549999998 24.17649633333333 125.1</gx:coord>

<when>2025-12-21T17:20:44.000Z</when>
<gx:coord>-110.93369933333334 24.175573833333335 122.9</gx:coord>

<when>2025-12-21T17:20:55.000Z</when>
<gx:coord>-110.93184916666665 24.174672499999996 122.0</gx:coord>

<when>2025-12-21T17:21:06.000Z</when>
<gx:coord>-110.93007250000001 24.173806833333334 127.3</gx:coord>

<when>2025-12-21T17:21:17.000Z</when>
<gx:coord>-110.92832599999998 24.1729455 130.1</gx:coord>

<when>2025-12-21T17:21:28.000Z</when>
<gx:coord>-110.92644366666667 24.17202966666667 128.2</gx:coord>

<when>2025-12-21T17:21:39.000Z</when>
<gx:coord>-110.9248875 24.1710265 134.8</gx:coord>

<when>2025-12-21T17:21:50.000Z</when>
<gx:coord>-110.9241415 24.169383 132.9</gx:coord>

<when>2025-12-21T17:22:01.000Z</when>
<gx:coord>-110.92354716666665 24.167410000000004 119.2</gx:coord>

<when>2025-12-21T17:22:12.000Z</when>
<gx:coord>-110.92294199999999 24.165391500000002 116.5</gx:coord>

<when>2025-12-21T17:22:23.000Z</when>
<gx:coord>-110.92232433333332 24.163349666666665 117.1</gx:coord>

<when>2025-12-21T17:22:34.000Z</when>
<gx:coord>-110.92171216666665 24.161312 117.8</gx:coord>

<when>2025-12-21T17:22:45.000Z</when>
<gx:coord>-110.92111916666666 24.15934383333333 116.3</gx:coord>

<when>2025-12-21T17:22:56.000Z</when>
<gx:coord>-110.92040266666666 24.157723 113.6</gx:coord>

<when>2025-12-21T17:23:07.000Z</when>
<gx:coord>-110.91885983333334 24.157180833333335 115.6</gx:coord>

<when>2025-12-21T17:23:18.000Z</when>
<gx:coord>-110.9169225 24.157466999999997 116.6</gx:coord>

<when>2025-12-21T17:23:29.000Z</when>
<gx:coord>-110.914797 24.157805666666665 121.7</gx:coord>

<when>2025-12-21T17:23:40.000Z</when>
<gx:coord>-110.91275433333334 24.158124666666662 133.2</gx:coord>

<when>2025-12-21T17:23:51.000Z</when>
<gx:coord>-110.91069999999999 24.158446333333337 137.7</gx:coord>

<when>2025-12-21T17:24:02.000Z</when>
<gx:coord>-110.90885699999998 24.158630000000002 146.7</gx:coord>

<when>2025-12-21T17:24:13.000Z</when>
<gx:coord>-110.90757683333335 24.158843499999996 155.5</gx:coord>

<when>2025-12-21T17:24:24.000Z</when>
<gx:coord>-110.90684099999999 24.159818499999997 162.8</gx:coord>

<when>2025-12-21T17:24:35.000Z</when>
<gx:coord>-110.90571883333332 24.16072016666667 170.1</gx:coord>

<when>2025-12-21T17:24:46.000Z</when>
<gx:coord>-110.904511 24.161260333333335 178.1</gx:coord>

<when>2025-12-21T17:24:57.000Z</when>
<gx:coord>-110.90309216666668 24.160842333333335 188.5</gx:coord>

<when>2025-12-21T17:25:08.000Z</when>
<gx:coord>-110.90136833333332 24.160191333333334 192.2</gx:coord>

<when>2025-12-21T17:25:19.000Z</when>
<gx:coord>-110.89932966666666 24.15940833333333 195.2</gx:coord>

<when>2025-12-21T17:25:30.000Z</when>
<gx:coord>-110.897228 24.15860716666667 197.4</gx:coord>

<when>2025-12-21T17:25:41.000Z</when>
<gx:coord>-110.89513566666668 24.157812166666666 201.2</gx:coord>

<when>2025-12-21T17:25:52.000Z</when>
<gx:coord>-110.89313716666666 24.157057333333334 203.5</gx:coord>

<when>2025-12-21T17:26:03.000Z</when>
<gx:coord>-110.891224 24.157012166666664 205.5</gx:coord>

<when>2025-12-21T17:26:14.000Z</when>
<gx:coord>-110.88939950000001 24.157571 203.1</gx:coord>

<when>2025-12-21T17:26:25.000Z</when>
<gx:coord>-110.88736183333334 24.157418333333332 201.4</gx:coord>

<when>2025-12-21T17:26:36.000Z</when>
<gx:coord>-110.88527566666669 24.157055666666665 194.0</gx:coord>

<when>2025-12-21T17:26:47.000Z</when>
<gx:coord>-110.88304949999998 24.156677833333333 184.9</gx:coord>

<when>2025-12-21T17:26:58.000Z</when>
<gx:coord>-110.880738 24.15627833333333 179.0</gx:coord>

<when>2025-12-21T17:27:09.000Z</when>
<gx:coord>-110.87839933333335 24.155878999999995 174.9</gx:coord>

<when>2025-12-21T17:27:20.000Z</when>
<gx:coord>-110.87604666666667 24.155478499999997 175.8</gx:coord>

<when>2025-12-21T17:27:31.000Z</when>
<gx:coord>-110.87357449999999 24.15505166666667 177.9</gx:coord>

<when>2025-12-21T17:27:42.000Z</when>
<gx:coord>-110.87105483333335 24.154617 182.0</gx:coord>

<when>2025-12-21T17:27:53.000Z</when>
<gx:coord>-110.86874366666667 24.15421216666667 191.8</gx:coord>

<when>2025-12-21T17:28:04.000Z</when>
<gx:coord>-110.86680300000002 24.1539 200.3</gx:coord>

<when>2025-12-21T17:28:15.000Z</when>
<gx:coord>-110.86534066666667 24.154421499999998 204.7</gx:coord>

<when>2025-12-21T17:28:26.000Z</when>
<gx:coord>-110.86384283333334 24.155173166666668 208.3</gx:coord>

<when>2025-12-21T17:28:37.000Z</when>
<gx:coord>-110.86206366666666 24.155380166666667 213.2</gx:coord>

<when>2025-12-21T17:28:48.000Z</when>
<gx:coord>-110.86008933333332 24.155364666666667 220.5</gx:coord>

<when>2025-12-21T17:28:59.000Z</when>
<gx:coord>-110.85813933333333 24.154872333333334 224.7</gx:coord>

<when>2025-12-21T17:29:10.000Z</when>
<gx:coord>-110.8562845 24.154229666666666 231.5</gx:coord>

<when>2025-12-21T17:29:21.000Z</when>
<gx:coord>-110.85440033333334 24.15372916666667 237.5</gx:coord>

<when>2025-12-21T17:29:32.000Z</when>
<gx:coord>-110.8524155 24.153688166666665 242.8</gx:coord>

<when>2025-12-21T17:29:43.000Z</when>
<gx:coord>-110.85039366666666 24.153701166666664 242.8</gx:coord>

<when>2025-12-21T17:29:54.000Z</when>
<gx:coord>-110.84848083333333 24.153741 243.4</gx:coord>

<when>2025-12-21T17:30:05.000Z</when>
<gx:coord>-110.84666783333333 24.154191333333333 242.7</gx:coord>

<when>2025-12-21T17:30:16.000Z</when>
<gx:coord>-110.84498516666666 24.154976166666664 240.2</gx:coord>

<when>2025-12-21T17:30:27.000Z</when>
<gx:coord>-110.84323566666666 24.1553965 239.7</gx:coord>

<when>2025-12-21T17:30:38.000Z</when>
<gx:coord>-110.841351 24.154992500000002 240.8</gx:coord>

<when>2025-12-21T17:30:49.000Z</when>
<gx:coord>-110.839275 24.15447466666667 242.4</gx:coord>

<when>2025-12-21T17:31:00.000Z</when>
<gx:coord>-110.83721466666665 24.153966333333333 251.3</gx:coord>

<when>2025-12-21T17:31:11.000Z</when>
<gx:coord>-110.83523283333334 24.153476833333336 261.2</gx:coord>

<when>2025-12-21T17:31:22.000Z</when>
<gx:coord>-110.83324833333333 24.153025333333336 270.6</gx:coord>

<when>2025-12-21T17:31:33.000Z</when>
<gx:coord>-110.831075 24.1526255 272.2</gx:coord>

<when>2025-12-21T17:31:44.000Z</when>
<gx:coord>-110.82897650000001 24.152249833333332 270.6</gx:coord>

<when>2025-12-21T17:31:55.000Z</when>
<gx:coord>-110.82708816666667 24.151588500000003 270.1</gx:coord>

<when>2025-12-21T17:32:06.000Z</when>
<gx:coord>-110.82539383333332 24.1502125 269.1</gx:coord>

<when>2025-12-21T17:32:17.000Z</when>
<gx:coord>-110.82424616666667 24.1484665 273.4</gx:coord>

<when>2025-12-21T17:32:28.000Z</when>
<gx:coord>-110.82355733333334 24.1465735 274.7</gx:coord>

<when>2025-12-21T17:32:39.000Z</when>
<gx:coord>-110.82286549999999 24.144593499999996 273.4</gx:coord>

<when>2025-12-21T17:32:50.000Z</when>
<gx:coord>-110.82194983333332 24.142917166666667 273.2</gx:coord>

<when>2025-12-21T17:33:01.000Z</when>
<gx:coord>-110.82022299999998 24.141705 273.7</gx:coord>

<when>2025-12-21T17:33:12.000Z</when>
<gx:coord>-110.81844866666667 24.140532666666665 273.9</gx:coord>

<when>2025-12-21T17:33:23.000Z</when>
<gx:coord>-110.81668816666667 24.13975833333333 275.4</gx:coord>

<when>2025-12-21T17:33:34.000Z</when>
<gx:coord>-110.81492633333333 24.140465666666667 280.7</gx:coord>

<when>2025-12-21T17:33:45.000Z</when>
<gx:coord>-110.81317566666667 24.141588833333337 285.8</gx:coord>

<when>2025-12-21T17:33:56.000Z</when>
<gx:coord>-110.81118916666668 24.14238233333333 290.7</gx:coord>

<when>2025-12-21T17:34:07.000Z</when>
<gx:coord>-110.80900516666667 24.142588333333332 295.4</gx:coord>

<when>2025-12-21T17:34:18.000Z</when>
<gx:coord>-110.80674033333335 24.142744666666665 295.6</gx:coord>

<when>2025-12-21T17:34:29.000Z</when>
<gx:coord>-110.80430300000002 24.142926666666668 295.7</gx:coord>

<when>2025-12-21T17:34:40.000Z</when>
<gx:coord>-110.80199166666668 24.143024 297.0</gx:coord>

<when>2025-12-21T17:34:51.000Z</when>
<gx:coord>-110.7997805 24.142649833333333 299.2</gx:coord>

<when>2025-12-21T17:35:02.000Z</when>
<gx:coord>-110.797566 24.142363666666665 303.3</gx:coord>

<when>2025-12-21T17:35:13.000Z</when>
<gx:coord>-110.79575416666667 24.143247166666665 308.2</gx:coord>

<when>2025-12-21T17:35:24.000Z</when>
<gx:coord>-110.79486833333334 24.14501416666667 310.5</gx:coord>

<when>2025-12-21T17:35:35.000Z</when>
<gx:coord>-110.79294616666667 24.14574716666667 315.4</gx:coord>

<when>2025-12-21T17:35:46.000Z</when>
<gx:coord>-110.79062649999999 24.1455525 320.2</gx:coord>

<when>2025-12-21T17:35:57.000Z</when>
<gx:coord>-110.7885105 24.145004166666663 322.5</gx:coord>

<when>2025-12-21T17:36:08.000Z</when>
<gx:coord>-110.78744433333334 24.143239 322.5</gx:coord>

<when>2025-12-21T17:36:19.000Z</when>
<gx:coord>-110.78625283333334 24.141445666666662 322.9</gx:coord>

<when>2025-12-21T17:36:30.000Z</when>
<gx:coord>-110.78409633333334 24.140832833333334 325.6</gx:coord>

<when>2025-12-21T17:36:41.000Z</when>
<gx:coord>-110.78180716666665 24.141341333333337 331.7</gx:coord>

<when>2025-12-21T17:36:52.000Z</when>
<gx:coord>-110.77941733333334 24.14192066666667 335.6</gx:coord>

<when>2025-12-21T17:37:03.000Z</when>
<gx:coord>-110.77700850000001 24.142117833333334 336.3</gx:coord>

<when>2025-12-21T17:37:14.000Z</when>
<gx:coord>-110.77460916666665 24.141320333333336 332.0</gx:coord>

<when>2025-12-21T17:37:25.000Z</when>
<gx:coord>-110.77261250000001 24.139806666666665 331.4</gx:coord>

<when>2025-12-21T17:37:36.000Z</when>
<gx:coord>-110.7706375 24.1382185 329.9</gx:coord>

<when>2025-12-21T17:37:47.000Z</when>
<gx:coord>-110.76857866666666 24.13692416666667 329.0</gx:coord>

<when>2025-12-21T17:37:58.000Z</when>
<gx:coord>-110.76618783333333 24.1362315 322.5</gx:coord>

<when>2025-12-21T17:38:09.000Z</when>
<gx:coord>-110.76376633333332 24.135595833333333 315.7</gx:coord>

<when>2025-12-21T17:38:20.000Z</when>
<gx:coord>-110.7616575 24.134649 309.0</gx:coord>

<when>2025-12-21T17:38:31.000Z</when>
<gx:coord>-110.75992766666668 24.132936499999996 297.4</gx:coord>

<when>2025-12-21T17:38:42.000Z</when>
<gx:coord>-110.75846883333334 24.130755333333333 295.7</gx:coord>

<when>2025-12-21T17:38:53.000Z</when>
<gx:coord>-110.75700966666666 24.128581166666663 292.6</gx:coord>

<when>2025-12-21T17:39:04.000Z</when>
<gx:coord>-110.75554316666667 24.1263795 286.2</gx:coord>

<when>2025-12-21T17:39:15.000Z</when>
<gx:coord>-110.75402466666668 24.124097833333334 284.8</gx:coord>

<when>2025-12-21T17:39:26.000Z</when>
<gx:coord>-110.75244966666666 24.121743666666664 279.1</gx:coord>

<when>2025-12-21T17:39:37.000Z</when>
<gx:coord>-110.750684 24.119503666666667 273.1</gx:coord>

<when>2025-12-21T17:39:48.000Z</when>
<gx:coord>-110.74884783333333 24.117313333333332 266.8</gx:coord>

<when>2025-12-21T17:39:59.000Z</when>
<gx:coord>-110.74699600000001 24.115117666666666 260.4</gx:coord>

<when>2025-12-21T17:40:10.000Z</when>
<gx:coord>-110.745177 24.112959 258.8</gx:coord>

<when>2025-12-21T17:40:21.000Z</when>
<gx:coord>-110.74344766666667 24.11090916666667 263.8</gx:coord>

<when>2025-12-21T17:40:32.000Z</when>
<gx:coord>-110.741669 24.108790833333334 261.3</gx:coord>

<when>2025-12-21T17:40:43.000Z</when>
<gx:coord>-110.73986716666668 24.106651166666666 254.8</gx:coord>

<when>2025-12-21T17:40:54.000Z</when>
<gx:coord>-110.73813683333334 24.104601000000002 249.8</gx:coord>

<when>2025-12-21T17:41:05.000Z</when>
<gx:coord>-110.73651266666666 24.102682833333333 239.2</gx:coord>

<when>2025-12-21T17:41:16.000Z</when>
<gx:coord>-110.73478750000001 24.10150966666667 239.1</gx:coord>

<when>2025-12-21T17:41:27.000Z</when>
<gx:coord>-110.73336133333332 24.1009295 235.5</gx:coord>

<when>2025-12-21T17:41:38.000Z</when>
<gx:coord>-110.73170266666666 24.10046483333333 237.0</gx:coord>

<when>2025-12-21T17:41:49.000Z</when>
<gx:coord>-110.73026816666668 24.10018616666667 247.5</gx:coord>

<when>2025-12-21T17:42:00.000Z</when>
<gx:coord>-110.72895266666667 24.09946933333333 253.4</gx:coord>

<when>2025-12-21T17:42:11.000Z</when>
<gx:coord>-110.72743066666665 24.098352666666663 255.6</gx:coord>

<when>2025-12-21T17:42:22.000Z</when>
<gx:coord>-110.7255025 24.096922000000003 253.3</gx:coord>

<when>2025-12-21T17:42:33.000Z</when>
<gx:coord>-110.72342016666668 24.095377833333334 257.2</gx:coord>

<when>2025-12-21T17:42:44.000Z</when>
<gx:coord>-110.72137916666667 24.09386683333333 256.7</gx:coord>

<when>2025-12-21T17:42:55.000Z</when>
<gx:coord>-110.71920083333335 24.09223233333333 250.3</gx:coord>

<when>2025-12-21T17:43:06.000Z</when>
<gx:coord>-110.71705333333333 24.09062783333333 257.1</gx:coord>

<when>2025-12-21T17:43:17.000Z</when>
<gx:coord>-110.71485583333333 24.089100999999996 259.6</gx:coord>

<when>2025-12-21T17:43:28.000Z</when>
<gx:coord>-110.71219716666668 24.088445833333335 266.9</gx:coord>

<when>2025-12-21T17:43:39.000Z</when>
<gx:coord>-110.70944033333332 24.088703166666665 268.0</gx:coord>

<when>2025-12-21T17:43:50.000Z</when>
<gx:coord>-110.70651533333333 24.08904733333333 265.9</gx:coord>

<when>2025-12-21T17:44:01.000Z</when>
<gx:coord>-110.7036755 24.089382166666663 272.0</gx:coord>

<when>2025-12-21T17:44:12.000Z</when>
<gx:coord>-110.700804 24.089719 275.6</gx:coord>

<when>2025-12-21T17:44:23.000Z</when>
<gx:coord>-110.69802266666666 24.090048166666666 274.7</gx:coord>

<when>2025-12-21T17:44:34.000Z</when>
<gx:coord>-110.6951685 24.09038466666667 270.9</gx:coord>

<when>2025-12-21T17:44:45.000Z</when>
<gx:coord>-110.69226866666668 24.090726000000004 268.4</gx:coord>

<when>2025-12-21T17:44:56.000Z</when>
<gx:coord>-110.68930016666667 24.0910795 271.1</gx:coord>

<when>2025-12-21T17:45:07.000Z</when>
<gx:coord>-110.68639916666667 24.091429499999997 271.7</gx:coord>

<when>2025-12-21T17:45:18.000Z</when>
<gx:coord>-110.68329216666667 24.09180233333333 268.5</gx:coord>

<when>2025-12-21T17:45:29.000Z</when>
<gx:coord>-110.68020366666666 24.0921665 270.1</gx:coord>

<when>2025-12-21T17:45:40.000Z</when>
<gx:coord>-110.67711849999999 24.092535666666663 274.7</gx:coord>

<when>2025-12-21T17:45:51.000Z</when>
<gx:coord>-110.67406383333334 24.09289683333333 275.6</gx:coord>

<when>2025-12-21T17:46:02.000Z</when>
<gx:coord>-110.67095683333334 24.093267333333333 272.4</gx:coord>

<when>2025-12-21T17:46:13.000Z</when>
<gx:coord>-110.66808100000002 24.09360916666667 285.4</gx:coord>

<when>2025-12-21T17:46:24.000Z</when>
<gx:coord>-110.6653165 24.093927833333336 289.5</gx:coord>

<when>2025-12-21T17:46:35.000Z</when>
<gx:coord>-110.66258116666668 24.094251166666663 290.9</gx:coord>

<when>2025-12-21T17:46:46.000Z</when>
<gx:coord>-110.65987733333334 24.094577166666667 285.6</gx:coord>

<when>2025-12-21T17:46:57.000Z</when>
<gx:coord>-110.65705616666668 24.09490333333333 273.2</gx:coord>

<when>2025-12-21T17:47:08.000Z</when>
<gx:coord>-110.65409749999999 24.095253666666668 272.0</gx:coord>

<when>2025-12-21T17:47:19.000Z</when>
<gx:coord>-110.65125400000001 24.095592333333336 280.9</gx:coord>

<when>2025-12-21T17:47:30.000Z</when>
<gx:coord>-110.64845483333332 24.095918166666667 276.1</gx:coord>

<when>2025-12-21T17:47:41.000Z</when>
<gx:coord>-110.64574533333334 24.096241499999998 272.6</gx:coord>

<when>2025-12-21T17:47:52.000Z</when>
<gx:coord>-110.6433825 24.096076999999998 272.7</gx:coord>

<when>2025-12-21T17:48:03.000Z</when>
<gx:coord>-110.641316 24.094839499999996 265.5</gx:coord>

<when>2025-12-21T17:48:14.000Z</when>
<gx:coord>-110.63926883333333 24.093387999999997 265.0</gx:coord>

<when>2025-12-21T17:48:25.000Z</when>
<gx:coord>-110.637138 24.091883666666664 269.7</gx:coord>

<when>2025-12-21T17:48:36.000Z</when>
<gx:coord>-110.634925 24.090319666666666 274.3</gx:coord>

<when>2025-12-21T17:48:47.000Z</when>
<gx:coord>-110.63269616666666 24.08874166666667 284.9</gx:coord>

<when>2025-12-21T17:48:58.000Z</when>
<gx:coord>-110.63060633333335 24.08726283333333 294.8</gx:coord>

<when>2025-12-21T17:49:09.000Z</when>
<gx:coord>-110.62853066666666 24.085793 299.3</gx:coord>

<when>2025-12-21T17:49:20.000Z</when>
<gx:coord>-110.62651150000002 24.084374166666667 296.9</gx:coord>

<when>2025-12-21T17:49:31.000Z</when>
<gx:coord>-110.62440066666667 24.08288333333333 283.8</gx:coord>

<when>2025-12-21T17:49:42.000Z</when>
<gx:coord>-110.62218550000001 24.081312166666667 272.8</gx:coord>

<when>2025-12-21T17:49:53.000Z</when>
<gx:coord>-110.61994033333333 24.07971866666667 270.7</gx:coord>

<when>2025-12-21T17:50:04.000Z</when>
<gx:coord>-110.61770483333333 24.07812783333333 271.7</gx:coord>

<when>2025-12-21T17:50:15.000Z</when>
<gx:coord>-110.6153265 24.0764425 266.7</gx:coord>

<when>2025-12-21T17:50:26.000Z</when>
<gx:coord>-110.61303199999999 24.074827833333334 272.8</gx:coord>

<when>2025-12-21T17:50:37.000Z</when>
<gx:coord>-110.6107815 24.07322433333333 279.5</gx:coord>

<when>2025-12-21T17:50:48.000Z</when>
<gx:coord>-110.60849683333332 24.0716035 280.7</gx:coord>

<when>2025-12-21T17:50:59.000Z</when>
<gx:coord>-110.60619566666668 24.069971833333337 280.3</gx:coord>

<when>2025-12-21T17:51:10.000Z</when>
<gx:coord>-110.60394533333334 24.0683765 285.2</gx:coord>

<when>2025-12-21T17:51:21.000Z</when>
<gx:coord>-110.60170516666668 24.066789333333336 286.3</gx:coord>

<when>2025-12-21T17:51:32.000Z</when>
<gx:coord>-110.59942950000001 24.06517516666667 284.6</gx:coord>

<when>2025-12-21T17:51:43.000Z</when>
<gx:coord>-110.59709683333334 24.063523666666665 283.0</gx:coord>

<when>2025-12-21T17:51:54.000Z</when>
<gx:coord>-110.59480049999999 24.061889333333337 283.0</gx:coord>

<when>2025-12-21T17:52:05.000Z</when>
<gx:coord>-110.59253050000001 24.060280333333335 284.1</gx:coord>

<when>2025-12-21T17:52:16.000Z</when>
<gx:coord>-110.59026816666668 24.058674333333336 284.3</gx:coord>

<when>2025-12-21T17:52:27.000Z</when>
<gx:coord>-110.588113 24.057146666666668 283.8</gx:coord>

<when>2025-12-21T17:52:38.000Z</when>
<gx:coord>-110.58598750000002 24.05564416666667 282.0</gx:coord>

<when>2025-12-21T17:52:49.000Z</when>
<gx:coord>-110.58390149999998 24.05410566666667 278.8</gx:coord>

<when>2025-12-21T17:53:00.000Z</when>
<gx:coord>-110.58179466666667 24.052593 272.7</gx:coord>

<when>2025-12-21T17:53:11.000Z</when>
<gx:coord>-110.5801185 24.051687 274.3</gx:coord>

<when>2025-12-21T17:53:22.000Z</when>
<gx:coord>-110.57855550000001 24.052275 271.4</gx:coord>

<when>2025-12-21T17:53:33.000Z</when>
<gx:coord>-110.57725833333333 24.053814499999998 276.1</gx:coord>

<when>2025-12-21T17:53:44.000Z</when>
<gx:coord>-110.57583433333333 24.055511833333338 280.4</gx:coord>

<when>2025-12-21T17:53:55.000Z</when>
<gx:coord>-110.57446350000001 24.05714066666667 284.8</gx:coord>

<when>2025-12-21T17:54:06.000Z</when>
<gx:coord>-110.57341333333333 24.058341166666665 279.1</gx:coord>

<when>2025-12-21T17:54:17.000Z</when>
<gx:coord>-110.57223366666668 24.058272499999998 272.8</gx:coord>

<when>2025-12-21T17:54:28.000Z</when>
<gx:coord>-110.57103899999998 24.05728333333333 266.4</gx:coord>

<when>2025-12-21T17:54:39.000Z</when>
<gx:coord>-110.57050166666667 24.055755666666663 260.3</gx:coord>

<when>2025-12-21T17:54:50.000Z</when>
<gx:coord>-110.57011416666667 24.054052499999997 246.4</gx:coord>

<when>2025-12-21T17:55:01.000Z</when>
<gx:coord>-110.56914683333335 24.053107 237.8</gx:coord>

<when>2025-12-21T17:55:12.000Z</when>
<gx:coord>-110.56791216666667 24.0540325 226.7</gx:coord>

<when>2025-12-21T17:55:23.000Z</when>
<gx:coord>-110.56651783333334 24.055857833333334 216.5</gx:coord>

<when>2025-12-21T17:55:34.000Z</when>
<gx:coord>-110.56519066666667 24.057618166666664 221.2</gx:coord>

<when>2025-12-21T17:55:45.000Z</when>
<gx:coord>-110.56390533333334 24.059307166666667 208.8</gx:coord>

<when>2025-12-21T17:55:56.000Z</when>
<gx:coord>-110.56293616666666 24.06043683333333 197.1</gx:coord>

<when>2025-12-21T17:56:07.000Z</when>
<gx:coord>-110.56161900000001 24.061227833333337 182.2</gx:coord>

<when>2025-12-21T17:56:18.000Z</when>
<gx:coord>-110.56044016666668 24.062839666666665 171.3</gx:coord>

<when>2025-12-21T17:56:29.000Z</when>
<gx:coord>-110.55963916666666 24.064779166666668 166.6</gx:coord>

<when>2025-12-21T17:56:40.000Z</when>
<gx:coord>-110.55840466666665 24.066353333333335 162.0</gx:coord>

<when>2025-12-21T17:56:51.000Z</when>
<gx:coord>-110.5561795 24.067202166666668 160.9</gx:coord>

<when>2025-12-21T17:57:02.000Z</when>
<gx:coord>-110.55380133333334 24.067884499999998 154.2</gx:coord>

<when>2025-12-21T17:57:13.000Z</when>
<gx:coord>-110.55143666666666 24.068809333333334 149.9</gx:coord>

<when>2025-12-21T17:57:24.000Z</when>
<gx:coord>-110.54922816666667 24.07030616666667 145.7</gx:coord>

<when>2025-12-21T17:57:35.000Z</when>
<gx:coord>-110.54691733333333 24.071885166666668 139.4</gx:coord>

<when>2025-12-21T17:57:46.000Z</when>
<gx:coord>-110.54462 24.07346583333333 137.8</gx:coord>

<when>2025-12-21T17:57:57.000Z</when>
<gx:coord>-110.54223400000001 24.07510366666667 129.6</gx:coord>

<when>2025-12-21T17:58:08.000Z</when>
<gx:coord>-110.53988083333334 24.076717166666672 122.6</gx:coord>

<when>2025-12-21T17:58:19.000Z</when>
<gx:coord>-110.537621 24.078266833333334 118.1</gx:coord>

<when>2025-12-21T17:58:30.000Z</when>
<gx:coord>-110.53533366666667 24.0798345 115.7</gx:coord>

<when>2025-12-21T17:58:41.000Z</when>
<gx:coord>-110.53300433333334 24.0814375 112.6</gx:coord>

<when>2025-12-21T17:58:52.000Z</when>
<gx:coord>-110.530716 24.083009500000003 109.7</gx:coord>

<when>2025-12-21T17:59:03.000Z</when>
<gx:coord>-110.52845466666668 24.0845565 105.7</gx:coord>

<when>2025-12-21T17:59:14.000Z</when>
<gx:coord>-110.5261265 24.086147166666667 102.1</gx:coord>

<when>2025-12-21T17:59:25.000Z</when>
<gx:coord>-110.52378433333334 24.087755333333334 102.1</gx:coord>

<when>2025-12-21T17:59:36.000Z</when>
<gx:coord>-110.52153983333334 24.089297166666665 103.6</gx:coord>

<when>2025-12-21T17:59:47.000Z</when>
<gx:coord>-110.51927683333334 24.090843666666668 103.5</gx:coord>

<when>2025-12-21T17:59:58.000Z</when>
<gx:coord>-110.51701733333333 24.09239466666667 99.3</gx:coord>

<when>2025-12-21T18:00:09.000Z</when>
<gx:coord>-110.51471933333332 24.09396716666667 94.5</gx:coord>

<when>2025-12-21T18:00:20.000Z</when>
<gx:coord>-110.51236883333334 24.095578166666662 89.6</gx:coord>

<when>2025-12-21T18:00:31.000Z</when>
<gx:coord>-110.5099645 24.097219666666668 83.9</gx:coord>

<when>2025-12-21T18:00:42.000Z</when>
<gx:coord>-110.50756183333333 24.098862500000003 81.6</gx:coord>

<when>2025-12-21T18:00:53.000Z</when>
<gx:coord>-110.505182 24.100496333333332 80.8</gx:coord>

<when>2025-12-21T18:01:04.000Z</when>
<gx:coord>-110.50283316666668 24.102103666666668 80.1</gx:coord>

<when>2025-12-21T18:01:15.000Z</when>
<gx:coord>-110.50049599999998 24.10370983333333 78.1</gx:coord>

<when>2025-12-21T18:01:26.000Z</when>
<gx:coord>-110.49814616666666 24.10531866666667 73.8</gx:coord>

<when>2025-12-21T18:01:37.000Z</when>
<gx:coord>-110.49578783333332 24.106938500000002 69.3</gx:coord>

<when>2025-12-21T18:01:48.000Z</when>
<gx:coord>-110.49339233333333 24.108579500000005 64.0</gx:coord>

<when>2025-12-21T18:01:59.000Z</when>
<gx:coord>-110.49102666666667 24.110198500000003 65.2</gx:coord>

<when>2025-12-21T18:02:10.000Z</when>
<gx:coord>-110.48872533333333 24.11178483333333 64.7</gx:coord>

<when>2025-12-21T18:02:21.000Z</when>
<gx:coord>-110.48636016666666 24.113410999999996 62.5</gx:coord>

<when>2025-12-21T18:02:32.000Z</when>
<gx:coord>-110.4840665 24.114985 60.9</gx:coord>

<when>2025-12-21T18:02:43.000Z</when>
<gx:coord>-110.48206066666668 24.116363999999997 58.9</gx:coord>

<when>2025-12-21T18:02:54.000Z</when>
<gx:coord>-110.48032649999999 24.117558 57.2</gx:coord>

<when>2025-12-21T18:03:05.000Z</when>
<gx:coord>-110.47937449999999 24.118125333333335 56.1</gx:coord>

<when>2025-12-21T18:03:16.000Z</when>
<gx:coord>-110.47911066666666 24.11829266666667 55.9</gx:coord>

<when>2025-12-21T18:03:27.000Z</when>
<gx:coord>-110.47888133333332 24.118470833333337 54.9</gx:coord>

<when>2025-12-21T18:03:38.000Z</when>
<gx:coord>-110.47793616666668 24.119200166666662 53.4</gx:coord>

<when>2025-12-21T18:03:49.000Z</when>
<gx:coord>-110.47626016666666 24.120353500000004 51.4</gx:coord>

<when>2025-12-21T18:04:00.000Z</when>
<gx:coord>-110.47428066666667 24.121473999999996 49.6</gx:coord>

<when>2025-12-21T18:04:11.000Z</when>
<gx:coord>-110.47185066666667 24.121853 48.6</gx:coord>

<when>2025-12-21T18:04:22.000Z</when>
<gx:coord>-110.46917649999999 24.121679166666663 48.7</gx:coord>

<when>2025-12-21T18:04:33.000Z</when>
<gx:coord>-110.46644149999999 24.121491833333334 45.9</gx:coord>

<when>2025-12-21T18:04:44.000Z</when>
<gx:coord>-110.46364333333334 24.121312166666666 44.5</gx:coord>

<when>2025-12-21T18:04:55.000Z</when>
<gx:coord>-110.46082849999999 24.121130833333336 43.7</gx:coord>

<when>2025-12-21T18:05:06.000Z</when>
<gx:coord>-110.45796916666669 24.120946166666666 40.6</gx:coord>

<when>2025-12-21T18:05:17.000Z</when>
<gx:coord>-110.45508783333335 24.12076516666667 41.2</gx:coord>

<when>2025-12-21T18:05:28.000Z</when>
<gx:coord>-110.45223066666668 24.120581666666666 42.0</gx:coord>

<when>2025-12-21T18:05:39.000Z</when>
<gx:coord>-110.44947816666667 24.120397166666667 40.3</gx:coord>

<when>2025-12-21T18:05:50.000Z</when>
<gx:coord>-110.44669049999999 24.120221 33.7</gx:coord>

<when>2025-12-21T18:06:01.000Z</when>
<gx:coord>-110.443882 24.12002916666667 28.9</gx:coord>

<when>2025-12-21T18:06:12.000Z</when>
<gx:coord>-110.44107733333334 24.119853166666665 29.4</gx:coord>

<when>2025-12-21T18:06:23.000Z</when>
<gx:coord>-110.438508 24.1196935 26.9</gx:coord>

<when>2025-12-21T18:06:34.000Z</when>
<gx:coord>-110.43612399999999 24.119520333333337 23.1</gx:coord>

<when>2025-12-21T18:06:45.000Z</when>
<gx:coord>-110.43388116666665 24.119057666666663 19.3</gx:coord>

<when>2025-12-21T18:06:56.000Z</when>
<gx:coord>-110.43184866666667 24.117889666666663 17.5</gx:coord>

<when>2025-12-21T18:07:07.000Z</when>
<gx:coord>-110.42998466666668 24.116753000000003 16.2</gx:coord>

<when>2025-12-21T18:07:18.000Z</when>
<gx:coord>-110.42817466666665 24.115653833333333 15.7</gx:coord>

<when>2025-12-21T18:07:29.000Z</when>
<gx:coord>-110.42637683333332 24.114562833333334 14.7</gx:coord>

<when>2025-12-21T18:07:40.000Z</when>
<gx:coord>-110.42455666666667 24.113451499999996 15.5</gx:coord>

<when>2025-12-21T18:07:51.000Z</when>
<gx:coord>-110.42270599999999 24.112323833333335 15.1</gx:coord>

<when>2025-12-21T18:08:02.000Z</when>
<gx:coord>-110.42091200000002 24.1112255 15.1</gx:coord>

<when>2025-12-21T18:08:13.000Z</when>
<gx:coord>-110.41926466666668 24.110215666666665 15.5</gx:coord>

<when>2025-12-21T18:08:24.000Z</when>
<gx:coord>-110.41781983333334 24.109215333333335 13.5</gx:coord>

<when>2025-12-21T18:08:35.000Z</when>
<gx:coord>-110.41649299999999 24.10806166666667 13.8</gx:coord>

<when>2025-12-21T18:08:46.000Z</when>
<gx:coord>-110.41526466666667 24.106751999999997 13.6</gx:coord>

<when>2025-12-21T18:08:57.000Z</when>
<gx:coord>-110.41414216666665 24.10545066666667 13.4</gx:coord>

<when>2025-12-21T18:09:08.000Z</when>
<gx:coord>-110.41304933333335 24.104183499999998 13.7</gx:coord>

<when>2025-12-21T18:09:19.000Z</when>
<gx:coord>-110.41220583333333 24.10320016666667 13.5</gx:coord>

<when>2025-12-21T18:09:30.000Z</when>
<gx:coord>-110.4116495 24.10255516666667 12.0</gx:coord>

<when>2025-12-21T18:09:41.000Z</when>
<gx:coord>-110.41128566666666 24.102133333333335 12.2</gx:coord>

<when>2025-12-21T18:09:52.000Z</when>
<gx:coord>-110.41041933333332 24.101134000000002 12.1</gx:coord>

<when>2025-12-21T18:10:03.000Z</when>
<gx:coord>-110.40943816666667 24.10000133333333 12.4</gx:coord>

<when>2025-12-21T18:10:14.000Z</when>
<gx:coord>-110.408379 24.098795333333335 12.9</gx:coord>

<when>2025-12-21T18:10:25.000Z</when>
<gx:coord>-110.40720966666667 24.097582333333335 13.0</gx:coord>

<when>2025-12-21T18:10:36.000Z</when>
<gx:coord>-110.40562816666667 24.096655166666665 14.2</gx:coord>

<when>2025-12-21T18:10:47.000Z</when>
<gx:coord>-110.40378566666668 24.096259333333332 13.8</gx:coord>

<when>2025-12-21T18:10:58.000Z</when>
<gx:coord>-110.40182166666666 24.096407833333334 12.6</gx:coord>

<when>2025-12-21T18:11:09.000Z</when>
<gx:coord>-110.39984216666666 24.096679333333334 10.8</gx:coord>

<when>2025-12-21T18:11:20.000Z</when>
<gx:coord>-110.3978805 24.096952166666664 10.2</gx:coord>

<when>2025-12-21T18:11:31.000Z</when>
<gx:coord>-110.3959075 24.097232333333334 10.5</gx:coord>

<when>2025-12-21T18:11:42.000Z</when>
<gx:coord>-110.39391166666668 24.09750916666667 11.3</gx:coord>

<when>2025-12-21T18:11:53.000Z</when>
<gx:coord>-110.39200283333334 24.0977835 12.3</gx:coord>

<when>2025-12-21T18:12:04.000Z</when>
<gx:coord>-110.3902395 24.098034999999996 12.3</gx:coord>

<when>2025-12-21T18:12:15.000Z</when>
<gx:coord>-110.38840950000001 24.09828633333333 11.3</gx:coord>

<when>2025-12-21T18:12:26.000Z</when>
<gx:coord>-110.38655150000001 24.09854383333333 11.4</gx:coord>

<when>2025-12-21T18:12:37.000Z</when>
<gx:coord>-110.38468083333333 24.098805333333335 11.0</gx:coord>

<when>2025-12-21T18:12:48.000Z</when>
<gx:coord>-110.38306583333333 24.0990285 8.9</gx:coord>

<when>2025-12-21T18:12:59.000Z</when>
<gx:coord>-110.3815755 24.0994135 2.8</gx:coord>

<when>2025-12-21T18:13:10.000Z</when>
<gx:coord>-110.3801325 24.100009666666665 1.4</gx:coord>

<when>2025-12-21T18:13:21.000Z</when>
<gx:coord>-110.378581 24.100633833333337 0.1</gx:coord>

<when>2025-12-21T18:13:32.000Z</when>
<gx:coord>-110.376928 24.101312666666665 -0.2</gx:coord>

<when>2025-12-21T18:13:43.000Z</when>
<gx:coord>-110.3753295 24.101971499999998 0.0</gx:coord>

<when>2025-12-21T18:13:54.000Z</when>
<gx:coord>-110.37422766666666 24.102428999999997 0.2</gx:coord>

<when>2025-12-21T18:14:05.000Z</when>
<gx:coord>-110.3737325 24.10263183333333 -0.8</gx:coord>

<when>2025-12-21T18:14:16.000Z</when>
<gx:coord>-110.37273333333333 24.10305133333333 -2.4</gx:coord>

<when>2025-12-21T18:14:27.000Z</when>
<gx:coord>-110.37144850000001 24.103578833333337 -2.4</gx:coord>

<when>2025-12-21T18:14:38.000Z</when>
<gx:coord>-110.37023416666668 24.104044666666663 -5.3</gx:coord>

<when>2025-12-21T18:14:49.000Z</when>
<gx:coord>-110.36884616666666 24.10458983333333 -6.8</gx:coord>

<when>2025-12-21T18:15:00.000Z</when>
<gx:coord>-110.36751466666668 24.105122833333333 -7.2</gx:coord>

<when>2025-12-21T18:15:11.000Z</when>
<gx:coord>-110.36600116666665 24.105740500000003 -6.4</gx:coord>

<when>2025-12-21T18:15:22.000Z</when>
<gx:coord>-110.36433366666667 24.106422833333333 -7.0</gx:coord>

<when>2025-12-21T18:15:33.000Z</when>
<gx:coord>-110.36256866666666 24.107163333333332 -6.3</gx:coord>

<when>2025-12-21T18:15:44.000Z</when>
<gx:coord>-110.3608945 24.107912166666665 -2.3</gx:coord>

<when>2025-12-21T18:15:55.000Z</when>
<gx:coord>-110.35936949999999 24.108628 -4.1</gx:coord>

<when>2025-12-21T18:16:06.000Z</when>
<gx:coord>-110.35777549999999 24.109378666666665 -7.7</gx:coord>

<when>2025-12-21T18:16:17.000Z</when>
<gx:coord>-110.35594916666666 24.11025683333333 -8.0</gx:coord>

<when>2025-12-21T18:16:28.000Z</when>
<gx:coord>-110.35383833333331 24.11127633333333 -7.2</gx:coord>

<when>2025-12-21T18:16:39.000Z</when>
<gx:coord>-110.35194333333332 24.11217033333333 -5.4</gx:coord>

<when>2025-12-21T18:16:50.000Z</when>
<gx:coord>-110.35026733333333 24.112968500000004 -4.9</gx:coord>

<when>2025-12-21T18:17:01.000Z</when>
<gx:coord>-110.34838933333334 24.113850000000003 -1.5</gx:coord>

<when>2025-12-21T18:17:12.000Z</when>
<gx:coord>-110.34653133333335 24.114726166666667 0.3</gx:coord>

<when>2025-12-21T18:17:23.000Z</when>
<gx:coord>-110.34480833333333 24.115699666666668 2.1</gx:coord>

<when>2025-12-21T18:17:34.000Z</when>
<gx:coord>-110.3439745 24.117378666666664 6.7</gx:coord>

<when>2025-12-21T18:17:45.000Z</when>
<gx:coord>-110.34376883333334 24.118276833333333 7.8</gx:coord>

<when>2025-12-21T18:17:56.000Z</when>
<gx:coord>-110.34367966666666 24.11825233333333 7.7</gx:coord>

<when>2025-12-21T18:18:07.000Z</when>
<gx:coord>-110.34370050000001 24.117979833333333 4.1</gx:coord>

<when>2025-12-21T18:18:18.000Z</when>
<gx:coord>-110.34360083333334 24.1177365 3.8</gx:coord>

<when>2025-12-21T18:18:29.000Z</when>
<gx:coord>-110.34340433333334 24.117703 6.9</gx:coord>

<when>2025-12-21T18:18:40.000Z</when>
<gx:coord>-110.34318566666667 24.1175985 6.0</gx:coord>

<when>2025-12-21T18:18:51.000Z</when>
<gx:coord>-110.34315999999998 24.117462999999997 6.7</gx:coord>

<when>2025-12-21T18:19:02.000Z</when>
<gx:coord>-110.34316083333333 24.1174155 8.3</gx:coord>

<when>2025-12-21T18:19:13.000Z</when>
<gx:coord>-110.34315149999999 24.117471666666667 10.7</gx:coord>

<when>2025-12-21T20:13:27.000Z</when>
<gx:coord>-110.34312166666665 24.117401166666664 30.0</gx:coord>

<when>2025-12-21T20:23:20.000Z</when>
<gx:coord>-110.34311933333332 24.117462500000002 16.2</gx:coord>

<when>2025-12-21T20:23:53.000Z</when>
<gx:coord>-110.343193 24.117349833333332 15.5</gx:coord>

<when>2025-12-21T20:24:04.000Z</when>
<gx:coord>-110.34322666666667 24.117216833333334 18.1</gx:coord>

<when>2025-12-21T20:24:15.000Z</when>
<gx:coord>-110.34322933333333 24.117084999999996 17.8</gx:coord>

<when>2025-12-21T20:24:26.000Z</when>
<gx:coord>-110.34324649999999 24.11690116666667 17.7</gx:coord>

<when>2025-12-21T20:24:37.000Z</when>
<gx:coord>-110.34341799999999 24.116791166666665 15.6</gx:coord>

<when>2025-12-21T20:24:48.000Z</when>
<gx:coord>-110.34369833333334 24.116935833333333 10.7</gx:coord>

<when>2025-12-21T20:24:59.000Z</when>
<gx:coord>-110.343904 24.117523666666663 6.1</gx:coord>

<when>2025-12-21T20:25:10.000Z</when>
<gx:coord>-110.34387433333335 24.118174333333332 3.7</gx:coord>

<when>2025-12-21T20:25:21.000Z</when>
<gx:coord>-110.34382849999999 24.118768 1.5</gx:coord>

<when>2025-12-21T20:25:32.000Z</when>
<gx:coord>-110.34374000000001 24.1193335 2.6</gx:coord>

<when>2025-12-21T20:25:43.000Z</when>
<gx:coord>-110.34312183333334 24.119420166666668 4.3</gx:coord>

<when>2025-12-21T20:25:54.000Z</when>
<gx:coord>-110.34186399999999 24.119365666666667 5.0</gx:coord>

<when>2025-12-21T20:26:05.000Z</when>
<gx:coord>-110.34053266666666 24.119308666666665 5.5</gx:coord>

<when>2025-12-21T20:26:16.000Z</when>
<gx:coord>-110.33979749999999 24.119275500000004 6.3</gx:coord>

<when>2025-12-21T20:26:27.000Z</when>
<gx:coord>-110.33964033333332 24.119266666666665 6.8</gx:coord>

<when>2025-12-21T20:26:38.000Z</when>
<gx:coord>-110.33958816666667 24.119268166666664 7.7</gx:coord>

<when>2025-12-21T20:27:11.000Z</when>
<gx:coord>-110.33952933333333 24.11928533333333 9.2</gx:coord>

<when>2025-12-21T20:27:22.000Z</when>
<gx:coord>-110.3389065 24.119247499999997 9.5</gx:coord>

<when>2025-12-21T20:27:33.000Z</when>
<gx:coord>-110.33810016666666 24.1192165 10.7</gx:coord>

<when>2025-12-21T20:27:44.000Z</when>
<gx:coord>-110.33709566666667 24.119098333333334 11.2</gx:coord>

<when>2025-12-21T20:27:55.000Z</when>
<gx:coord>-110.33613866666668 24.118919166666668 11.3</gx:coord>

<when>2025-12-21T20:28:06.000Z</when>
<gx:coord>-110.33564316666667 24.118761499999998 11.6</gx:coord>

<when>2025-12-21T20:28:17.000Z</when>
<gx:coord>-110.33565433333334 24.118579833333335 10.5</gx:coord>

<when>2025-12-21T20:28:28.000Z</when>
<gx:coord>-110.33558900000001 24.118542166666664 6.5</gx:coord>

<when>2025-12-21T20:37:03.000Z</when>
<gx:coord>-110.33524033333333 24.118624 23.0</gx:coord>

<when>2025-12-21T20:37:13.000Z</when>
<gx:coord>-110.3348955 24.1186135 22.6</gx:coord>

<when>2025-12-21T20:37:24.000Z</when>
<gx:coord>-110.33370716666668 24.11813983333333 22.9</gx:coord>

<when>2025-12-21T20:37:35.000Z</when>
<gx:coord>-110.33245316666668 24.117458499999998 23.9</gx:coord>

<when>2025-12-21T20:37:46.000Z</when>
<gx:coord>-110.33126366666666 24.116601666666664 24.9</gx:coord>

<when>2025-12-21T20:37:57.000Z</when>
<gx:coord>-110.330178 24.11557966666667 26.1</gx:coord>

<when>2025-12-21T20:38:08.000Z</when>
<gx:coord>-110.32924916666667 24.114573166666666 27.1</gx:coord>

<when>2025-12-21T20:38:19.000Z</when>
<gx:coord>-110.32866383333334 24.11395316666667 28.5</gx:coord>

<when>2025-12-21T20:38:30.000Z</when>
<gx:coord>-110.32862483333335 24.11392166666667 29.8</gx:coord>

<when>2025-12-21T20:39:58.000Z</when>
<gx:coord>-110.32849200000001 24.113788833333334 30.0</gx:coord>

<when>2025-12-21T20:40:09.000Z</when>
<gx:coord>-110.32815666666666 24.113420166666668 30.0</gx:coord>

<when>2025-12-21T20:40:20.000Z</when>
<gx:coord>-110.32775383333335 24.112986166666662 30.1</gx:coord>

<when>2025-12-21T20:40:31.000Z</when>
<gx:coord>-110.32699499999998 24.112181833333338 30.3</gx:coord>

<when>2025-12-21T20:40:42.000Z</when>
<gx:coord>-110.3260095 24.11112066666667 30.9</gx:coord>

<when>2025-12-21T20:40:53.000Z</when>
<gx:coord>-110.32503033333333 24.110062833333338 31.7</gx:coord>

<when>2025-12-21T20:41:04.000Z</when>
<gx:coord>-110.32393533333334 24.108964333333333 31.4</gx:coord>

<when>2025-12-21T20:41:15.000Z</when>
<gx:coord>-110.32256933333335 24.1080865 32.3</gx:coord>

<when>2025-12-21T20:41:26.000Z</when>
<gx:coord>-110.3211485 24.107586333333334 33.6</gx:coord>

<when>2025-12-21T20:41:37.000Z</when>
<gx:coord>-110.31996666666667 24.107415 31.2</gx:coord>

<when>2025-12-21T20:41:48.000Z</when>
<gx:coord>-110.31977583333334 24.107406 30.7</gx:coord>

<when>2025-12-21T20:42:21.000Z</when>
<gx:coord>-110.319463 24.107400166666668 32.4</gx:coord>

<when>2025-12-21T20:42:32.000Z</when>
<gx:coord>-110.31862216666666 24.107430666666666 32.8</gx:coord>

<when>2025-12-21T20:42:43.000Z</when>
<gx:coord>-110.31741099999999 24.107502333333333 33.2</gx:coord>

<when>2025-12-21T20:42:54.000Z</when>
<gx:coord>-110.31608033333332 24.107585000000004 33.7</gx:coord>

<when>2025-12-21T20:43:05.000Z</when>
<gx:coord>-110.31480566666666 24.107676333333334 35.2</gx:coord>

<when>2025-12-21T20:43:16.000Z</when>
<gx:coord>-110.31360049999999 24.107746833333334 36.8</gx:coord>

<when>2025-12-21T20:43:27.000Z</when>
<gx:coord>-110.31262450000001 24.10780333333333 38.1</gx:coord>

<when>2025-12-21T20:43:38.000Z</when>
<gx:coord>-110.31203500000001 24.107835 39.0</gx:coord>

<when>2025-12-21T20:43:49.000Z</when>
<gx:coord>-110.31192316666666 24.10784416666667 39.0</gx:coord>

<when>2025-12-21T20:44:55.000Z</when>
<gx:coord>-110.31156766666666 24.107865999999998 39.9</gx:coord>

<when>2025-12-21T20:45:06.000Z</when>
<gx:coord>-110.31101966666665 24.10802683333333 38.9</gx:coord>

<when>2025-12-21T20:45:17.000Z</when>
<gx:coord>-110.31104500000001 24.109058333333337 38.7</gx:coord>

<when>2025-12-21T20:45:28.000Z</when>
<gx:coord>-110.31106816666667 24.110383166666665 38.2</gx:coord>

<when>2025-12-21T20:45:39.000Z</when>
<gx:coord>-110.31097966666667 24.111480500000003 38.4</gx:coord>

<when>2025-12-21T20:45:50.000Z</when>
<gx:coord>-110.31037833333333 24.1126315 40.1</gx:coord>

<when>2025-12-21T20:46:01.000Z</when>
<gx:coord>-110.30979416666666 24.113223 42.9</gx:coord>

<when>2025-12-21T20:46:14.000Z</when>
<gx:coord>-110.3090845 24.113685499999995 43.6</gx:coord>

<when>2025-12-21T20:46:25.000Z</when>
<gx:coord>-110.3077765 24.114523833333337 45.5</gx:coord>

<when>2025-12-21T20:46:36.000Z</when>
<gx:coord>-110.30702649999999 24.115006499999996 46.7</gx:coord>

<when>2025-12-21T20:46:47.000Z</when>
<gx:coord>-110.30635966666665 24.115436999999996 46.6</gx:coord>

<when>2025-12-21T20:46:58.000Z</when>
<gx:coord>-110.30521933333333 24.116170000000004 47.3</gx:coord>

<when>2025-12-21T20:47:09.000Z</when>
<gx:coord>-110.30449500000002 24.116630999999998 48.1</gx:coord>

<when>2025-12-21T20:47:20.000Z</when>
<gx:coord>-110.30386416666667 24.117038333333333 47.8</gx:coord>

<when>2025-12-21T20:47:31.000Z</when>
<gx:coord>-110.30251500000001 24.117907 50.1</gx:coord>

<when>2025-12-21T20:47:42.000Z</when>
<gx:coord>-110.300918 24.11847266666667 51.6</gx:coord>

<when>2025-12-21T20:47:53.000Z</when>
<gx:coord>-110.29898499999999 24.11877433333333 50.4</gx:coord>

<when>2025-12-21T20:48:04.000Z</when>
<gx:coord>-110.29743266666668 24.1199475 53.5</gx:coord>

<when>2025-12-21T20:48:15.000Z</when>
<gx:coord>-110.29610249999999 24.120858833333333 54.9</gx:coord>

<when>2025-12-21T20:48:26.000Z</when>
<gx:coord>-110.295275 24.121179166666668 54.9</gx:coord>

<when>2025-12-21T20:48:37.000Z</when>
<gx:coord>-110.29449000000001 24.12064133333333 53.3</gx:coord>

<when>2025-12-21T20:48:48.000Z</when>
<gx:coord>-110.29381466666668 24.119272333333335 56.4</gx:coord>

<when>2025-12-21T20:48:59.000Z</when>
<gx:coord>-110.29362966666667 24.117615999999998 57.1</gx:coord>

<when>2025-12-21T20:49:10.000Z</when>
<gx:coord>-110.293512 24.116415999999997 51.5</gx:coord>

<when>2025-12-21T20:49:21.000Z</when>
<gx:coord>-110.29345216666667 24.115757999999996 48.0</gx:coord>

<when>2025-12-21T20:49:32.000Z</when>
<gx:coord>-110.29341449999998 24.115418833333333 47.8</gx:coord>

<when>2025-12-21T20:49:43.000Z</when>
<gx:coord>-110.29334466666666 24.114792000000005 47.3</gx:coord>

<when>2025-12-21T20:49:54.000Z</when>
<gx:coord>-110.29322483333333 24.11353616666667 50.5</gx:coord>

<when>2025-12-21T20:50:05.000Z</when>
<gx:coord>-110.29306900000002 24.112281999999997 56.0</gx:coord>

<when>2025-12-21T20:50:16.000Z</when>
<gx:coord>-110.2925585 24.11094166666667 45.3</gx:coord>

<when>2025-12-21T20:50:27.000Z</when>
<gx:coord>-110.29217016666668 24.11034983333333 42.8</gx:coord>

<when>2025-12-21T20:50:38.000Z</when>
<gx:coord>-110.29194083333331 24.110055166666665 42.8</gx:coord>

<when>2025-12-21T20:50:49.000Z</when>
<gx:coord>-110.291134 24.109317166666663 50.9</gx:coord>

<when>2025-12-21T20:51:00.000Z</when>
<gx:coord>-110.28997166666667 24.108636666666666 58.8</gx:coord>

<when>2025-12-21T20:51:11.000Z</when>
<gx:coord>-110.28849483333333 24.1080555 60.1</gx:coord>

<when>2025-12-21T20:51:22.000Z</when>
<gx:coord>-110.28680783333333 24.107414166666665 65.3</gx:coord>

<when>2025-12-21T20:51:33.000Z</when>
<gx:coord>-110.28507499999999 24.106749833333332 72.9</gx:coord>

<when>2025-12-21T20:51:44.000Z</when>
<gx:coord>-110.28337383333334 24.1060975 78.6</gx:coord>

<when>2025-12-21T20:51:55.000Z</when>
<gx:coord>-110.28175366666667 24.105475833333337 76.5</gx:coord>

<when>2025-12-21T20:52:06.000Z</when>
<gx:coord>-110.28033183333334 24.10493783333333 75.3</gx:coord>

<when>2025-12-21T20:52:17.000Z</when>
<gx:coord>-110.27880400000001 24.104361833333336 79.4</gx:coord>

<when>2025-12-21T20:52:28.000Z</when>
<gx:coord>-110.27715983333334 24.1037395 82.6</gx:coord>

<when>2025-12-21T20:52:39.000Z</when>
<gx:coord>-110.27540483333333 24.103066833333333 86.3</gx:coord>

<when>2025-12-21T20:52:50.000Z</when>
<gx:coord>-110.27355600000001 24.10236183333333 91.2</gx:coord>

<when>2025-12-21T20:53:01.000Z</when>
<gx:coord>-110.27159750000001 24.101612666666664 96.4</gx:coord>

<when>2025-12-21T20:53:12.000Z</when>
<gx:coord>-110.269518 24.1008205 102.5</gx:coord>

<when>2025-12-21T20:53:23.000Z</when>
<gx:coord>-110.26731616666666 24.099976333333334 109.0</gx:coord>

<when>2025-12-21T20:53:34.000Z</when>
<gx:coord>-110.26509 24.099126833333337 116.7</gx:coord>

<when>2025-12-21T20:53:45.000Z</when>
<gx:coord>-110.26296933333333 24.0983155 124.8</gx:coord>

<when>2025-12-21T20:53:56.000Z</when>
<gx:coord>-110.2608615 24.097513499999998 133.9</gx:coord>

<when>2025-12-21T20:54:07.000Z</when>
<gx:coord>-110.25877100000001 24.096707833333333 142.8</gx:coord>

<when>2025-12-21T20:54:18.000Z</when>
<gx:coord>-110.25666966666668 24.095908 152.6</gx:coord>

<when>2025-12-21T20:54:29.000Z</when>
<gx:coord>-110.25458066666667 24.09511 161.3</gx:coord>

<when>2025-12-21T20:54:40.000Z</when>
<gx:coord>-110.25245016666668 24.094295000000002 168.0</gx:coord>

<when>2025-12-21T20:54:51.000Z</when>
<gx:coord>-110.25024616666666 24.093455666666667 176.0</gx:coord>

<when>2025-12-21T20:55:02.000Z</when>
<gx:coord>-110.24814900000001 24.092655166666667 189.1</gx:coord>

<when>2025-12-21T20:55:13.000Z</when>
<gx:coord>-110.24613316666667 24.091881833333332 199.3</gx:coord>

<when>2025-12-21T20:55:24.000Z</when>
<gx:coord>-110.24408566666668 24.091096666666665 207.4</gx:coord>

<when>2025-12-21T20:55:35.000Z</when>
<gx:coord>-110.24199016666668 24.090295 215.7</gx:coord>

<when>2025-12-21T20:55:46.000Z</when>
<gx:coord>-110.23986416666666 24.089484666666667 223.9</gx:coord>

<when>2025-12-21T20:55:57.000Z</when>
<gx:coord>-110.2377245 24.088660166666667 233.1</gx:coord>

<when>2025-12-21T20:56:08.000Z</when>
<gx:coord>-110.23556816666665 24.087840500000002 243.8</gx:coord>

<when>2025-12-21T20:56:19.000Z</when>
<gx:coord>-110.23342216666667 24.08702166666667 254.0</gx:coord>

<when>2025-12-21T20:56:30.000Z</when>
<gx:coord>-110.23123116666666 24.086184166666666 262.3</gx:coord>

<when>2025-12-21T20:56:41.000Z</when>
<gx:coord>-110.229029 24.08534366666667 272.3</gx:coord>

<when>2025-12-21T20:56:52.000Z</when>
<gx:coord>-110.22685133333334 24.084507166666672 282.7</gx:coord>

<when>2025-12-21T20:57:03.000Z</when>
<gx:coord>-110.22468383333334 24.083676 291.9</gx:coord>

<when>2025-12-21T20:57:14.000Z</when>
<gx:coord>-110.22253049999999 24.08285616666667 301.4</gx:coord>

<when>2025-12-21T20:57:25.000Z</when>
<gx:coord>-110.22036299999999 24.082031666666662 311.9</gx:coord>

<when>2025-12-21T20:57:36.000Z</when>
<gx:coord>-110.21820933333332 24.081207166666665 319.7</gx:coord>

<when>2025-12-21T20:57:47.000Z</when>
<gx:coord>-110.21590066666667 24.0803305 325.6</gx:coord>

<when>2025-12-21T20:57:58.000Z</when>
<gx:coord>-110.21359933333333 24.079443 336.5</gx:coord>

<when>2025-12-21T20:58:09.000Z</when>
<gx:coord>-110.21136083333334 24.078583333333334 348.2</gx:coord>

<when>2025-12-21T20:58:20.000Z</when>
<gx:coord>-110.209177 24.077743833333336 358.3</gx:coord>

<when>2025-12-21T20:58:31.000Z</when>
<gx:coord>-110.20684250000001 24.076856 363.5</gx:coord>

<when>2025-12-21T20:58:42.000Z</when>
<gx:coord>-110.20449750000002 24.075962333333337 372.8</gx:coord>

<when>2025-12-21T20:58:53.000Z</when>
<gx:coord>-110.20231749999999 24.07512316666667 380.6</gx:coord>

<when>2025-12-21T20:59:04.000Z</when>
<gx:coord>-110.20022966666666 24.074324833333336 387.9</gx:coord>

<when>2025-12-21T20:59:15.000Z</when>
<gx:coord>-110.19812216666666 24.073523500000004 399.8</gx:coord>

<when>2025-12-21T20:59:26.000Z</when>
<gx:coord>-110.19599533333333 24.07270583333333 405.6</gx:coord>

<when>2025-12-21T20:59:37.000Z</when>
<gx:coord>-110.193856 24.071881 412.7</gx:coord>

<when>2025-12-21T20:59:48.000Z</when>
<gx:coord>-110.19169283333333 24.071055 420.9</gx:coord>

<when>2025-12-21T20:59:59.000Z</when>
<gx:coord>-110.18962866666668 24.07026 434.0</gx:coord>

<when>2025-12-21T21:00:10.000Z</when>
<gx:coord>-110.18765 24.06947266666667 434.9</gx:coord>

<when>2025-12-21T21:00:21.000Z</when>
<gx:coord>-110.18634733333334 24.068390500000003 447.5</gx:coord>

<when>2025-12-21T21:00:32.000Z</when>
<gx:coord>-110.18499416666667 24.067664833333332 455.6</gx:coord>

<when>2025-12-21T21:00:43.000Z</when>
<gx:coord>-110.18327283333335 24.066748500000003 453.5</gx:coord>

<when>2025-12-21T21:00:54.000Z</when>
<gx:coord>-110.18142566666666 24.065769 461.7</gx:coord>

<when>2025-12-21T21:01:05.000Z</when>
<gx:coord>-110.17966333333334 24.064823 473.2</gx:coord>

<when>2025-12-21T21:01:16.000Z</when>
<gx:coord>-110.1780555 24.063920333333332 475.1</gx:coord>

<when>2025-12-21T21:01:27.000Z</when>
<gx:coord>-110.1764325 24.0628505 478.0</gx:coord>

<when>2025-12-21T21:01:38.000Z</when>
<gx:coord>-110.17482266666666 24.0617755 488.1</gx:coord>

<when>2025-12-21T21:01:49.000Z</when>
<gx:coord>-110.17321533333333 24.060690333333334 490.9</gx:coord>

<when>2025-12-21T21:02:00.000Z</when>
<gx:coord>-110.171527 24.0595565 502.4</gx:coord>

<when>2025-12-21T21:02:11.000Z</when>
<gx:coord>-110.169993 24.058645333333335 515.6</gx:coord>

<when>2025-12-21T21:02:22.000Z</when>
<gx:coord>-110.16823449999998 24.05790116666667 522.2</gx:coord>

<when>2025-12-21T21:02:33.000Z</when>
<gx:coord>-110.16641933333334 24.057144166666664 533.9</gx:coord>

<when>2025-12-21T21:02:44.000Z</when>
<gx:coord>-110.16460966666666 24.056381000000002 545.4</gx:coord>

<when>2025-12-21T21:02:55.000Z</when>
<gx:coord>-110.16285950000001 24.055642166666665 555.3</gx:coord>

<when>2025-12-21T21:03:06.000Z</when>
<gx:coord>-110.16121616666666 24.054940000000002 565.9</gx:coord>

<when>2025-12-21T21:03:17.000Z</when>
<gx:coord>-110.15967016666667 24.05429433333334 575.6</gx:coord>

<when>2025-12-21T21:03:28.000Z</when>
<gx:coord>-110.158044 24.053610499999998 583.7</gx:coord>

<when>2025-12-21T21:03:39.000Z</when>
<gx:coord>-110.15636716666668 24.052893666666666 589.4</gx:coord>

<when>2025-12-21T21:03:50.000Z</when>
<gx:coord>-110.15466366666666 24.051918999999998 594.4</gx:coord>

<when>2025-12-21T21:04:01.000Z</when>
<gx:coord>-110.15303183333332 24.050917833333333 604.9</gx:coord>

<when>2025-12-21T21:04:12.000Z</when>
<gx:coord>-110.15161099999999 24.04992083333333 601.7</gx:coord>

<when>2025-12-21T21:04:23.000Z</when>
<gx:coord>-110.15019916666667 24.048769666666665 602.8</gx:coord>

<when>2025-12-21T21:04:34.000Z</when>
<gx:coord>-110.14888649999999 24.0476635 615.1</gx:coord>

<when>2025-12-21T21:04:45.000Z</when>
<gx:coord>-110.14760733333333 24.046793333333333 629.0</gx:coord>

<when>2025-12-21T21:04:56.000Z</when>
<gx:coord>-110.14626666666666 24.045882 634.4</gx:coord>

<when>2025-12-21T21:05:07.000Z</when>
<gx:coord>-110.14469050000001 24.0447305 634.9</gx:coord>

<when>2025-12-21T21:05:18.000Z</when>
<gx:coord>-110.14297566666667 24.043776 645.7</gx:coord>

<when>2025-12-21T21:05:29.000Z</when>
<gx:coord>-110.14116116666668 24.042843166666664 651.7</gx:coord>

<when>2025-12-21T21:05:40.000Z</when>
<gx:coord>-110.13933316666667 24.041915333333336 659.8</gx:coord>

<when>2025-12-21T21:05:51.000Z</when>
<gx:coord>-110.13742883333335 24.040944666666665 659.1</gx:coord>

<when>2025-12-21T21:06:02.000Z</when>
<gx:coord>-110.13546833333334 24.039949166666663 669.7</gx:coord>

<when>2025-12-21T21:06:13.000Z</when>
<gx:coord>-110.13337066666666 24.038896833333336 669.4</gx:coord>

<when>2025-12-21T21:06:24.000Z</when>
<gx:coord>-110.13121199999999 24.037803 676.6</gx:coord>

<when>2025-12-21T21:06:35.000Z</when>
<gx:coord>-110.1292355 24.0368055 689.9</gx:coord>

<when>2025-12-21T21:06:46.000Z</when>
<gx:coord>-110.12756266666665 24.0356795 693.5</gx:coord>

<when>2025-12-21T21:06:57.000Z</when>
<gx:coord>-110.12600783333333 24.03397633333333 689.7</gx:coord>

<when>2025-12-21T21:07:08.000Z</when>
<gx:coord>-110.12443433333334 24.032264166666664 698.4</gx:coord>

<when>2025-12-21T21:07:19.000Z</when>
<gx:coord>-110.12287816666667 24.030556 695.2</gx:coord>

<when>2025-12-21T21:07:30.000Z</when>
<gx:coord>-110.12139933333334 24.029164666666663 699.5</gx:coord>

<when>2025-12-21T21:07:41.000Z</when>
<gx:coord>-110.11969716666665 24.027809333333334 687.8</gx:coord>

<when>2025-12-21T21:07:52.000Z</when>
<gx:coord>-110.11789449999999 24.02637483333333 690.7</gx:coord>

<when>2025-12-21T21:08:03.000Z</when>
<gx:coord>-110.11613083333334 24.024976999999996 692.2</gx:coord>

<when>2025-12-21T21:08:14.000Z</when>
<gx:coord>-110.11449683333333 24.023682 695.8</gx:coord>

<when>2025-12-21T21:08:25.000Z</when>
<gx:coord>-110.112874 24.0223965 688.8</gx:coord>

<when>2025-12-21T21:08:36.000Z</when>
<gx:coord>-110.11130466666667 24.021251833333334 690.6</gx:coord>

<when>2025-12-21T21:08:47.000Z</when>
<gx:coord>-110.10975366666668 24.020596166666664 689.2</gx:coord>

<when>2025-12-21T21:08:58.000Z</when>
<gx:coord>-110.10829433333335 24.0208385 679.3</gx:coord>

<when>2025-12-21T21:09:09.000Z</when>
<gx:coord>-110.10702333333332 24.021577833333335 670.8</gx:coord>

<when>2025-12-21T21:09:20.000Z</when>
<gx:coord>-110.10556216666667 24.020923166666662 659.8</gx:coord>

<when>2025-12-21T21:09:31.000Z</when>
<gx:coord>-110.10409933333334 24.019858666666664 648.4</gx:coord>

<when>2025-12-21T21:09:42.000Z</when>
<gx:coord>-110.10240116666667 24.01903616666667 639.0</gx:coord>

<when>2025-12-21T21:09:53.000Z</when>
<gx:coord>-110.10058783333334 24.018518499999995 625.8</gx:coord>

<when>2025-12-21T21:10:04.000Z</when>
<gx:coord>-110.0985275 24.018194333333334 611.4</gx:coord>

<when>2025-12-21T21:10:15.000Z</when>
<gx:coord>-110.09649716666667 24.017864833333338 605.4</gx:coord>

<when>2025-12-21T21:10:26.000Z</when>
<gx:coord>-110.094656 24.0174225 597.0</gx:coord>

<when>2025-12-21T21:10:37.000Z</when>
<gx:coord>-110.09311616666668 24.017378 586.1</gx:coord>

<when>2025-12-21T21:10:48.000Z</when>
<gx:coord>-110.09183300000001 24.018122333333334 573.2</gx:coord>

<when>2025-12-21T21:10:59.000Z</when>
<gx:coord>-110.09066266666666 24.019257333333332 560.9</gx:coord>

<when>2025-12-21T21:11:10.000Z</when>
<gx:coord>-110.08912733333334 24.019920333333335 548.9</gx:coord>

<when>2025-12-21T21:11:21.000Z</when>
<gx:coord>-110.08765583333334 24.019309833333335 541.8</gx:coord>

<when>2025-12-21T21:11:32.000Z</when>
<gx:coord>-110.08615816666666 24.01829283333333 531.7</gx:coord>

<when>2025-12-21T21:11:43.000Z</when>
<gx:coord>-110.08432450000001 24.017404666666668 516.1</gx:coord>

<when>2025-12-21T21:11:54.000Z</when>
<gx:coord>-110.082094 24.016563166666668 499.0</gx:coord>

<when>2025-12-21T21:12:05.000Z</when>
<gx:coord>-110.07981433333335 24.015691833333335 482.7</gx:coord>

<when>2025-12-21T21:12:16.000Z</when>
<gx:coord>-110.077711 24.014888333333335 468.7</gx:coord>

<when>2025-12-21T21:12:27.000Z</when>
<gx:coord>-110.07557133333333 24.014066166666666 454.2</gx:coord>

<when>2025-12-21T21:12:38.000Z</when>
<gx:coord>-110.07351500000001 24.01327216666667 438.8</gx:coord>

<when>2025-12-21T21:12:49.000Z</when>
<gx:coord>-110.07137433333334 24.01244733333333 421.4</gx:coord>

<when>2025-12-21T21:13:00.000Z</when>
<gx:coord>-110.06903633333334 24.0115445 402.1</gx:coord>

<when>2025-12-21T21:13:11.000Z</when>
<gx:coord>-110.06680499999999 24.010687 384.7</gx:coord>

<when>2025-12-21T21:13:22.000Z</when>
<gx:coord>-110.06459483333335 24.009830000000004 368.6</gx:coord>

<when>2025-12-21T21:13:33.000Z</when>
<gx:coord>-110.06262883333332 24.009063666666666 353.2</gx:coord>

<when>2025-12-21T21:13:44.000Z</when>
<gx:coord>-110.06065949999999 24.00830266666667 336.2</gx:coord>

<when>2025-12-21T21:13:55.000Z</when>
<gx:coord>-110.05854633333333 24.007481666666664 319.9</gx:coord>

<when>2025-12-21T21:14:06.000Z</when>
<gx:coord>-110.05631683333334 24.006622 308.2</gx:coord>

<when>2025-12-21T21:14:17.000Z</when>
<gx:coord>-110.05398666666666 24.005718166666664 294.7</gx:coord>

<when>2025-12-21T21:14:28.000Z</when>
<gx:coord>-110.05161000000001 24.00480583333333 281.7</gx:coord>

<when>2025-12-21T21:14:39.000Z</when>
<gx:coord>-110.04959783333334 24.004028666666667 269.1</gx:coord>

<when>2025-12-21T21:14:50.000Z</when>
<gx:coord>-110.04776116666666 24.003317833333334 257.0</gx:coord>

<when>2025-12-21T21:15:01.000Z</when>
<gx:coord>-110.0461215 24.002678 245.9</gx:coord>

<when>2025-12-21T21:15:12.000Z</when>
<gx:coord>-110.04444016666666 24.002027666666663 235.1</gx:coord>

<when>2025-12-21T21:15:23.000Z</when>
<gx:coord>-110.04258083333335 24.001311 222.8</gx:coord>

<when>2025-12-21T21:15:34.000Z</when>
<gx:coord>-110.04058266666668 24.0005385 210.3</gx:coord>

<when>2025-12-21T21:15:45.000Z</when>
<gx:coord>-110.03842633333333 23.999705333333335 196.5</gx:coord>

<when>2025-12-21T21:15:56.000Z</when>
<gx:coord>-110.03608216666667 23.998796500000005 181.5</gx:coord>

<when>2025-12-21T21:16:07.000Z</when>
<gx:coord>-110.03390599999999 23.997951333333337 167.2</gx:coord>

<when>2025-12-21T21:16:18.000Z</when>
<gx:coord>-110.03174849999999 23.997116833333333 154.3</gx:coord>

<when>2025-12-21T21:16:29.000Z</when>
<gx:coord>-110.029641 23.996299833333335 143.6</gx:coord>

<when>2025-12-21T21:16:40.000Z</when>
<gx:coord>-110.02748966666668 23.995472000000003 132.5</gx:coord>

<when>2025-12-21T21:16:51.000Z</when>
<gx:coord>-110.02526016666667 23.99460916666667 120.6</gx:coord>

<when>2025-12-21T21:17:02.000Z</when>
<gx:coord>-110.02300716666666 23.99372483333333 108.4</gx:coord>

<when>2025-12-21T21:17:13.000Z</when>
<gx:coord>-110.02094216666667 23.992918999999997 100.1</gx:coord>

<when>2025-12-21T21:17:24.000Z</when>
<gx:coord>-110.018892 23.99212016666667 92.6</gx:coord>

<when>2025-12-21T21:17:35.000Z</when>
<gx:coord>-110.01685366666668 23.991326833333332 84.5</gx:coord>

<when>2025-12-21T21:17:46.000Z</when>
<gx:coord>-110.014749 23.990509166666666 76.2</gx:coord>

<when>2025-12-21T21:17:57.000Z</when>
<gx:coord>-110.01278683333334 23.9897535 68.8</gx:coord>

<when>2025-12-21T21:18:08.000Z</when>
<gx:coord>-110.0110465 23.9890675 65.2</gx:coord>

<when>2025-12-21T21:18:19.000Z</when>
<gx:coord>-110.009359 23.988409666666666 61.3</gx:coord>

<when>2025-12-21T21:18:30.000Z</when>
<gx:coord>-110.00775133333333 23.98778483333333 58.8</gx:coord>

<when>2025-12-21T21:18:41.000Z</when>
<gx:coord>-110.00614650000001 23.987166833333337 56.0</gx:coord>

<when>2025-12-21T21:18:52.000Z</when>
<gx:coord>-110.003934 23.986331166666666 51.6</gx:coord>

<when>2025-12-21T21:19:03.000Z</when>
<gx:coord>-110.00146483333334 23.985333333333333 47.5</gx:coord>

<when>2025-12-21T21:19:14.000Z</when>
<gx:coord>-109.99916766666665 23.98442433333333 45.3</gx:coord>

<when>2025-12-21T21:19:25.000Z</when>
<gx:coord>-109.997013 23.983576166666662 42.1</gx:coord>

<when>2025-12-21T21:19:36.000Z</when>
<gx:coord>-109.99507233333334 23.982808999999996 41.9</gx:coord>

<when>2025-12-21T21:19:47.000Z</when>
<gx:coord>-109.993655 23.98225466666667 41.7</gx:coord>

<when>2025-12-21T21:19:58.000Z</when>
<gx:coord>-109.99320116666668 23.9823505 41.6</gx:coord>

<when>2025-12-21T21:20:09.000Z</when>
<gx:coord>-109.99286750000002 23.9835155 38.1</gx:coord>

<when>2025-12-21T21:20:20.000Z</when>
<gx:coord>-109.99248066666665 23.984806333333335 34.0</gx:coord>

<when>2025-12-21T21:20:31.000Z</when>
<gx:coord>-109.9920215 23.986308666666666 31.7</gx:coord>

<when>2025-12-21T21:20:42.000Z</when>
<gx:coord>-109.99154599999999 23.987917999999997 27.3</gx:coord>

<when>2025-12-21T21:20:53.000Z</when>
<gx:coord>-109.9910435 23.989658333333335 24.9</gx:coord>

<when>2025-12-21T21:21:04.000Z</when>
<gx:coord>-109.99051933333334 23.991494166666666 23.7</gx:coord>

<when>2025-12-21T21:21:15.000Z</when>
<gx:coord>-109.99000783333334 23.993286833333332 24.8</gx:coord>

<when>2025-12-21T21:21:26.000Z</when>
<gx:coord>-109.98948433333335 23.995138166666667 23.7</gx:coord>

<when>2025-12-21T21:21:37.000Z</when>
<gx:coord>-109.98894416666666 23.9970565 24.8</gx:coord>

<when>2025-12-21T21:21:48.000Z</when>
<gx:coord>-109.98841483333332 23.998995666666662 20.2</gx:coord>

<when>2025-12-21T21:21:59.000Z</when>
<gx:coord>-109.9878985 24.000897499999997 20.8</gx:coord>

<when>2025-12-21T21:22:10.000Z</when>
<gx:coord>-109.98738049999999 24.002816833333334 23.6</gx:coord>

<when>2025-12-21T21:22:21.000Z</when>
<gx:coord>-109.98683950000002 24.004837 24.9</gx:coord>

<when>2025-12-21T21:22:32.000Z</when>
<gx:coord>-109.9862725 24.006955166666664 27.4</gx:coord>

<when>2025-12-21T21:22:43.000Z</when>
<gx:coord>-109.98570133333332 24.009080166666664 27.7</gx:coord>

<when>2025-12-21T21:22:54.000Z</when>
<gx:coord>-109.985155 24.0111445 29.0</gx:coord>

<when>2025-12-21T21:23:05.000Z</when>
<gx:coord>-109.98463983333335 24.013078166666666 32.3</gx:coord>

<when>2025-12-21T21:23:16.000Z</when>
<gx:coord>-109.98445516666668 24.015028999999995 32.9</gx:coord>

<when>2025-12-21T21:23:27.000Z</when>
<gx:coord>-109.984566 24.017108666666665 32.9</gx:coord>

<when>2025-12-21T21:23:38.000Z</when>
<gx:coord>-109.98467633333333 24.019244000000004 30.0</gx:coord>

<when>2025-12-21T21:23:49.000Z</when>
<gx:coord>-109.9847945 24.021449999999998 24.1</gx:coord>

<when>2025-12-21T21:24:00.000Z</when>
<gx:coord>-109.98490616666668 24.023711000000002 21.5</gx:coord>

<when>2025-12-21T21:24:11.000Z</when>
<gx:coord>-109.98504033333332 24.025920666666668 23.8</gx:coord>

<when>2025-12-21T21:24:22.000Z</when>
<gx:coord>-109.98522399999999 24.028046333333336 26.0</gx:coord>

<when>2025-12-21T21:24:33.000Z</when>
<gx:coord>-109.98540583333333 24.03002916666667 28.8</gx:coord>

<when>2025-12-21T21:24:44.000Z</when>
<gx:coord>-109.98563166666666 24.032054666666667 26.5</gx:coord>

<when>2025-12-21T21:24:55.000Z</when>
<gx:coord>-109.98591716666667 24.034147 27.9</gx:coord>

<when>2025-12-21T21:25:06.000Z</when>
<gx:coord>-109.9862125 24.036014 32.2</gx:coord>

<when>2025-12-21T21:25:17.000Z</when>
<gx:coord>-109.98668966666668 24.0379185 14.5</gx:coord>

<when>2025-12-21T21:25:28.000Z</when>
<gx:coord>-109.98715583333333 24.039715500000003 21.2</gx:coord>

<when>2025-12-21T21:25:39.000Z</when>
<gx:coord>-109.98752516666667 24.041147500000005 20.7</gx:coord>

<when>2025-12-21T21:25:50.000Z</when>
<gx:coord>-109.98788683333332 24.042571 17.9</gx:coord>

<when>2025-12-21T21:26:01.000Z</when>
<gx:coord>-109.98824799999998 24.043870833333337 16.3</gx:coord>

<when>2025-12-21T21:26:12.000Z</when>
<gx:coord>-109.98854566666665 24.044911666666668 18.4</gx:coord>

<when>2025-12-21T21:26:23.000Z</when>
<gx:coord>-109.98865783333333 24.045310333333337 19.9</gx:coord>

<when>2025-12-21T21:26:34.000Z</when>
<gx:coord>-109.98878583333332 24.045772166666666 19.2</gx:coord>

<when>2025-12-21T21:26:45.000Z</when>
<gx:coord>-109.98897433333335 24.046451 18.7</gx:coord>

<when>2025-12-21T21:26:56.000Z</when>
<gx:coord>-109.98910849999999 24.04677333333333 16.7</gx:coord>

<when>2025-12-21T21:27:07.000Z</when>
<gx:coord>-109.98918516666666 24.04674766666667 14.4</gx:coord>

<when>2025-12-21T22:32:31.000Z</when>
<gx:coord>-109.98916933333334 24.04669933333333 0.0</gx:coord>

<when>2025-12-21T22:32:53.000Z</when>
<gx:coord>-109.98914816666665 24.046788 19.9</gx:coord>

<when>2025-12-21T22:33:04.000Z</when>
<gx:coord>-109.98910599999999 24.046863999999996 17.0</gx:coord>

<when>2025-12-21T22:33:15.000Z</when>
<gx:coord>-109.98913716666667 24.04714166666667 13.2</gx:coord>

<when>2025-12-21T22:33:26.000Z</when>
<gx:coord>-109.98918933333334 24.047393000000003 10.8</gx:coord>

<when>2025-12-21T22:33:37.000Z</when>
<gx:coord>-109.98927450000001 24.047673333333332 12.5</gx:coord>

<when>2025-12-21T22:33:48.000Z</when>
<gx:coord>-109.98933600000001 24.047880499999998 13.4</gx:coord>

<when>2025-12-21T22:33:59.000Z</when>
<gx:coord>-109.98948766666666 24.0483995 13.9</gx:coord>

<when>2025-12-21T22:34:10.000Z</when>
<gx:coord>-109.98957216666668 24.048720499999998 12.6</gx:coord>

<when>2025-12-21T22:34:21.000Z</when>
<gx:coord>-109.98967749999998 24.049105500000003 12.9</gx:coord>

<when>2025-12-21T22:34:32.000Z</when>
<gx:coord>-109.98986983333334 24.0497505 14.0</gx:coord>

<when>2025-12-21T22:34:43.000Z</when>
<gx:coord>-109.99012333333333 24.05078116666667 19.0</gx:coord>

<when>2025-12-21T22:34:54.000Z</when>
<gx:coord>-109.990103 24.051281666666668 20.6</gx:coord>

<when>2025-12-21T22:35:05.000Z</when>
<gx:coord>-109.99004216666665 24.051771666666664 21.1</gx:coord>

<when>2025-12-21T22:35:16.000Z</when>
<gx:coord>-109.98990350000001 24.052621833333333 18.7</gx:coord>

<when>2025-12-21T22:35:27.000Z</when>
<gx:coord>-109.98985483333333 24.05287033333333 18.3</gx:coord>

<when>2025-12-21T22:35:38.000Z</when>
<gx:coord>-109.98976016666666 24.053468 17.2</gx:coord>

<when>2025-12-21T22:35:49.000Z</when>
<gx:coord>-109.98969549999998 24.053869666666667 16.8</gx:coord>

<when>2025-12-21T22:36:00.000Z</when>
<gx:coord>-109.98963499999999 24.054148166666664 16.2</gx:coord>

<when>2025-12-21T22:36:11.000Z</when>
<gx:coord>-109.98956083333333 24.05422866666667 15.2</gx:coord>

<when>2025-12-21T22:36:33.000Z</when>
<gx:coord>-109.98945033333332 24.05429566666667 12.6</gx:coord>

<when>2025-12-21T22:36:44.000Z</when>
<gx:coord>-109.98944349999998 24.0544045 11.1</gx:coord>

<when>2025-12-21T22:36:55.000Z</when>
<gx:coord>-109.98943749999998 24.054473666666663 11.6</gx:coord>

<when>2025-12-21T22:49:33.000Z</when>
<gx:coord>-109.98940149999999 24.054457499999998 6.9</gx:coord>

<when>2025-12-21T22:50:16.000Z</when>
<gx:coord>-109.98943833333333 24.05440566666667 9.4</gx:coord>

<when>2025-12-21T22:50:38.000Z</when>
<gx:coord>-109.9894635 24.054312166666666 10.0</gx:coord>

<when>2025-12-21T22:50:49.000Z</when>
<gx:coord>-109.98940166666668 24.054280499999997 7.7</gx:coord>

<when>2025-12-21T22:51:00.000Z</when>
<gx:coord>-109.989329 24.054290666666663 8.6</gx:coord>

<when>2025-12-21T22:51:44.000Z</when>
<gx:coord>-109.98948433333335 24.054246166666665 5.0</gx:coord>

<when>2025-12-21T22:51:55.000Z</when>
<gx:coord>-109.98961283333334 24.0542885 6.6</gx:coord>

<when>2025-12-21T22:52:06.000Z</when>
<gx:coord>-109.98955149999999 24.05463633333333 6.0</gx:coord>

<when>2025-12-21T22:52:17.000Z</when>
<gx:coord>-109.98948133333333 24.05508466666667 4.0</gx:coord>

<when>2025-12-21T22:52:28.000Z</when>
<gx:coord>-109.98939733333333 24.055964499999998 6.2</gx:coord>

<when>2025-12-21T22:52:39.000Z</when>
<gx:coord>-109.98946733333332 24.05677316666667 7.6</gx:coord>

<when>2025-12-21T22:52:50.000Z</when>
<gx:coord>-109.98973099999999 24.057387499999997 8.8</gx:coord>

<when>2025-12-21T22:53:01.000Z</when>
<gx:coord>-109.990102 24.058055500000002 12.8</gx:coord>

<when>2025-12-21T22:53:12.000Z</when>
<gx:coord>-109.99053416666666 24.058832999999996 21.4</gx:coord>

<when>2025-12-21T22:53:23.000Z</when>
<gx:coord>-109.99094666666666 24.059552999999998 23.8</gx:coord>

<when>2025-12-21T22:53:34.000Z</when>
<gx:coord>-109.9913715 24.06029416666667 25.4</gx:coord>

<when>2025-12-21T22:53:45.000Z</when>
<gx:coord>-109.99184183333334 24.06111483333333 25.8</gx:coord>

<when>2025-12-21T22:53:56.000Z</when>
<gx:coord>-109.99224466666668 24.06194683333333 27.2</gx:coord>

<when>2025-12-21T22:54:07.000Z</when>
<gx:coord>-109.99234466666667 24.062864833333332 29.9</gx:coord>

<when>2025-12-21T22:54:18.000Z</when>
<gx:coord>-109.99236199999999 24.06382066666667 32.0</gx:coord>

<when>2025-12-21T22:54:29.000Z</when>
<gx:coord>-109.99237149999999 24.064500666666664 33.2</gx:coord>

<when>2025-12-21T22:54:40.000Z</when>
<gx:coord>-109.99237616666666 24.064745500000004 34.5</gx:coord>

<when>2025-12-21T22:54:51.000Z</when>
<gx:coord>-109.99238199999999 24.065307500000003 33.6</gx:coord>

<when>2025-12-21T22:55:02.000Z</when>
<gx:coord>-109.99238516666668 24.066035166666666 32.8</gx:coord>

<when>2025-12-21T22:55:13.000Z</when>
<gx:coord>-109.9923845 24.066799 32.2</gx:coord>

<when>2025-12-21T22:55:24.000Z</when>
<gx:coord>-109.992383 24.067573 31.6</gx:coord>

<when>2025-12-21T22:55:35.000Z</when>
<gx:coord>-109.99237916666668 24.067915833333338 32.1</gx:coord>

<when>2025-12-21T22:55:46.000Z</when>
<gx:coord>-109.99238366666665 24.068338833333335 32.7</gx:coord>

<when>2025-12-21T22:55:57.000Z</when>
<gx:coord>-109.99238849999999 24.0690435 33.2</gx:coord>

<when>2025-12-21T22:56:08.000Z</when>
<gx:coord>-109.99239250000001 24.0697425 33.3</gx:coord>

<when>2025-12-21T22:56:19.000Z</when>
<gx:coord>-109.992398 24.07012033333333 32.9</gx:coord>

<when>2025-12-21T22:56:30.000Z</when>
<gx:coord>-109.99240816666666 24.070663666666665 32.9</gx:coord>

<when>2025-12-21T22:56:41.000Z</when>
<gx:coord>-109.99241166666667 24.0712185 33.3</gx:coord>

<when>2025-12-21T22:56:52.000Z</when>
<gx:coord>-109.99242383333333 24.07177733333333 33.1</gx:coord>

<when>2025-12-21T22:57:03.000Z</when>
<gx:coord>-109.99242566666665 24.072200833333333 33.0</gx:coord>

<when>2025-12-21T22:57:14.000Z</when>
<gx:coord>-109.99242916666665 24.072806333333332 32.6</gx:coord>

<when>2025-12-21T22:57:25.000Z</when>
<gx:coord>-109.99244616666668 24.07353666666667 31.0</gx:coord>

<when>2025-12-21T22:57:36.000Z</when>
<gx:coord>-109.99246266666665 24.074276666666666 29.3</gx:coord>

<when>2025-12-21T22:57:47.000Z</when>
<gx:coord>-109.99246733333332 24.07459216666667 28.3</gx:coord>

<when>2025-12-21T22:57:58.000Z</when>
<gx:coord>-109.99249066666668 24.075081333333333 26.9</gx:coord>

<when>2025-12-21T22:58:09.000Z</when>
<gx:coord>-109.99255883333332 24.075702999999997 25.5</gx:coord>

<when>2025-12-21T22:58:20.000Z</when>
<gx:coord>-109.99263449999998 24.0763375 25.4</gx:coord>

<when>2025-12-21T22:58:31.000Z</when>
<gx:coord>-109.99266616666667 24.0766195 25.5</gx:coord>

<when>2025-12-21T22:58:42.000Z</when>
<gx:coord>-109.99273066666667 24.07722216666667 24.3</gx:coord>

<when>2025-12-21T22:58:53.000Z</when>
<gx:coord>-109.9928055 24.077909666666663 23.5</gx:coord>

<when>2025-12-21T22:59:04.000Z</when>
<gx:coord>-109.99287350000002 24.078620500000003 21.5</gx:coord>

<when>2025-12-21T22:59:15.000Z</when>
<gx:coord>-109.99291933333333 24.07925116666667 19.7</gx:coord>

<when>2025-12-21T22:59:26.000Z</when>
<gx:coord>-109.99292716666666 24.07977316666667 18.1</gx:coord>

<when>2025-12-21T22:59:37.000Z</when>
<gx:coord>-109.99293983333334 24.0803415 16.3</gx:coord>

<when>2025-12-21T22:59:48.000Z</when>
<gx:coord>-109.9929655 24.080809999999996 15.3</gx:coord>

<when>2025-12-21T22:59:59.000Z</when>
<gx:coord>-109.99300333333333 24.081304666666664 11.8</gx:coord>

<when>2025-12-21T23:00:10.000Z</when>
<gx:coord>-109.99303516666666 24.081727 10.0</gx:coord>

<when>2025-12-21T23:00:21.000Z</when>
<gx:coord>-109.99302199999998 24.081961833333335 9.3</gx:coord>

<when>2025-12-21T23:00:32.000Z</when>
<gx:coord>-109.99294300000001 24.08196366666667 7.8</gx:coord>

<when>2025-12-21T23:00:54.000Z</when>
<gx:coord>-109.99291916666668 24.081894166666665 7.7</gx:coord>

<when>2025-12-21T23:01:05.000Z</when>
<gx:coord>-109.99289066666667 24.08170433333333 4.0</gx:coord>

<when>2025-12-21T23:01:16.000Z</when>
<gx:coord>-109.99285816666666 24.081531166666664 2.1</gx:coord>

<when>2025-12-21T23:01:27.000Z</when>
<gx:coord>-109.992808 24.08125283333333 3.9</gx:coord>

<when>2025-12-21T23:01:38.000Z</when>
<gx:coord>-109.99276133333333 24.081019333333334 2.7</gx:coord>

<when>2025-12-21T23:01:49.000Z</when>
<gx:coord>-109.99275033333333 24.08092333333333 3.6</gx:coord>

<when>2025-12-21T23:22:49.000Z</when>
<gx:coord>-109.99282866666665 24.081190999999997 0.0</gx:coord>

<when>2025-12-21T23:23:00.000Z</when>
<gx:coord>-109.99278000000001 24.081229999999998 14.4</gx:coord>

<when>2025-12-21T23:23:22.000Z</when>
<gx:coord>-109.99275116666668 24.081272 10.4</gx:coord>

<when>2025-12-21T23:23:44.000Z</when>
<gx:coord>-109.99282 24.081231499999998 19.4</gx:coord>

<when>2025-12-21T23:23:55.000Z</when>
<gx:coord>-109.99286116666666 24.081579 14.8</gx:coord>

<when>2025-12-21T23:24:06.000Z</when>
<gx:coord>-109.99293100000001 24.081878 9.7</gx:coord>

<when>2025-12-21T23:24:17.000Z</when>
<gx:coord>-109.9930155 24.082028166666667 9.1</gx:coord>

<when>2025-12-21T23:24:28.000Z</when>
<gx:coord>-109.99303316666668 24.082743833333332 10.1</gx:coord>

<when>2025-12-21T23:24:39.000Z</when>
<gx:coord>-109.993023 24.083092833333332 10.7</gx:coord>

<when>2025-12-21T23:24:50.000Z</when>
<gx:coord>-109.99337933333332 24.083241166666667 10.1</gx:coord>

<when>2025-12-21T23:25:01.000Z</when>
<gx:coord>-109.99364833333333 24.0833015 16.4</gx:coord>

<when>2025-12-21T23:25:12.000Z</when>
<gx:coord>-109.99374483333334 24.083723833333337 12.6</gx:coord>

<when>2025-12-21T23:25:23.000Z</when>
<gx:coord>-109.99381466666667 24.08401516666667 5.2</gx:coord>

<when>2025-12-21T23:25:34.000Z</when>
<gx:coord>-109.99402666666668 24.08455616666667 0.9</gx:coord>

<when>2025-12-21T23:25:45.000Z</when>
<gx:coord>-109.99424316666666 24.084963833333337 8.1</gx:coord>

<when>2025-12-21T23:25:56.000Z</when>
<gx:coord>-109.99443850000002 24.085338666666665 11.2</gx:coord>

<when>2025-12-21T23:26:07.000Z</when>
<gx:coord>-109.99474733333334 24.086000833333333 16.9</gx:coord>

<when>2025-12-22T00:10:10.000Z</when>
<gx:coord>-109.99501366666667 24.08657 32.8</gx:coord>

<when>2025-12-22T00:11:27.000Z</when>
<gx:coord>-109.99507450000002 24.086828666666666 26.7</gx:coord>

<when>2025-12-22T00:11:38.000Z</when>
<gx:coord>-109.99513350000001 24.08686133333333 26.6</gx:coord>

<when>2025-12-22T00:11:49.000Z</when>
<gx:coord>-109.99520916666667 24.086834666666665 27.2</gx:coord>

<when>2025-12-22T00:12:11.000Z</when>
<gx:coord>-109.99515583333331 24.08672 27.9</gx:coord>

<when>2025-12-22T00:12:22.000Z</when>
<gx:coord>-109.99514533333334 24.086660166666668 29.0</gx:coord>

<when>2025-12-22T00:12:33.000Z</when>
<gx:coord>-109.99503716666668 24.086486666666662 26.2</gx:coord>

<when>2025-12-22T00:12:44.000Z</when>
<gx:coord>-109.99488283333334 24.086178333333336 24.1</gx:coord>

<when>2025-12-22T00:12:55.000Z</when>
<gx:coord>-109.99474299999999 24.085855999999996 22.2</gx:coord>

<when>2025-12-22T00:13:06.000Z</when>
<gx:coord>-109.99459399999999 24.085512666666666 21.3</gx:coord>

<when>2025-12-22T00:13:17.000Z</when>
<gx:coord>-109.99442133333332 24.085118166666668 18.3</gx:coord>

<when>2025-12-22T00:13:28.000Z</when>
<gx:coord>-109.99428316666666 24.084819166666662 16.9</gx:coord>

<when>2025-12-22T00:13:39.000Z</when>
<gx:coord>-109.99402866666667 24.084285666666666 14.3</gx:coord>

<when>2025-12-22T00:13:50.000Z</when>
<gx:coord>-109.99390066666668 24.0839195 13.8</gx:coord>

<when>2025-12-22T00:14:01.000Z</when>
<gx:coord>-109.99378283333333 24.083439 14.0</gx:coord>

<when>2025-12-22T00:14:12.000Z</when>
<gx:coord>-109.9933895 24.083226833333335 15.1</gx:coord>

<when>2025-12-22T00:14:23.000Z</when>
<gx:coord>-109.99311333333331 24.08306 16.3</gx:coord>

<when>2025-12-22T00:14:34.000Z</when>
<gx:coord>-109.993124 24.08272583333333 15.2</gx:coord>

<when>2025-12-22T00:14:45.000Z</when>
<gx:coord>-109.99311683333332 24.082217999999997 13.3</gx:coord>

<when>2025-12-22T00:14:56.000Z</when>
<gx:coord>-109.99294583333334 24.081925500000004 13.1</gx:coord>

<when>2025-12-22T00:15:07.000Z</when>
<gx:coord>-109.99285366666666 24.081556 12.0</gx:coord>

<when>2025-12-22T00:15:18.000Z</when>
<gx:coord>-109.99279216666667 24.081226833333336 14.4</gx:coord>

<when>2025-12-22T00:15:29.000Z</when>
<gx:coord>-109.99268283333335 24.08088283333333 15.1</gx:coord>

<when>2025-12-22T00:15:40.000Z</when>
<gx:coord>-109.99258916666668 24.080604666666666 14.7</gx:coord>

<when>2025-12-22T00:15:51.000Z</when>
<gx:coord>-109.99245049999999 24.080314666666663 13.4</gx:coord>

<when>2025-12-22T00:16:02.000Z</when>
<gx:coord>-109.99232033333334 24.079991333333336 13.3</gx:coord>

<when>2025-12-22T00:16:13.000Z</when>
<gx:coord>-109.99215216666668 24.07973516666667 11.0</gx:coord>

<when>2025-12-22T00:16:24.000Z</when>
<gx:coord>-109.99204383333333 24.07944433333333 10.3</gx:coord>

<when>2025-12-22T00:16:35.000Z</when>
<gx:coord>-109.99191033333334 24.079280333333333 9.2</gx:coord>

<when>2025-12-22T00:16:46.000Z</when>
<gx:coord>-109.99185683333332 24.079280333333333 9.1</gx:coord>

<when>2025-12-22T00:18:14.000Z</when>
<gx:coord>-109.99180333333334 24.079273833333332 16.2</gx:coord>

<when>2025-12-22T00:22:16.000Z</when>
<gx:coord>-109.99185199999998 24.079261166666665 7.8</gx:coord>

<when>2025-12-22T00:53:42.000Z</when>
<gx:coord>-109.99195666666668 24.079243833333333 -5.8</gx:coord>

<when>2025-12-22T00:54:15.000Z</when>
<gx:coord>-109.99189683333334 24.079262499999995 3.6</gx:coord>
</gx:Track>
</Placemark></Document></kml>
