<?xml version="1.0" encoding="UTF-8"?><kml xmlns="http://www.opengis.net/kml/2.2" xmlns:gx="http://www.google.com/kml/ext/2.2" xmlns:kml="http://www.opengis.net/kml/2.2" xmlns:atom="http://www.w3.org/2005/Atom"><Document><name>2025-12-16T22:25:01.000Z</name>
<Placemark>
<gx:Track>

<when>2025-12-16T22:25:01.000Z</when>
<gx:coord>-114.83382133333335 31.0190665 0.0</gx:coord>

<when>2025-12-16T22:25:35.000Z</when>
<gx:coord>-114.83388533333333 31.019078166666667 8.9</gx:coord>

<when>2025-12-16T22:27:14.000Z</when>
<gx:coord>-114.83389183333333 31.01902583333333 8.1</gx:coord>

<when>2025-12-16T22:28:20.000Z</when>
<gx:coord>-114.8338385 31.019019166666666 10.4</gx:coord>

<when>2025-12-16T22:31:16.000Z</when>
<gx:coord>-114.83387533333334 31.01905433333333 12.4</gx:coord>

<when>2025-12-16T22:32:44.000Z</when>
<gx:coord>-114.83398883333332 31.019067166666666 7.3</gx:coord>

<when>2025-12-16T22:32:55.000Z</when>
<gx:coord>-114.834051 31.019070499999998 10.4</gx:coord>

<when>2025-12-16T22:33:06.000Z</when>
<gx:coord>-114.83411933333333 31.019104666666667 12.1</gx:coord>

<when>2025-12-16T22:33:17.000Z</when>
<gx:coord>-114.83416233333334 31.019134 15.5</gx:coord>

<when>2025-12-16T22:33:50.000Z</when>
<gx:coord>-114.83421600000001 31.019195666666665 18.4</gx:coord>

<when>2025-12-16T22:34:23.000Z</when>
<gx:coord>-114.83431033333333 31.019181166666666 14.1</gx:coord>

<when>2025-12-16T22:34:34.000Z</when>
<gx:coord>-114.83450466666666 31.019230333333333 10.8</gx:coord>

<when>2025-12-16T22:34:47.000Z</when>
<gx:coord>-114.83472633333334 31.01930033333333 5.9</gx:coord>

<when>2025-12-16T22:34:58.000Z</when>
<gx:coord>-114.83489583333333 31.019356333333334 2.2</gx:coord>

<when>2025-12-16T22:35:09.000Z</when>
<gx:coord>-114.83502833333333 31.019420833333335 0.3</gx:coord>

<when>2025-12-16T22:35:20.000Z</when>
<gx:coord>-114.83525399999999 31.019161500000003 1.1</gx:coord>

<when>2025-12-16T22:35:31.000Z</when>
<gx:coord>-114.83560966666667 31.018319833333333 1.9</gx:coord>

<when>2025-12-16T22:35:42.000Z</when>
<gx:coord>-114.83598883333335 31.017416000000004 2.6</gx:coord>

<when>2025-12-16T22:35:53.000Z</when>
<gx:coord>-114.83608449999998 31.016616833333334 -1.5</gx:coord>

<when>2025-12-16T22:36:04.000Z</when>
<gx:coord>-114.83608983333333 31.015877 -4.8</gx:coord>

<when>2025-12-16T22:36:15.000Z</when>
<gx:coord>-114.83625116666666 31.015766 -2.0</gx:coord>

<when>2025-12-16T22:36:26.000Z</when>
<gx:coord>-114.83680716666667 31.015768 -1.2</gx:coord>

<when>2025-12-16T22:36:37.000Z</when>
<gx:coord>-114.83792233333334 31.0157735 6.3</gx:coord>

<when>2025-12-16T22:36:48.000Z</when>
<gx:coord>-114.8391045 31.015763666666665 10.9</gx:coord>

<when>2025-12-16T22:36:59.000Z</when>
<gx:coord>-114.83997433333334 31.015751333333334 13.5</gx:coord>

<when>2025-12-16T22:37:10.000Z</when>
<gx:coord>-114.840335 31.015762000000002 14.4</gx:coord>

<when>2025-12-16T22:37:21.000Z</when>
<gx:coord>-114.84082400000001 31.015770166666666 15.1</gx:coord>

<when>2025-12-16T22:37:32.000Z</when>
<gx:coord>-114.84187216666666 31.01574366666667 15.8</gx:coord>

<when>2025-12-16T22:37:43.000Z</when>
<gx:coord>-114.84272600000001 31.01547233333333 16.9</gx:coord>

<when>2025-12-16T22:37:54.000Z</when>
<gx:coord>-114.84306116666667 31.015493999999997 16.0</gx:coord>

<when>2025-12-16T22:38:05.000Z</when>
<gx:coord>-114.84342633333333 31.01538966666667 16.7</gx:coord>

<when>2025-12-16T22:38:16.000Z</when>
<gx:coord>-114.84342916666668 31.015237166666665 16.6</gx:coord>

<when>2025-12-16T22:38:49.000Z</when>
<gx:coord>-114.84345016666666 31.01535366666667 25.2</gx:coord>

<when>2025-12-16T22:39:00.000Z</when>
<gx:coord>-114.84342833333334 31.015445500000002 24.6</gx:coord>

<when>2025-12-16T22:39:11.000Z</when>
<gx:coord>-114.84340466666666 31.015521666666668 24.8</gx:coord>

<when>2025-12-16T22:39:22.000Z</when>
<gx:coord>-114.84340716666665 31.01559483333333 25.0</gx:coord>

<when>2025-12-16T22:39:33.000Z</when>
<gx:coord>-114.84344333333333 31.015654166666664 24.9</gx:coord>

<when>2025-12-16T22:46:55.000Z</when>
<gx:coord>-114.84330183333334 31.013357333333335 0.0</gx:coord>

<when>2025-12-16T22:47:06.000Z</when>
<gx:coord>-114.84342 31.012172333333336 24.4</gx:coord>

<when>2025-12-16T22:47:17.000Z</when>
<gx:coord>-114.84350366666668 31.011257999999998 25.3</gx:coord>

<when>2025-12-16T22:47:28.000Z</when>
<gx:coord>-114.8433025 31.010127833333332 26.3</gx:coord>

<when>2025-12-16T22:47:39.000Z</when>
<gx:coord>-114.84247400000001 31.009107166666663 26.0</gx:coord>

<when>2025-12-16T22:47:50.000Z</when>
<gx:coord>-114.84123916666667 31.008322666666665 26.5</gx:coord>

<when>2025-12-16T22:48:01.000Z</when>
<gx:coord>-114.84003083333333 31.0075695 27.6</gx:coord>

<when>2025-12-16T22:48:12.000Z</when>
<gx:coord>-114.839222 31.0067165 25.4</gx:coord>

<when>2025-12-16T22:48:23.000Z</when>
<gx:coord>-114.83905083333333 31.005779666666665 20.9</gx:coord>

<when>2025-12-16T22:48:34.000Z</when>
<gx:coord>-114.83898366666666 31.004615833333332 19.3</gx:coord>

<when>2025-12-16T22:48:45.000Z</when>
<gx:coord>-114.83837133333333 31.003370166666667 21.1</gx:coord>

<when>2025-12-16T22:48:56.000Z</when>
<gx:coord>-114.83744316666667 31.002066833333334 27.6</gx:coord>

<when>2025-12-16T22:49:07.000Z</when>
<gx:coord>-114.83708916666667 31.000681999999998 27.7</gx:coord>

<when>2025-12-16T22:49:18.000Z</when>
<gx:coord>-114.83674933333332 30.999315000000003 28.4</gx:coord>

<when>2025-12-16T22:49:29.000Z</when>
<gx:coord>-114.83637900000001 30.99781683333333 34.5</gx:coord>

<when>2025-12-16T22:49:40.000Z</when>
<gx:coord>-114.83599216666668 30.996250166666663 36.3</gx:coord>

<when>2025-12-16T22:49:51.000Z</when>
<gx:coord>-114.83561999999999 30.994777666666664 34.8</gx:coord>

<when>2025-12-16T22:50:02.000Z</when>
<gx:coord>-114.83461899999999 30.993561 31.0</gx:coord>

<when>2025-12-16T22:50:13.000Z</when>
<gx:coord>-114.83317816666667 30.992597333333332 22.8</gx:coord>

<when>2025-12-16T22:50:24.000Z</when>
<gx:coord>-114.8316255 30.991554166666667 14.0</gx:coord>

<when>2025-12-16T22:50:35.000Z</when>
<gx:coord>-114.82999116666666 30.99044366666667 13.3</gx:coord>

<when>2025-12-16T22:50:46.000Z</when>
<gx:coord>-114.82858383333333 30.989373999999998 19.1</gx:coord>

<when>2025-12-16T22:50:57.000Z</when>
<gx:coord>-114.82751816666665 30.988062333333332 19.7</gx:coord>

<when>2025-12-16T22:51:08.000Z</when>
<gx:coord>-114.8263345 30.986689000000002 19.4</gx:coord>

<when>2025-12-16T22:51:19.000Z</when>
<gx:coord>-114.82456500000002 30.985833166666666 16.1</gx:coord>

<when>2025-12-16T22:51:30.000Z</when>
<gx:coord>-114.82263983333333 30.98507983333333 11.8</gx:coord>

<when>2025-12-16T22:51:41.000Z</when>
<gx:coord>-114.82096516666667 30.98402866666667 7.6</gx:coord>

<when>2025-12-16T22:51:52.000Z</when>
<gx:coord>-114.81923916666668 30.98290683333333 8.1</gx:coord>

<when>2025-12-16T22:52:03.000Z</when>
<gx:coord>-114.81748950000001 30.981758 11.5</gx:coord>

<when>2025-12-16T22:52:14.000Z</when>
<gx:coord>-114.81565616666667 30.980568666666667 13.4</gx:coord>

<when>2025-12-16T22:52:25.000Z</when>
<gx:coord>-114.81380116666666 30.979406499999996 16.6</gx:coord>

<when>2025-12-16T22:52:36.000Z</when>
<gx:coord>-114.81187083333334 30.978254 14.4</gx:coord>

<when>2025-12-16T22:52:47.000Z</when>
<gx:coord>-114.80996283333334 30.977101333333334 14.5</gx:coord>

<when>2025-12-16T22:52:58.000Z</when>
<gx:coord>-114.80793100000001 30.97588466666667 13.9</gx:coord>

<when>2025-12-16T22:53:09.000Z</when>
<gx:coord>-114.80591766666666 30.97468216666667 15.9</gx:coord>

<when>2025-12-16T22:53:20.000Z</when>
<gx:coord>-114.80401483333331 30.973547 16.9</gx:coord>

<when>2025-12-16T22:53:31.000Z</when>
<gx:coord>-114.802076 30.97239516666667 18.3</gx:coord>

<when>2025-12-16T22:53:42.000Z</when>
<gx:coord>-114.80018083333334 30.971162166666666 17.6</gx:coord>

<when>2025-12-16T22:53:53.000Z</when>
<gx:coord>-114.79830183333334 30.969908166666663 16.7</gx:coord>

<when>2025-12-16T22:54:04.000Z</when>
<gx:coord>-114.79654000000001 30.968663833333334 20.1</gx:coord>

<when>2025-12-16T22:54:15.000Z</when>
<gx:coord>-114.79491383333334 30.967268833333332 25.1</gx:coord>

<when>2025-12-16T22:54:26.000Z</when>
<gx:coord>-114.79363766666665 30.9661935 23.3</gx:coord>

<when>2025-12-16T22:54:37.000Z</when>
<gx:coord>-114.79233683333332 30.964994333333333 24.1</gx:coord>

<when>2025-12-16T22:54:48.000Z</when>
<gx:coord>-114.79116566666669 30.963795833333332 22.3</gx:coord>

<when>2025-12-16T22:54:59.000Z</when>
<gx:coord>-114.78989466666665 30.96261233333333 14.5</gx:coord>

<when>2025-12-16T22:55:10.000Z</when>
<gx:coord>-114.7888935 30.9609405 10.7</gx:coord>

<when>2025-12-16T22:55:21.000Z</when>
<gx:coord>-114.78870466666667 30.959305000000004 13.4</gx:coord>

<when>2025-12-16T22:55:32.000Z</when>
<gx:coord>-114.78942533333333 30.95779616666667 13.8</gx:coord>

<when>2025-12-16T22:55:43.000Z</when>
<gx:coord>-114.78953083333333 30.956945000000005 16.3</gx:coord>

<when>2025-12-16T22:55:54.000Z</when>
<gx:coord>-114.78821799999999 30.956575666666662 14.1</gx:coord>

<when>2025-12-16T22:56:05.000Z</when>
<gx:coord>-114.78617166666666 30.95609716666667 12.3</gx:coord>

<when>2025-12-16T22:56:16.000Z</when>
<gx:coord>-114.78400833333332 30.955602999999996 11.7</gx:coord>

<when>2025-12-16T22:56:27.000Z</when>
<gx:coord>-114.78178916666666 30.955092166666667 10.5</gx:coord>

<when>2025-12-16T22:56:38.000Z</when>
<gx:coord>-114.77940349999999 30.954546166666667 13.5</gx:coord>

<when>2025-12-16T22:56:49.000Z</when>
<gx:coord>-114.77701316666668 30.9540115 17.3</gx:coord>

<when>2025-12-16T22:57:00.000Z</when>
<gx:coord>-114.77448066666666 30.95358233333333 15.3</gx:coord>

<when>2025-12-16T22:57:11.000Z</when>
<gx:coord>-114.77194349999999 30.95313983333333 18.8</gx:coord>

<when>2025-12-16T22:57:22.000Z</when>
<gx:coord>-114.76946716666667 30.95268 20.5</gx:coord>

<when>2025-12-16T22:57:33.000Z</when>
<gx:coord>-114.766963 30.952200500000004 22.9</gx:coord>

<when>2025-12-16T22:57:44.000Z</when>
<gx:coord>-114.76461533333334 30.951757166666667 25.8</gx:coord>

<when>2025-12-16T22:57:55.000Z</when>
<gx:coord>-114.76263150000001 30.95108733333333 27.7</gx:coord>

<when>2025-12-16T22:58:06.000Z</when>
<gx:coord>-114.76051450000001 30.950099833333336 30.0</gx:coord>

<when>2025-12-16T22:58:17.000Z</when>
<gx:coord>-114.75816449999999 30.94902516666667 25.7</gx:coord>

<when>2025-12-16T22:58:28.000Z</when>
<gx:coord>-114.75577633333333 30.94799233333333 29.4</gx:coord>

<when>2025-12-16T22:58:39.000Z</when>
<gx:coord>-114.7533325 30.94706516666667 30.3</gx:coord>

<when>2025-12-16T22:58:50.000Z</when>
<gx:coord>-114.7508525 30.946109833333335 31.1</gx:coord>

<when>2025-12-16T22:59:01.000Z</when>
<gx:coord>-114.74853300000001 30.945166833333328 36.9</gx:coord>

<when>2025-12-16T22:59:12.000Z</when>
<gx:coord>-114.74651066666665 30.944010000000002 40.2</gx:coord>

<when>2025-12-16T22:59:23.000Z</when>
<gx:coord>-114.74447383333333 30.942792500000003 35.7</gx:coord>

<when>2025-12-16T22:59:34.000Z</when>
<gx:coord>-114.74250633333334 30.94144683333333 29.1</gx:coord>

<when>2025-12-16T22:59:45.000Z</when>
<gx:coord>-114.74069533333335 30.94004933333333 25.8</gx:coord>

<when>2025-12-16T22:59:56.000Z</when>
<gx:coord>-114.7392305 30.938366166666665 28.0</gx:coord>

<when>2025-12-16T23:00:07.000Z</when>
<gx:coord>-114.73767283333333 30.936565166666664 30.8</gx:coord>

<when>2025-12-16T23:00:18.000Z</when>
<gx:coord>-114.73622449999999 30.93490716666667 33.4</gx:coord>

<when>2025-12-16T23:00:29.000Z</when>
<gx:coord>-114.73471983333333 30.933837 32.3</gx:coord>

<when>2025-12-16T23:00:40.000Z</when>
<gx:coord>-114.73270033333334 30.933135166666663 30.1</gx:coord>

<when>2025-12-16T23:00:51.000Z</when>
<gx:coord>-114.73073049999999 30.932109500000003 24.1</gx:coord>

<when>2025-12-16T23:01:02.000Z</when>
<gx:coord>-114.72860916666666 30.931007500000003 21.5</gx:coord>

<when>2025-12-16T23:01:13.000Z</when>
<gx:coord>-114.72728966666666 30.929669166666667 21.1</gx:coord>

<when>2025-12-16T23:01:24.000Z</when>
<gx:coord>-114.72647350000001 30.92771733333333 19.3</gx:coord>

<when>2025-12-16T23:01:35.000Z</when>
<gx:coord>-114.72519150000001 30.925748666666664 19.6</gx:coord>

<when>2025-12-16T23:01:46.000Z</when>
<gx:coord>-114.72383116666667 30.923836833333333 22.3</gx:coord>

<when>2025-12-16T23:01:57.000Z</when>
<gx:coord>-114.72286933333335 30.92177916666667 23.2</gx:coord>

<when>2025-12-16T23:02:08.000Z</when>
<gx:coord>-114.72182683333334 30.919761499999996 24.9</gx:coord>

<when>2025-12-16T23:02:19.000Z</when>
<gx:coord>-114.72056816666667 30.91770633333333 19.0</gx:coord>

<when>2025-12-16T23:02:30.000Z</when>
<gx:coord>-114.71944649999999 30.915771000000003 27.7</gx:coord>

<when>2025-12-16T23:02:41.000Z</when>
<gx:coord>-114.71887616666666 30.91397416666667 24.6</gx:coord>

<when>2025-12-16T23:02:52.000Z</when>
<gx:coord>-114.7186935 30.912604166666664 22.8</gx:coord>

<when>2025-12-16T23:03:03.000Z</when>
<gx:coord>-114.71959616666666 30.911544666666668 22.8</gx:coord>

<when>2025-12-16T23:03:14.000Z</when>
<gx:coord>-114.72085033333333 30.910219833333333 28.5</gx:coord>

<when>2025-12-16T23:03:25.000Z</when>
<gx:coord>-114.72212666666668 30.908885333333334 36.7</gx:coord>

<when>2025-12-16T23:03:36.000Z</when>
<gx:coord>-114.72361966666668 30.90730866666667 36.8</gx:coord>

<when>2025-12-16T23:03:47.000Z</when>
<gx:coord>-114.7251835 30.90568 37.5</gx:coord>

<when>2025-12-16T23:03:58.000Z</when>
<gx:coord>-114.72656183333332 30.904221999999997 40.2</gx:coord>

<when>2025-12-16T23:04:09.000Z</when>
<gx:coord>-114.72690633333335 30.9028105 37.0</gx:coord>

<when>2025-12-16T23:04:20.000Z</when>
<gx:coord>-114.72636499999999 30.900936499999997 32.8</gx:coord>

<when>2025-12-16T23:04:31.000Z</when>
<gx:coord>-114.72574266666668 30.89888583333333 28.8</gx:coord>

<when>2025-12-16T23:04:42.000Z</when>
<gx:coord>-114.72515316666667 30.896970666666668 27.3</gx:coord>

<when>2025-12-16T23:04:53.000Z</when>
<gx:coord>-114.72433600000001 30.895349166666666 23.8</gx:coord>

<when>2025-12-16T23:05:04.000Z</when>
<gx:coord>-114.7237555 30.89349933333333 19.6</gx:coord>

<when>2025-12-16T23:05:15.000Z</when>
<gx:coord>-114.72314366666666 30.891337666666665 17.9</gx:coord>

<when>2025-12-16T23:05:26.000Z</when>
<gx:coord>-114.72255366666668 30.8892695 15.8</gx:coord>

<when>2025-12-16T23:05:37.000Z</when>
<gx:coord>-114.72246349999999 30.8875495 14.0</gx:coord>

<when>2025-12-16T23:05:48.000Z</when>
<gx:coord>-114.72371300000002 30.886497166666665 17.5</gx:coord>

<when>2025-12-16T23:05:59.000Z</when>
<gx:coord>-114.72552716666665 30.885590999999998 20.4</gx:coord>

<when>2025-12-16T23:06:10.000Z</when>
<gx:coord>-114.72721133333334 30.884752166666665 21.2</gx:coord>

<when>2025-12-16T23:06:21.000Z</when>
<gx:coord>-114.72889766666667 30.883911333333337 24.0</gx:coord>

<when>2025-12-16T23:06:32.000Z</when>
<gx:coord>-114.73050883333332 30.883089499999997 26.4</gx:coord>

<when>2025-12-16T23:06:43.000Z</when>
<gx:coord>-114.73212299999999 30.881926500000002 25.8</gx:coord>

<when>2025-12-16T23:06:54.000Z</when>
<gx:coord>-114.73381533333334 30.880643000000003 24.9</gx:coord>

<when>2025-12-16T23:07:05.000Z</when>
<gx:coord>-114.73566416666667 30.879262499999996 23.8</gx:coord>

<when>2025-12-16T23:07:16.000Z</when>
<gx:coord>-114.73771749999999 30.877711999999995 24.4</gx:coord>

<when>2025-12-16T23:07:27.000Z</when>
<gx:coord>-114.73946333333333 30.87639933333333 25.2</gx:coord>

<when>2025-12-16T23:07:38.000Z</when>
<gx:coord>-114.74059200000002 30.875568666666663 19.7</gx:coord>

<when>2025-12-16T23:07:49.000Z</when>
<gx:coord>-114.74156916666668 30.874838333333333 20.2</gx:coord>

<when>2025-12-16T23:08:00.000Z</when>
<gx:coord>-114.74294033333332 30.8738045 22.6</gx:coord>

<when>2025-12-16T23:08:11.000Z</when>
<gx:coord>-114.74433233333333 30.87272983333333 26.1</gx:coord>

<when>2025-12-16T23:08:22.000Z</when>
<gx:coord>-114.74484483333332 30.871244499999996 27.7</gx:coord>

<when>2025-12-16T23:08:33.000Z</when>
<gx:coord>-114.74477166666665 30.8694335 29.6</gx:coord>

<when>2025-12-16T23:08:44.000Z</when>
<gx:coord>-114.74470533333333 30.867592833333333 29.6</gx:coord>

<when>2025-12-16T23:08:55.000Z</when>
<gx:coord>-114.74463516666668 30.865706833333334 29.2</gx:coord>

<when>2025-12-16T23:09:06.000Z</when>
<gx:coord>-114.74455583333332 30.863774333333335 26.9</gx:coord>

<when>2025-12-16T23:09:17.000Z</when>
<gx:coord>-114.74448016666665 30.861825 28.0</gx:coord>

<when>2025-12-16T23:09:28.000Z</when>
<gx:coord>-114.74439816666667 30.85986066666667 31.7</gx:coord>

<when>2025-12-16T23:09:39.000Z</when>
<gx:coord>-114.74432066666668 30.857820666666665 31.9</gx:coord>

<when>2025-12-16T23:09:50.000Z</when>
<gx:coord>-114.74423066666668 30.855675833333333 30.8</gx:coord>

<when>2025-12-16T23:10:01.000Z</when>
<gx:coord>-114.74414133333333 30.853456833333333 31.4</gx:coord>

<when>2025-12-16T23:10:12.000Z</when>
<gx:coord>-114.74405966666667 30.8511895 32.5</gx:coord>

<when>2025-12-16T23:10:23.000Z</when>
<gx:coord>-114.74397183333333 30.848931833333335 33.1</gx:coord>

<when>2025-12-16T23:10:34.000Z</when>
<gx:coord>-114.74388716666665 30.84670683333333 34.0</gx:coord>

<when>2025-12-16T23:10:45.000Z</when>
<gx:coord>-114.74379033333335 30.84443233333333 32.7</gx:coord>

<when>2025-12-16T23:10:56.000Z</when>
<gx:coord>-114.74370116666665 30.8421455 32.4</gx:coord>

<when>2025-12-16T23:11:07.000Z</when>
<gx:coord>-114.74360433333335 30.839848 31.5</gx:coord>

<when>2025-12-16T23:11:18.000Z</when>
<gx:coord>-114.74351083333335 30.83756 29.9</gx:coord>

<when>2025-12-16T23:11:29.000Z</when>
<gx:coord>-114.7434275 30.835373833333332 34.0</gx:coord>

<when>2025-12-16T23:11:40.000Z</when>
<gx:coord>-114.74333716666666 30.83316316666667 33.9</gx:coord>

<when>2025-12-16T23:11:51.000Z</when>
<gx:coord>-114.74324066666668 30.830946499999996 36.3</gx:coord>

<when>2025-12-16T23:12:02.000Z</when>
<gx:coord>-114.74314833333334 30.828665333333333 34.9</gx:coord>

<when>2025-12-16T23:12:13.000Z</when>
<gx:coord>-114.743054 30.826410166666665 32.1</gx:coord>

<when>2025-12-16T23:12:24.000Z</when>
<gx:coord>-114.74295366666665 30.824146666666667 31.1</gx:coord>

<when>2025-12-16T23:12:35.000Z</when>
<gx:coord>-114.74285900000001 30.82185416666667 30.3</gx:coord>

<when>2025-12-16T23:12:46.000Z</when>
<gx:coord>-114.74276733333333 30.819581000000003 30.6</gx:coord>

<when>2025-12-16T23:12:57.000Z</when>
<gx:coord>-114.74267833333333 30.81734633333333 29.2</gx:coord>

<when>2025-12-16T23:13:08.000Z</when>
<gx:coord>-114.74248316666666 30.81514516666667 28.0</gx:coord>

<when>2025-12-16T23:13:19.000Z</when>
<gx:coord>-114.74217016666668 30.812887833333335 30.1</gx:coord>

<when>2025-12-16T23:13:30.000Z</when>
<gx:coord>-114.74183683333334 30.810612 32.2</gx:coord>

<when>2025-12-16T23:13:41.000Z</when>
<gx:coord>-114.74151216666665 30.808309833333336 32.6</gx:coord>

<when>2025-12-16T23:13:52.000Z</when>
<gx:coord>-114.74118483333332 30.80603416666667 31.6</gx:coord>

<when>2025-12-16T23:14:03.000Z</when>
<gx:coord>-114.74087516666665 30.803897833333334 31.2</gx:coord>

<when>2025-12-16T23:14:14.000Z</when>
<gx:coord>-114.7405565 30.801670833333333 30.3</gx:coord>

<when>2025-12-16T23:14:25.000Z</when>
<gx:coord>-114.74024499999999 30.799441333333334 34.5</gx:coord>

<when>2025-12-16T23:14:36.000Z</when>
<gx:coord>-114.73991966666667 30.797236833333333 30.0</gx:coord>

<when>2025-12-16T23:14:47.000Z</when>
<gx:coord>-114.73957866666666 30.794929000000003 29.0</gx:coord>

<when>2025-12-16T23:14:58.000Z</when>
<gx:coord>-114.739228 30.792568666666664 29.4</gx:coord>

<when>2025-12-16T23:15:09.000Z</when>
<gx:coord>-114.73887983333334 30.790186000000002 28.6</gx:coord>

<when>2025-12-16T23:15:20.000Z</when>
<gx:coord>-114.73853750000002 30.787833666666664 28.1</gx:coord>

<when>2025-12-16T23:15:31.000Z</when>
<gx:coord>-114.73819716666667 30.7854735 27.7</gx:coord>

<when>2025-12-16T23:15:42.000Z</when>
<gx:coord>-114.73788616666667 30.783408500000004 28.5</gx:coord>

<when>2025-12-16T23:15:53.000Z</when>
<gx:coord>-114.73737383333334 30.781525333333335 28.4</gx:coord>

<when>2025-12-16T23:16:04.000Z</when>
<gx:coord>-114.73630116666666 30.7795705 26.5</gx:coord>

<when>2025-12-16T23:16:15.000Z</when>
<gx:coord>-114.73523599999999 30.777635166666663 28.9</gx:coord>

<when>2025-12-16T23:16:26.000Z</when>
<gx:coord>-114.73419100000001 30.7757255 27.9</gx:coord>

<when>2025-12-16T23:16:37.000Z</when>
<gx:coord>-114.73323683333335 30.773972833333332 27.2</gx:coord>

<when>2025-12-16T23:16:48.000Z</when>
<gx:coord>-114.73221116666667 30.7721015 26.4</gx:coord>

<when>2025-12-16T23:16:59.000Z</when>
<gx:coord>-114.7310515 30.7699975 26.2</gx:coord>

<when>2025-12-16T23:17:10.000Z</when>
<gx:coord>-114.72991166666667 30.76791016666667 23.3</gx:coord>

<when>2025-12-16T23:17:21.000Z</when>
<gx:coord>-114.72886650000001 30.766022 26.9</gx:coord>

<when>2025-12-16T23:17:32.000Z</when>
<gx:coord>-114.72774533333335 30.7639765 22.8</gx:coord>

<when>2025-12-16T23:17:43.000Z</when>
<gx:coord>-114.72659583333333 30.7618675 21.3</gx:coord>

<when>2025-12-16T23:17:54.000Z</when>
<gx:coord>-114.72547316666666 30.759816333333333 21.9</gx:coord>

<when>2025-12-16T23:18:05.000Z</when>
<gx:coord>-114.72443066666668 30.7579025 19.8</gx:coord>

<when>2025-12-16T23:18:16.000Z</when>
<gx:coord>-114.72379049999999 30.756055 20.3</gx:coord>

<when>2025-12-16T23:18:27.000Z</when>
<gx:coord>-114.72321483333332 30.753921833333333 20.9</gx:coord>

<when>2025-12-16T23:18:38.000Z</when>
<gx:coord>-114.72262866666667 30.751757833333333 19.6</gx:coord>

<when>2025-12-16T23:18:49.000Z</when>
<gx:coord>-114.72203283333334 30.749601666666663 19.3</gx:coord>

<when>2025-12-16T23:19:00.000Z</when>
<gx:coord>-114.72145866666666 30.747492333333337 19.3</gx:coord>

<when>2025-12-16T23:19:11.000Z</when>
<gx:coord>-114.72085366666667 30.74530766666667 22.2</gx:coord>

<when>2025-12-16T23:19:22.000Z</when>
<gx:coord>-114.72024433333333 30.74307233333333 20.0</gx:coord>

<when>2025-12-16T23:19:33.000Z</when>
<gx:coord>-114.719636 30.740828000000004 17.5</gx:coord>

<when>2025-12-16T23:19:44.000Z</when>
<gx:coord>-114.71904616666667 30.738653999999997 19.1</gx:coord>

<when>2025-12-16T23:19:55.000Z</when>
<gx:coord>-114.71839833333334 30.736639833333335 21.1</gx:coord>

<when>2025-12-16T23:20:06.000Z</when>
<gx:coord>-114.71720916666666 30.734701000000005 17.7</gx:coord>

<when>2025-12-16T23:20:17.000Z</when>
<gx:coord>-114.71602966666666 30.73278383333333 16.2</gx:coord>

<when>2025-12-16T23:20:28.000Z</when>
<gx:coord>-114.71497683333334 30.730984166666666 17.7</gx:coord>

<when>2025-12-16T23:20:39.000Z</when>
<gx:coord>-114.71455633333335 30.729061166666664 19.0</gx:coord>

<when>2025-12-16T23:20:50.000Z</when>
<gx:coord>-114.71443216666667 30.72703483333333 19.9</gx:coord>

<when>2025-12-16T23:21:01.000Z</when>
<gx:coord>-114.71432133333334 30.724988 20.3</gx:coord>

<when>2025-12-16T23:21:12.000Z</when>
<gx:coord>-114.714313 30.722987333333336 16.4</gx:coord>

<when>2025-12-16T23:21:23.000Z</when>
<gx:coord>-114.7143025 30.72097983333333 19.4</gx:coord>

<when>2025-12-16T23:21:34.000Z</when>
<gx:coord>-114.71429283333333 30.718915833333334 21.3</gx:coord>

<when>2025-12-16T23:21:45.000Z</when>
<gx:coord>-114.71428050000002 30.716590333333336 22.6</gx:coord>

<when>2025-12-16T23:21:56.000Z</when>
<gx:coord>-114.71426233333335 30.7143175 21.8</gx:coord>

<when>2025-12-16T23:22:07.000Z</when>
<gx:coord>-114.71424666666665 30.712221666666665 23.7</gx:coord>

<when>2025-12-16T23:22:18.000Z</when>
<gx:coord>-114.71455149999998 30.710179499999995 26.3</gx:coord>

<when>2025-12-16T23:22:29.000Z</when>
<gx:coord>-114.715044 30.708060999999997 26.2</gx:coord>

<when>2025-12-16T23:22:40.000Z</when>
<gx:coord>-114.71531516666667 30.706115999999998 25.3</gx:coord>

<when>2025-12-16T23:22:51.000Z</when>
<gx:coord>-114.71444199999999 30.704331833333338 26.2</gx:coord>

<when>2025-12-16T23:23:02.000Z</when>
<gx:coord>-114.71325616666667 30.702440333333335 26.8</gx:coord>

<when>2025-12-16T23:23:13.000Z</when>
<gx:coord>-114.71212150000001 30.700517833333333 25.8</gx:coord>

<when>2025-12-16T23:23:24.000Z</when>
<gx:coord>-114.71139683333334 30.698429 22.2</gx:coord>

<when>2025-12-16T23:23:35.000Z</when>
<gx:coord>-114.71070499999999 30.696386333333333 25.3</gx:coord>

<when>2025-12-16T23:23:46.000Z</when>
<gx:coord>-114.70998616666665 30.694275 25.9</gx:coord>

<when>2025-12-16T23:23:57.000Z</when>
<gx:coord>-114.70928316666665 30.69217683333333 25.6</gx:coord>

<when>2025-12-16T23:24:08.000Z</when>
<gx:coord>-114.70859816666668 30.690187999999996 26.5</gx:coord>

<when>2025-12-16T23:24:19.000Z</when>
<gx:coord>-114.70798816666665 30.6885105 26.7</gx:coord>

<when>2025-12-16T23:24:30.000Z</when>
<gx:coord>-114.70744733333335 30.687030333333336 25.9</gx:coord>

<when>2025-12-16T23:24:41.000Z</when>
<gx:coord>-114.70684316666666 30.685391333333335 26.8</gx:coord>

<when>2025-12-16T23:24:52.000Z</when>
<gx:coord>-114.70610200000002 30.68362833333333 24.5</gx:coord>

<when>2025-12-16T23:25:03.000Z</when>
<gx:coord>-114.70524183333333 30.681693333333335 23.7</gx:coord>

<when>2025-12-16T23:25:14.000Z</when>
<gx:coord>-114.70450833333334 30.679700166666667 23.3</gx:coord>

<when>2025-12-16T23:25:25.000Z</when>
<gx:coord>-114.70392783333334 30.67752216666667 20.7</gx:coord>

<when>2025-12-16T23:25:36.000Z</when>
<gx:coord>-114.70333733333334 30.67531 20.4</gx:coord>

<when>2025-12-16T23:25:47.000Z</when>
<gx:coord>-114.7027345 30.673037 18.2</gx:coord>

<when>2025-12-16T23:25:58.000Z</when>
<gx:coord>-114.70215466666666 30.670749999999998 18.9</gx:coord>

<when>2025-12-16T23:26:09.000Z</when>
<gx:coord>-114.70182533333333 30.668598166666666 18.2</gx:coord>

<when>2025-12-16T23:26:20.000Z</when>
<gx:coord>-114.70247733333332 30.666573166666662 16.8</gx:coord>

<when>2025-12-16T23:26:31.000Z</when>
<gx:coord>-114.70319050000002 30.664318499999997 16.1</gx:coord>

<when>2025-12-16T23:26:42.000Z</when>
<gx:coord>-114.70386266666668 30.6619995 16.3</gx:coord>

<when>2025-12-16T23:26:53.000Z</when>
<gx:coord>-114.7042735 30.659647000000003 17.1</gx:coord>

<when>2025-12-16T23:27:04.000Z</when>
<gx:coord>-114.70457933333334 30.657133833333333 17.1</gx:coord>

<when>2025-12-16T23:27:15.000Z</when>
<gx:coord>-114.70505383333332 30.65462266666667 17.7</gx:coord>

<when>2025-12-16T23:27:26.000Z</when>
<gx:coord>-114.70545283333334 30.652309 18.8</gx:coord>

<when>2025-12-16T23:27:37.000Z</when>
<gx:coord>-114.70560666666667 30.6499175 18.8</gx:coord>

<when>2025-12-16T23:27:48.000Z</when>
<gx:coord>-114.7057435 30.647502166666662 16.0</gx:coord>

<when>2025-12-16T23:27:59.000Z</when>
<gx:coord>-114.70588016666667 30.64505266666667 15.7</gx:coord>

<when>2025-12-16T23:28:10.000Z</when>
<gx:coord>-114.7059535 30.642600333333334 15.1</gx:coord>

<when>2025-12-16T23:28:21.000Z</when>
<gx:coord>-114.70601933333334 30.6402365 13.4</gx:coord>

<when>2025-12-16T23:28:32.000Z</when>
<gx:coord>-114.70647716666666 30.637902666666665 14.9</gx:coord>

<when>2025-12-16T23:28:43.000Z</when>
<gx:coord>-114.70660266666667 30.635924833333334 15.5</gx:coord>

<when>2025-12-16T23:28:54.000Z</when>
<gx:coord>-114.70518616666668 30.6343075 16.0</gx:coord>

<when>2025-12-16T23:29:05.000Z</when>
<gx:coord>-114.70395349999998 30.632519333333335 15.2</gx:coord>

<when>2025-12-16T23:29:16.000Z</when>
<gx:coord>-114.70337166666668 30.630221 13.8</gx:coord>

<when>2025-12-16T23:29:27.000Z</when>
<gx:coord>-114.7027725 30.627803000000004 13.7</gx:coord>

<when>2025-12-16T23:29:38.000Z</when>
<gx:coord>-114.7021675 30.625348500000005 14.5</gx:coord>

<when>2025-12-16T23:29:49.000Z</when>
<gx:coord>-114.70154083333334 30.62299833333333 17.0</gx:coord>

<when>2025-12-16T23:30:00.000Z</when>
<gx:coord>-114.70058249999998 30.620659 16.9</gx:coord>

<when>2025-12-16T23:30:11.000Z</when>
<gx:coord>-114.69966000000001 30.618453999999996 16.6</gx:coord>

<when>2025-12-16T23:30:22.000Z</when>
<gx:coord>-114.69877999999999 30.616322 16.8</gx:coord>

<when>2025-12-16T23:30:33.000Z</when>
<gx:coord>-114.69810633333333 30.614066 17.8</gx:coord>

<when>2025-12-16T23:30:44.000Z</when>
<gx:coord>-114.69741733333333 30.611665166666665 19.6</gx:coord>

<when>2025-12-16T23:30:55.000Z</when>
<gx:coord>-114.69680600000001 30.60924733333333 21.9</gx:coord>

<when>2025-12-16T23:31:06.000Z</when>
<gx:coord>-114.69622183333334 30.606855333333336 25.8</gx:coord>

<when>2025-12-16T23:31:17.000Z</when>
<gx:coord>-114.69545416666666 30.604512833333334 28.2</gx:coord>

<when>2025-12-16T23:31:28.000Z</when>
<gx:coord>-114.69446583333333 30.602214333333336 30.1</gx:coord>

<when>2025-12-16T23:31:39.000Z</when>
<gx:coord>-114.69304816666666 30.60007033333333 28.8</gx:coord>

<when>2025-12-16T23:31:50.000Z</when>
<gx:coord>-114.69160949999998 30.59789333333333 28.4</gx:coord>

<when>2025-12-16T23:32:01.000Z</when>
<gx:coord>-114.69018249999999 30.595731166666663 29.1</gx:coord>

<when>2025-12-16T23:32:12.000Z</when>
<gx:coord>-114.68879083333334 30.59388066666667 28.6</gx:coord>

<when>2025-12-16T23:32:23.000Z</when>
<gx:coord>-114.68701666666666 30.59259066666667 27.1</gx:coord>

<when>2025-12-16T23:32:34.000Z</when>
<gx:coord>-114.68558816666668 30.591453666666666 26.8</gx:coord>

<when>2025-12-16T23:32:45.000Z</when>
<gx:coord>-114.68575533333333 30.590085166666668 29.6</gx:coord>

<when>2025-12-16T23:32:56.000Z</when>
<gx:coord>-114.6863105 30.588681833333332 30.6</gx:coord>

<when>2025-12-16T23:33:07.000Z</when>
<gx:coord>-114.68571783333333 30.587146 30.9</gx:coord>

<when>2025-12-16T23:33:18.000Z</when>
<gx:coord>-114.68459716666666 30.58546983333333 33.7</gx:coord>

<when>2025-12-16T23:33:29.000Z</when>
<gx:coord>-114.68322383333334 30.583777833333336 34.3</gx:coord>

<when>2025-12-16T23:33:40.000Z</when>
<gx:coord>-114.68166649999999 30.5818695 34.5</gx:coord>

<when>2025-12-16T23:33:51.000Z</when>
<gx:coord>-114.68004066666666 30.5798955 34.0</gx:coord>

<when>2025-12-16T23:34:02.000Z</when>
<gx:coord>-114.67842333333334 30.577894833333335 32.4</gx:coord>

<when>2025-12-16T23:34:13.000Z</when>
<gx:coord>-114.67740466666667 30.575837 32.4</gx:coord>

<when>2025-12-16T23:34:24.000Z</when>
<gx:coord>-114.67775099999999 30.574116000000004 32.9</gx:coord>

<when>2025-12-16T23:34:35.000Z</when>
<gx:coord>-114.67872316666666 30.572181999999998 34.7</gx:coord>

<when>2025-12-16T23:34:46.000Z</when>
<gx:coord>-114.67983199999999 30.56998716666667 37.8</gx:coord>

<when>2025-12-16T23:34:57.000Z</when>
<gx:coord>-114.68101966666667 30.567618833333334 40.4</gx:coord>

<when>2025-12-16T23:35:08.000Z</when>
<gx:coord>-114.68227533333332 30.565119666666668 43.2</gx:coord>

<when>2025-12-16T23:35:19.000Z</when>
<gx:coord>-114.6836095 30.562508166666664 44.8</gx:coord>

<when>2025-12-16T23:35:30.000Z</when>
<gx:coord>-114.68493349999999 30.559910833333333 53.3</gx:coord>

<when>2025-12-16T23:35:41.000Z</when>
<gx:coord>-114.68621 30.557351666666666 60.4</gx:coord>

<when>2025-12-16T23:35:52.000Z</when>
<gx:coord>-114.68750966666667 30.554788666666663 67.3</gx:coord>

<when>2025-12-16T23:36:03.000Z</when>
<gx:coord>-114.6888055 30.552232000000004 75.0</gx:coord>

<when>2025-12-16T23:36:14.000Z</when>
<gx:coord>-114.69009633333332 30.549690833333337 82.2</gx:coord>

<when>2025-12-16T23:36:25.000Z</when>
<gx:coord>-114.69137299999998 30.5471705 89.8</gx:coord>

<when>2025-12-16T23:36:36.000Z</when>
<gx:coord>-114.69264833333334 30.5446305 93.0</gx:coord>

<when>2025-12-16T23:36:47.000Z</when>
<gx:coord>-114.69392616666667 30.5421065 95.5</gx:coord>

<when>2025-12-16T23:36:58.000Z</when>
<gx:coord>-114.69508849999998 30.539812833333333 108.9</gx:coord>

<when>2025-12-16T23:37:09.000Z</when>
<gx:coord>-114.69557866666668 30.538121166666663 114.2</gx:coord>

<when>2025-12-16T23:37:20.000Z</when>
<gx:coord>-114.694919 30.53634083333333 110.3</gx:coord>

<when>2025-12-16T23:37:31.000Z</when>
<gx:coord>-114.69469883333335 30.534212000000004 112.0</gx:coord>

<when>2025-12-16T23:37:42.000Z</when>
<gx:coord>-114.69449699999998 30.532332333333336 115.7</gx:coord>

<when>2025-12-16T23:37:53.000Z</when>
<gx:coord>-114.69310816666666 30.531265666666666 114.4</gx:coord>

<when>2025-12-16T23:38:04.000Z</when>
<gx:coord>-114.69124433333333 30.530236833333333 109.6</gx:coord>

<when>2025-12-16T23:38:15.000Z</when>
<gx:coord>-114.68988383333333 30.529186666666668 103.7</gx:coord>

<when>2025-12-16T23:38:26.000Z</when>
<gx:coord>-114.68923033333334 30.527691833333332 97.6</gx:coord>

<when>2025-12-16T23:38:37.000Z</when>
<gx:coord>-114.68790433333334 30.52667183333333 87.9</gx:coord>

<when>2025-12-16T23:38:48.000Z</when>
<gx:coord>-114.68745216666666 30.525194666666668 89.0</gx:coord>

<when>2025-12-16T23:38:59.000Z</when>
<gx:coord>-114.68632199999999 30.523847833333335 87.3</gx:coord>

<when>2025-12-16T23:39:10.000Z</when>
<gx:coord>-114.68492666666667 30.522357000000003 84.0</gx:coord>

<when>2025-12-16T23:39:21.000Z</when>
<gx:coord>-114.68296133333334 30.521254666666664 77.7</gx:coord>

<when>2025-12-16T23:39:32.000Z</when>
<gx:coord>-114.68121649999999 30.519849500000003 74.2</gx:coord>

<when>2025-12-16T23:39:43.000Z</when>
<gx:coord>-114.67956166666666 30.517896333333336 62.8</gx:coord>

<when>2025-12-16T23:39:54.000Z</when>
<gx:coord>-114.67791683333334 30.515774333333336 56.4</gx:coord>

<when>2025-12-16T23:40:05.000Z</when>
<gx:coord>-114.67633516666668 30.513738166666666 55.4</gx:coord>

<when>2025-12-16T23:40:16.000Z</when>
<gx:coord>-114.674814 30.511789 57.2</gx:coord>

<when>2025-12-16T23:40:27.000Z</when>
<gx:coord>-114.67356249999999 30.510090666666663 54.0</gx:coord>

<when>2025-12-16T23:40:38.000Z</when>
<gx:coord>-114.67270016666667 30.507790500000002 46.9</gx:coord>

<when>2025-12-16T23:40:49.000Z</when>
<gx:coord>-114.67187366666667 30.505235833333337 41.2</gx:coord>

<when>2025-12-16T23:41:00.000Z</when>
<gx:coord>-114.67104483333333 30.50266916666667 36.6</gx:coord>

<when>2025-12-16T23:41:11.000Z</when>
<gx:coord>-114.67022966666667 30.5001255 34.9</gx:coord>

<when>2025-12-16T23:41:22.000Z</when>
<gx:coord>-114.6693845 30.497510000000002 35.6</gx:coord>

<when>2025-12-16T23:41:33.000Z</when>
<gx:coord>-114.66858916666666 30.495008 36.8</gx:coord>

<when>2025-12-16T23:41:44.000Z</when>
<gx:coord>-114.66786616666668 30.492756333333332 36.8</gx:coord>

<when>2025-12-16T23:41:55.000Z</when>
<gx:coord>-114.66713933333334 30.490445833333336 37.1</gx:coord>

<when>2025-12-16T23:42:06.000Z</when>
<gx:coord>-114.66645533333333 30.488213499999997 38.1</gx:coord>

<when>2025-12-16T23:42:17.000Z</when>
<gx:coord>-114.66571133333333 30.485885999999997 37.7</gx:coord>

<when>2025-12-16T23:42:28.000Z</when>
<gx:coord>-114.66493700000001 30.483434666666668 35.7</gx:coord>

<when>2025-12-16T23:42:39.000Z</when>
<gx:coord>-114.66414533333334 30.480961 37.4</gx:coord>

<when>2025-12-16T23:42:50.000Z</when>
<gx:coord>-114.66335916666667 30.478494 38.4</gx:coord>

<when>2025-12-16T23:43:01.000Z</when>
<gx:coord>-114.66257316666666 30.476058 35.8</gx:coord>

<when>2025-12-16T23:43:12.000Z</when>
<gx:coord>-114.66178599999999 30.47359633333333 34.9</gx:coord>

<when>2025-12-16T23:43:23.000Z</when>
<gx:coord>-114.66095249999998 30.47102333333333 32.8</gx:coord>

<when>2025-12-16T23:43:34.000Z</when>
<gx:coord>-114.66008949999998 30.4683355 31.9</gx:coord>

<when>2025-12-16T23:43:45.000Z</when>
<gx:coord>-114.659194 30.465553333333332 30.8</gx:coord>

<when>2025-12-16T23:43:56.000Z</when>
<gx:coord>-114.65831333333333 30.462808166666665 29.8</gx:coord>

<when>2025-12-16T23:44:07.000Z</when>
<gx:coord>-114.65744016666667 30.460101333333334 26.4</gx:coord>

<when>2025-12-16T23:44:18.000Z</when>
<gx:coord>-114.656586 30.457451999999996 26.1</gx:coord>

<when>2025-12-16T23:44:29.000Z</when>
<gx:coord>-114.65580966666667 30.455047166666667 26.3</gx:coord>

<when>2025-12-16T23:44:40.000Z</when>
<gx:coord>-114.65516366666667 30.45301533333333 26.4</gx:coord>

<when>2025-12-16T23:44:51.000Z</when>
<gx:coord>-114.65461266666668 30.451297833333335 25.2</gx:coord>

<when>2025-12-16T23:45:02.000Z</when>
<gx:coord>-114.65414833333334 30.44983033333333 24.0</gx:coord>

<when>2025-12-16T23:45:13.000Z</when>
<gx:coord>-114.65381799999999 30.44878683333333 22.9</gx:coord>

<when>2025-12-16T23:45:24.000Z</when>
<gx:coord>-114.65356166666668 30.448331999999997 23.3</gx:coord>

<when>2025-12-16T23:45:35.000Z</when>
<gx:coord>-114.65332533333334 30.447806500000002 23.5</gx:coord>

<when>2025-12-16T23:45:46.000Z</when>
<gx:coord>-114.65310383333332 30.447117499999997 22.4</gx:coord>

<when>2025-12-16T23:45:57.000Z</when>
<gx:coord>-114.65289650000001 30.446520833333338 23.9</gx:coord>

<when>2025-12-16T23:46:08.000Z</when>
<gx:coord>-114.65268466666666 30.445760333333336 22.6</gx:coord>

<when>2025-12-16T23:46:19.000Z</when>
<gx:coord>-114.65233699999999 30.444701666666667 23.1</gx:coord>

<when>2025-12-16T23:46:30.000Z</when>
<gx:coord>-114.65194600000001 30.443588166666668 23.4</gx:coord>

<when>2025-12-16T23:46:41.000Z</when>
<gx:coord>-114.65173316666666 30.442741 24.2</gx:coord>

<when>2025-12-16T23:46:52.000Z</when>
<gx:coord>-114.65142750000001 30.44187883333333 23.5</gx:coord>

<when>2025-12-16T23:47:03.000Z</when>
<gx:coord>-114.65120950000001 30.44102816666667 25.5</gx:coord>

<when>2025-12-16T23:47:14.000Z</when>
<gx:coord>-114.65104233333335 30.4404315 25.8</gx:coord>

<when>2025-12-16T23:47:25.000Z</when>
<gx:coord>-114.65104649999999 30.439994166666665 25.6</gx:coord>

<when>2025-12-16T23:47:36.000Z</when>
<gx:coord>-114.650628 30.4387085 26.7</gx:coord>

<when>2025-12-16T23:47:47.000Z</when>
<gx:coord>-114.65004400000001 30.436897 27.3</gx:coord>

<when>2025-12-16T23:47:58.000Z</when>
<gx:coord>-114.64933483333334 30.434699833333337 27.0</gx:coord>

<when>2025-12-16T23:48:09.000Z</when>
<gx:coord>-114.64854349999999 30.432238666666663 27.4</gx:coord>

<when>2025-12-16T23:48:20.000Z</when>
<gx:coord>-114.64771 30.4296345 27.1</gx:coord>

<when>2025-12-16T23:48:31.000Z</when>
<gx:coord>-114.64685300000001 30.426934666666664 26.4</gx:coord>

<when>2025-12-16T23:48:42.000Z</when>
<gx:coord>-114.6459775 30.424174333333333 24.7</gx:coord>

<when>2025-12-16T23:48:53.000Z</when>
<gx:coord>-114.64510800000001 30.42143 24.1</gx:coord>

<when>2025-12-16T23:49:04.000Z</when>
<gx:coord>-114.64427416666668 30.418797166666664 22.8</gx:coord>

<when>2025-12-16T23:49:15.000Z</when>
<gx:coord>-114.64349849999999 30.41634183333333 23.1</gx:coord>

<when>2025-12-16T23:49:26.000Z</when>
<gx:coord>-114.64284500000001 30.414212833333334 21.8</gx:coord>

<when>2025-12-16T23:49:37.000Z</when>
<gx:coord>-114.64281216666669 30.412013166666664 20.4</gx:coord>

<when>2025-12-16T23:49:48.000Z</when>
<gx:coord>-114.6428915 30.4095385 20.8</gx:coord>

<when>2025-12-16T23:49:59.000Z</when>
<gx:coord>-114.64296700000001 30.407006666666668 21.5</gx:coord>

<when>2025-12-16T23:50:10.000Z</when>
<gx:coord>-114.64303633333333 30.404476666666664 22.5</gx:coord>

<when>2025-12-16T23:50:21.000Z</when>
<gx:coord>-114.64310616666668 30.401950499999998 23.8</gx:coord>

<when>2025-12-16T23:50:32.000Z</when>
<gx:coord>-114.64318033333332 30.399579666666668 24.5</gx:coord>

<when>2025-12-16T23:50:43.000Z</when>
<gx:coord>-114.64346383333334 30.3972875 23.8</gx:coord>

<when>2025-12-16T23:50:54.000Z</when>
<gx:coord>-114.64376949999999 30.395020833333334 20.5</gx:coord>

<when>2025-12-16T23:51:05.000Z</when>
<gx:coord>-114.64407316666666 30.392773499999997 18.5</gx:coord>

<when>2025-12-16T23:51:16.000Z</when>
<gx:coord>-114.64437633333334 30.390532333333333 17.4</gx:coord>

<when>2025-12-16T23:51:27.000Z</when>
<gx:coord>-114.64469433333333 30.388216333333336 15.0</gx:coord>

<when>2025-12-16T23:51:38.000Z</when>
<gx:coord>-114.64501049999998 30.38590883333333 12.6</gx:coord>

<when>2025-12-16T23:51:49.000Z</when>
<gx:coord>-114.64515366666667 30.383646666666664 12.0</gx:coord>

<when>2025-12-16T23:52:00.000Z</when>
<gx:coord>-114.645213 30.38138966666667 12.9</gx:coord>

<when>2025-12-16T23:52:11.000Z</when>
<gx:coord>-114.64529283333334 30.379079833333336 14.5</gx:coord>

<when>2025-12-16T23:52:22.000Z</when>
<gx:coord>-114.64537566666668 30.37678583333333 15.9</gx:coord>

<when>2025-12-16T23:52:33.000Z</when>
<gx:coord>-114.645425 30.374712666666664 15.8</gx:coord>

<when>2025-12-16T23:52:44.000Z</when>
<gx:coord>-114.64493983333332 30.372573000000003 13.7</gx:coord>

<when>2025-12-16T23:52:55.000Z</when>
<gx:coord>-114.64390200000001 30.37060616666667 15.1</gx:coord>

<when>2025-12-16T23:53:06.000Z</when>
<gx:coord>-114.64303266666666 30.368521499999996 15.2</gx:coord>

<when>2025-12-16T23:53:17.000Z</when>
<gx:coord>-114.64243616666666 30.366456333333335 20.0</gx:coord>

<when>2025-12-16T23:53:28.000Z</when>
<gx:coord>-114.64290483333335 30.364348666666668 23.2</gx:coord>

<when>2025-12-16T23:53:39.000Z</when>
<gx:coord>-114.64362216666665 30.362180833333333 27.3</gx:coord>

<when>2025-12-16T23:53:50.000Z</when>
<gx:coord>-114.64393 30.360065166666665 33.9</gx:coord>

<when>2025-12-16T23:54:01.000Z</when>
<gx:coord>-114.643965 30.3579725 29.1</gx:coord>

<when>2025-12-16T23:54:12.000Z</when>
<gx:coord>-114.64393899999999 30.355836666666665 34.1</gx:coord>

<when>2025-12-16T23:54:23.000Z</when>
<gx:coord>-114.64390683333335 30.353595333333335 41.2</gx:coord>

<when>2025-12-16T23:54:34.000Z</when>
<gx:coord>-114.64388383333335 30.35133 48.6</gx:coord>

<when>2025-12-16T23:54:45.000Z</when>
<gx:coord>-114.64385783333334 30.349193666666665 56.7</gx:coord>

<when>2025-12-16T23:54:56.000Z</when>
<gx:coord>-114.64383699999999 30.347307666666666 58.2</gx:coord>

<when>2025-12-16T23:55:07.000Z</when>
<gx:coord>-114.64390899999998 30.345539833333337 52.2</gx:coord>

<when>2025-12-16T23:55:18.000Z</when>
<gx:coord>-114.6442805 30.343549333333332 45.6</gx:coord>

<when>2025-12-16T23:55:29.000Z</when>
<gx:coord>-114.64470533333333 30.341435 45.4</gx:coord>

<when>2025-12-16T23:55:40.000Z</when>
<gx:coord>-114.64511866666665 30.339396833333332 46.1</gx:coord>

<when>2025-12-16T23:55:51.000Z</when>
<gx:coord>-114.64578133333335 30.337459 46.2</gx:coord>

<when>2025-12-16T23:56:02.000Z</when>
<gx:coord>-114.64678566666667 30.335461666666667 47.6</gx:coord>

<when>2025-12-16T23:56:13.000Z</when>
<gx:coord>-114.64769650000001 30.333545833333332 52.6</gx:coord>

<when>2025-12-16T23:56:24.000Z</when>
<gx:coord>-114.64821166666667 30.331430333333333 58.1</gx:coord>

<when>2025-12-16T23:56:35.000Z</when>
<gx:coord>-114.64846899999999 30.329198833333333 60.1</gx:coord>

<when>2025-12-16T23:56:46.000Z</when>
<gx:coord>-114.64870766666667 30.326978333333333 56.4</gx:coord>

<when>2025-12-16T23:56:57.000Z</when>
<gx:coord>-114.64895616666666 30.324719333333338 50.1</gx:coord>

<when>2025-12-16T23:57:08.000Z</when>
<gx:coord>-114.6492095 30.322484166666662 41.6</gx:coord>

<when>2025-12-16T23:57:19.000Z</when>
<gx:coord>-114.64945600000001 30.32018833333333 30.2</gx:coord>

<when>2025-12-16T23:57:30.000Z</when>
<gx:coord>-114.64970049999998 30.31788483333333 25.3</gx:coord>

<when>2025-12-16T23:57:41.000Z</when>
<gx:coord>-114.64977866666668 30.315658666666664 26.1</gx:coord>

<when>2025-12-16T23:57:52.000Z</when>
<gx:coord>-114.649639 30.313448666666666 24.2</gx:coord>

<when>2025-12-16T23:58:03.000Z</when>
<gx:coord>-114.64948483333335 30.311311 23.1</gx:coord>

<when>2025-12-16T23:58:14.000Z</when>
<gx:coord>-114.64950016666666 30.309200333333333 22.6</gx:coord>

<when>2025-12-16T23:58:25.000Z</when>
<gx:coord>-114.65001133333332 30.307084666666665 24.9</gx:coord>

<when>2025-12-16T23:58:36.000Z</when>
<gx:coord>-114.65089433333333 30.305075333333335 24.8</gx:coord>

<when>2025-12-16T23:58:47.000Z</when>
<gx:coord>-114.65178166666668 30.3031085 20.2</gx:coord>

<when>2025-12-16T23:58:58.000Z</when>
<gx:coord>-114.65247916666667 30.301076 18.4</gx:coord>

<when>2025-12-16T23:59:09.000Z</when>
<gx:coord>-114.6527735 30.298808 18.4</gx:coord>

<when>2025-12-16T23:59:20.000Z</when>
<gx:coord>-114.65301333333333 30.296521833333333 18.7</gx:coord>

<when>2025-12-16T23:59:31.000Z</when>
<gx:coord>-114.65328300000002 30.294391000000005 19.5</gx:coord>

<when>2025-12-16T23:59:42.000Z</when>
<gx:coord>-114.65417433333332 30.292533166666665 23.3</gx:coord>

<when>2025-12-16T23:59:53.000Z</when>
<gx:coord>-114.65577649999999 30.290884166666668 23.0</gx:coord>

<when>2025-12-17T00:00:04.000Z</when>
<gx:coord>-114.65715216666668 30.289133999999997 24.7</gx:coord>

<when>2025-12-17T00:00:15.000Z</when>
<gx:coord>-114.65744600000001 30.28701416666667 27.3</gx:coord>

<when>2025-12-17T00:00:26.000Z</when>
<gx:coord>-114.65729016666667 30.284788499999998 29.6</gx:coord>

<when>2025-12-17T00:00:37.000Z</when>
<gx:coord>-114.65715333333334 30.282502500000003 32.2</gx:coord>

<when>2025-12-17T00:00:48.000Z</when>
<gx:coord>-114.65727133333333 30.2802605 36.4</gx:coord>

<when>2025-12-17T00:00:59.000Z</when>
<gx:coord>-114.657521 30.278164833333335 36.4</gx:coord>

<when>2025-12-17T00:01:10.000Z</when>
<gx:coord>-114.65748950000001 30.2760725 35.0</gx:coord>

<when>2025-12-17T00:01:21.000Z</when>
<gx:coord>-114.65687233333334 30.273947833333335 41.7</gx:coord>

<when>2025-12-17T00:01:32.000Z</when>
<gx:coord>-114.6567275 30.271932833333334 41.6</gx:coord>

<when>2025-12-17T00:01:43.000Z</when>
<gx:coord>-114.65778833333334 30.270077666666666 31.8</gx:coord>

<when>2025-12-17T00:01:54.000Z</when>
<gx:coord>-114.65922183333332 30.268248166666663 33.7</gx:coord>

<when>2025-12-17T00:02:05.000Z</when>
<gx:coord>-114.66035316666667 30.2662785 40.4</gx:coord>

<when>2025-12-17T00:02:16.000Z</when>
<gx:coord>-114.66155516666667 30.2642905 46.6</gx:coord>

<when>2025-12-17T00:02:27.000Z</when>
<gx:coord>-114.66312099999999 30.26241166666667 53.6</gx:coord>

<when>2025-12-17T00:02:38.000Z</when>
<gx:coord>-114.66473283333335 30.260614166666663 58.9</gx:coord>

<when>2025-12-17T00:02:49.000Z</when>
<gx:coord>-114.665704 30.258831 58.5</gx:coord>

<when>2025-12-17T00:03:00.000Z</when>
<gx:coord>-114.665583 30.256960333333335 57.4</gx:coord>

<when>2025-12-17T00:03:11.000Z</when>
<gx:coord>-114.66496566666667 30.25484666666667 56.7</gx:coord>

<when>2025-12-17T00:03:22.000Z</when>
<gx:coord>-114.6642195 30.2524125 54.4</gx:coord>

<when>2025-12-17T00:03:33.000Z</when>
<gx:coord>-114.66346 30.24992616666667 52.8</gx:coord>

<when>2025-12-17T00:03:44.000Z</when>
<gx:coord>-114.66273683333333 30.247559833333337 54.5</gx:coord>

<when>2025-12-17T00:03:55.000Z</when>
<gx:coord>-114.66250550000001 30.245257999999996 52.9</gx:coord>

<when>2025-12-17T00:04:06.000Z</when>
<gx:coord>-114.66316800000001 30.243009999999995 48.8</gx:coord>

<when>2025-12-17T00:04:17.000Z</when>
<gx:coord>-114.66428766666668 30.240835999999998 42.0</gx:coord>

<when>2025-12-17T00:04:28.000Z</when>
<gx:coord>-114.66537133333334 30.238485666666666 41.5</gx:coord>

<when>2025-12-17T00:04:39.000Z</when>
<gx:coord>-114.66602666666668 30.236029833333337 49.6</gx:coord>

<when>2025-12-17T00:04:50.000Z</when>
<gx:coord>-114.66666949999998 30.233598999999995 57.4</gx:coord>

<when>2025-12-17T00:05:01.000Z</when>
<gx:coord>-114.66746749999999 30.231229 66.4</gx:coord>

<when>2025-12-17T00:05:12.000Z</when>
<gx:coord>-114.66830666666668 30.228901000000004 75.4</gx:coord>

<when>2025-12-17T00:05:23.000Z</when>
<gx:coord>-114.668823 30.226532 84.4</gx:coord>

<when>2025-12-17T00:05:34.000Z</when>
<gx:coord>-114.66914583333333 30.2241605 93.2</gx:coord>

<when>2025-12-17T00:05:45.000Z</when>
<gx:coord>-114.66947550000002 30.22188683333333 93.3</gx:coord>

<when>2025-12-17T00:05:56.000Z</when>
<gx:coord>-114.66974633333332 30.21988666666667 86.3</gx:coord>

<when>2025-12-17T00:06:07.000Z</when>
<gx:coord>-114.66976266666667 30.217971499999997 76.5</gx:coord>

<when>2025-12-17T00:06:18.000Z</when>
<gx:coord>-114.66926033333333 30.21603866666667 66.0</gx:coord>

<when>2025-12-17T00:06:29.000Z</when>
<gx:coord>-114.66837066666668 30.214311 63.2</gx:coord>

<when>2025-12-17T00:06:40.000Z</when>
<gx:coord>-114.667258 30.212947333333332 61.4</gx:coord>

<when>2025-12-17T00:06:51.000Z</when>
<gx:coord>-114.66672816666666 30.211367166666665 53.9</gx:coord>

<when>2025-12-17T00:07:02.000Z</when>
<gx:coord>-114.66717366666666 30.209543500000002 42.8</gx:coord>

<when>2025-12-17T00:07:13.000Z</when>
<gx:coord>-114.66807083333333 30.2075655 28.1</gx:coord>

<when>2025-12-17T00:07:24.000Z</when>
<gx:coord>-114.6685975 30.205280000000002 18.5</gx:coord>

<when>2025-12-17T00:07:35.000Z</when>
<gx:coord>-114.66935216666667 30.203148166666665 19.4</gx:coord>

<when>2025-12-17T00:07:46.000Z</when>
<gx:coord>-114.67058666666665 30.20119216666667 25.0</gx:coord>

<when>2025-12-17T00:07:57.000Z</when>
<gx:coord>-114.67140966666666 30.199149166666665 33.0</gx:coord>

<when>2025-12-17T00:08:08.000Z</when>
<gx:coord>-114.67095616666666 30.19692466666667 36.1</gx:coord>

<when>2025-12-17T00:08:19.000Z</when>
<gx:coord>-114.66984066666667 30.19474866666667 29.6</gx:coord>

<when>2025-12-17T00:08:30.000Z</when>
<gx:coord>-114.66884583333334 30.19270483333333 30.2</gx:coord>

<when>2025-12-17T00:08:41.000Z</when>
<gx:coord>-114.66880383333334 30.190559833333335 26.5</gx:coord>

<when>2025-12-17T00:08:52.000Z</when>
<gx:coord>-114.66942816666666 30.188593333333333 25.3</gx:coord>

<when>2025-12-17T00:09:03.000Z</when>
<gx:coord>-114.66925733333333 30.186755833333336 34.1</gx:coord>

<when>2025-12-17T00:09:14.000Z</when>
<gx:coord>-114.6686095 30.185008166666663 44.3</gx:coord>

<when>2025-12-17T00:09:25.000Z</when>
<gx:coord>-114.66821900000001 30.18317983333333 54.3</gx:coord>

<when>2025-12-17T00:09:36.000Z</when>
<gx:coord>-114.667693 30.181382666666664 65.3</gx:coord>

<when>2025-12-17T00:09:47.000Z</when>
<gx:coord>-114.66659733333333 30.179742499999996 75.8</gx:coord>

<when>2025-12-17T00:09:58.000Z</when>
<gx:coord>-114.665913 30.17793283333333 87.1</gx:coord>

<when>2025-12-17T00:10:09.000Z</when>
<gx:coord>-114.66543683333333 30.176050333333333 98.0</gx:coord>

<when>2025-12-17T00:10:20.000Z</when>
<gx:coord>-114.66444699999998 30.174342333333335 107.2</gx:coord>

<when>2025-12-17T00:10:31.000Z</when>
<gx:coord>-114.66323949999999 30.17261716666667 116.6</gx:coord>

<when>2025-12-17T00:10:42.000Z</when>
<gx:coord>-114.6627355 30.170817666666668 127.3</gx:coord>

<when>2025-12-17T00:10:53.000Z</when>
<gx:coord>-114.66269033333334 30.168992499999998 140.7</gx:coord>

<when>2025-12-17T00:11:04.000Z</when>
<gx:coord>-114.66224533333335 30.167215666666667 153.5</gx:coord>

<when>2025-12-17T00:11:15.000Z</when>
<gx:coord>-114.66154683333335 30.165450166666666 164.6</gx:coord>

<when>2025-12-17T00:11:26.000Z</when>
<gx:coord>-114.66067 30.163767833333335 173.3</gx:coord>

<when>2025-12-17T00:11:37.000Z</when>
<gx:coord>-114.65967866666666 30.16222833333334 176.4</gx:coord>

<when>2025-12-17T00:11:48.000Z</when>
<gx:coord>-114.65854783333334 30.161067666666668 175.7</gx:coord>

<when>2025-12-17T00:11:59.000Z</when>
<gx:coord>-114.65725116666665 30.159933500000005 168.7</gx:coord>

<when>2025-12-17T00:12:10.000Z</when>
<gx:coord>-114.6558445 30.158710333333335 159.8</gx:coord>

<when>2025-12-17T00:12:21.000Z</when>
<gx:coord>-114.65437233333333 30.157414666666668 151.3</gx:coord>

<when>2025-12-17T00:12:32.000Z</when>
<gx:coord>-114.65294 30.155988833333335 141.0</gx:coord>

<when>2025-12-17T00:12:43.000Z</when>
<gx:coord>-114.65146016666668 30.154436833333328 127.8</gx:coord>

<when>2025-12-17T00:12:54.000Z</when>
<gx:coord>-114.64986983333334 30.152783999999997 112.7</gx:coord>

<when>2025-12-17T00:13:05.000Z</when>
<gx:coord>-114.64841999999999 30.15133733333333 100.2</gx:coord>

<when>2025-12-17T00:13:16.000Z</when>
<gx:coord>-114.64661333333333 30.150104333333335 87.3</gx:coord>

<when>2025-12-17T00:13:27.000Z</when>
<gx:coord>-114.6445725 30.149204 77.1</gx:coord>

<when>2025-12-17T00:13:38.000Z</when>
<gx:coord>-114.64295150000001 30.147998999999995 67.5</gx:coord>

<when>2025-12-17T00:13:49.000Z</when>
<gx:coord>-114.64211833333333 30.146286666666665 56.2</gx:coord>

<when>2025-12-17T00:14:00.000Z</when>
<gx:coord>-114.64195216666667 30.144314666666666 42.8</gx:coord>

<when>2025-12-17T00:14:11.000Z</when>
<gx:coord>-114.64163349999998 30.1422145 32.7</gx:coord>

<when>2025-12-17T00:14:22.000Z</when>
<gx:coord>-114.64113616666667 30.140273666666666 31.7</gx:coord>

<when>2025-12-17T00:14:33.000Z</when>
<gx:coord>-114.64069749999999 30.138502166666665 36.4</gx:coord>

<when>2025-12-17T00:14:44.000Z</when>
<gx:coord>-114.6401645 30.136633833333335 41.8</gx:coord>

<when>2025-12-17T00:14:55.000Z</when>
<gx:coord>-114.63927983333333 30.134805500000002 40.8</gx:coord>

<when>2025-12-17T00:15:06.000Z</when>
<gx:coord>-114.6385765 30.13297133333333 34.6</gx:coord>

<when>2025-12-17T00:15:17.000Z</when>
<gx:coord>-114.63851449999999 30.1308345 23.8</gx:coord>

<when>2025-12-17T00:15:28.000Z</when>
<gx:coord>-114.63872916666666 30.128641000000002 19.2</gx:coord>

<when>2025-12-17T00:15:39.000Z</when>
<gx:coord>-114.6386125 30.12649066666667 20.2</gx:coord>

<when>2025-12-17T00:15:50.000Z</when>
<gx:coord>-114.637734 30.124279166666664 19.5</gx:coord>

<when>2025-12-17T00:16:01.000Z</when>
<gx:coord>-114.63674 30.12210483333333 20.7</gx:coord>

<when>2025-12-17T00:16:12.000Z</when>
<gx:coord>-114.63575216666668 30.119935833333336 19.6</gx:coord>

<when>2025-12-17T00:16:23.000Z</when>
<gx:coord>-114.63478699999999 30.117751666666663 19.7</gx:coord>

<when>2025-12-17T00:16:34.000Z</when>
<gx:coord>-114.63393616666666 30.11545233333333 17.6</gx:coord>

<when>2025-12-17T00:16:45.000Z</when>
<gx:coord>-114.63321183333333 30.113093166666665 18.8</gx:coord>

<when>2025-12-17T00:16:56.000Z</when>
<gx:coord>-114.63249849999998 30.110657500000002 22.2</gx:coord>

<when>2025-12-17T00:17:07.000Z</when>
<gx:coord>-114.63178666666666 30.108238500000002 25.6</gx:coord>

<when>2025-12-17T00:17:18.000Z</when>
<gx:coord>-114.63106716666668 30.1057715 27.4</gx:coord>

<when>2025-12-17T00:17:29.000Z</when>
<gx:coord>-114.63037283333333 30.103267 32.5</gx:coord>

<when>2025-12-17T00:17:40.000Z</when>
<gx:coord>-114.62976750000001 30.100906333333334 41.1</gx:coord>

<when>2025-12-17T00:17:51.000Z</when>
<gx:coord>-114.62920816666669 30.09875233333333 40.6</gx:coord>

<when>2025-12-17T00:18:02.000Z</when>
<gx:coord>-114.62864583333334 30.096587666666665 37.0</gx:coord>

<when>2025-12-17T00:18:13.000Z</when>
<gx:coord>-114.62808866666667 30.0943945 38.0</gx:coord>

<when>2025-12-17T00:18:24.000Z</when>
<gx:coord>-114.62751383333334 30.09224733333333 39.7</gx:coord>

<when>2025-12-17T00:18:35.000Z</when>
<gx:coord>-114.62672466666666 30.090177999999998 42.0</gx:coord>

<when>2025-12-17T00:18:46.000Z</when>
<gx:coord>-114.6256725 30.088179666666665 45.4</gx:coord>

<when>2025-12-17T00:18:57.000Z</when>
<gx:coord>-114.624588 30.086166333333335 46.1</gx:coord>

<when>2025-12-17T00:19:08.000Z</when>
<gx:coord>-114.62350399999998 30.084100499999998 40.6</gx:coord>

<when>2025-12-17T00:19:19.000Z</when>
<gx:coord>-114.6226515 30.081936000000002 42.9</gx:coord>

<when>2025-12-17T00:19:30.000Z</when>
<gx:coord>-114.6219925 30.079713333333334 47.5</gx:coord>

<when>2025-12-17T00:19:41.000Z</when>
<gx:coord>-114.62128166666668 30.077501999999996 51.1</gx:coord>

<when>2025-12-17T00:19:52.000Z</when>
<gx:coord>-114.62024616666667 30.075429166666662 58.1</gx:coord>

<when>2025-12-17T00:20:03.000Z</when>
<gx:coord>-114.61897966666666 30.073496833333333 63.0</gx:coord>

<when>2025-12-17T00:20:14.000Z</when>
<gx:coord>-114.6177 30.071574333333334 63.1</gx:coord>

<when>2025-12-17T00:20:25.000Z</when>
<gx:coord>-114.61633183333333 30.06956266666667 63.0</gx:coord>

<when>2025-12-17T00:20:36.000Z</when>
<gx:coord>-114.61476433333334 30.067612999999998 64.9</gx:coord>

<when>2025-12-17T00:20:47.000Z</when>
<gx:coord>-114.6129515 30.065716166666668 63.8</gx:coord>

<when>2025-12-17T00:20:58.000Z</when>
<gx:coord>-114.61107283333334 30.06375166666667 56.5</gx:coord>

<when>2025-12-17T00:21:09.000Z</when>
<gx:coord>-114.60931416666666 30.06201133333333 60.9</gx:coord>

<when>2025-12-17T00:21:20.000Z</when>
<gx:coord>-114.60722116666666 30.060699999999997 59.8</gx:coord>

<when>2025-12-17T00:21:31.000Z</when>
<gx:coord>-114.60483316666665 30.059621666666665 57.4</gx:coord>

<when>2025-12-17T00:21:42.000Z</when>
<gx:coord>-114.60255583333334 30.058604999999996 57.5</gx:coord>

<when>2025-12-17T00:21:53.000Z</when>
<gx:coord>-114.6002305 30.057562500000003 52.1</gx:coord>

<when>2025-12-17T00:22:04.000Z</when>
<gx:coord>-114.59795899999999 30.0564065 46.3</gx:coord>

<when>2025-12-17T00:22:15.000Z</when>
<gx:coord>-114.59593116666669 30.05493483333333 40.7</gx:coord>

<when>2025-12-17T00:22:26.000Z</when>
<gx:coord>-114.5941465 30.053115333333334 33.7</gx:coord>

<when>2025-12-17T00:22:37.000Z</when>
<gx:coord>-114.59259150000001 30.051149333333335 34.2</gx:coord>

<when>2025-12-17T00:22:48.000Z</when>
<gx:coord>-114.59107983333334 30.049252833333338 40.6</gx:coord>

<when>2025-12-17T00:22:59.000Z</when>
<gx:coord>-114.58958249999999 30.047358666666664 42.9</gx:coord>

<when>2025-12-17T00:23:10.000Z</when>
<gx:coord>-114.58808666666667 30.045477166666668 38.0</gx:coord>

<when>2025-12-17T00:23:21.000Z</when>
<gx:coord>-114.58659683333332 30.04357883333333 30.5</gx:coord>

<when>2025-12-17T00:23:32.000Z</when>
<gx:coord>-114.58512333333334 30.041706666666663 34.3</gx:coord>

<when>2025-12-17T00:23:43.000Z</when>
<gx:coord>-114.58368483333334 30.039745833333335 29.5</gx:coord>

<when>2025-12-17T00:23:54.000Z</when>
<gx:coord>-114.582277 30.037551 19.4</gx:coord>

<when>2025-12-17T00:24:05.000Z</when>
<gx:coord>-114.58089399999999 30.035343166666667 18.2</gx:coord>

<when>2025-12-17T00:24:16.000Z</when>
<gx:coord>-114.57942683333334 30.033153666666667 15.1</gx:coord>

<when>2025-12-17T00:24:27.000Z</when>
<gx:coord>-114.577722 30.030919166666664 12.7</gx:coord>

<when>2025-12-17T00:24:38.000Z</when>
<gx:coord>-114.5759685 30.028691000000002 13.2</gx:coord>

<when>2025-12-17T00:24:49.000Z</when>
<gx:coord>-114.57428216666668 30.02655033333333 16.7</gx:coord>

<when>2025-12-17T00:25:00.000Z</when>
<gx:coord>-114.57259133333334 30.02436266666667 21.0</gx:coord>

<when>2025-12-17T00:25:11.000Z</when>
<gx:coord>-114.57106633333333 30.022235166666665 26.3</gx:coord>

<when>2025-12-17T00:25:22.000Z</when>
<gx:coord>-114.56964699999999 30.020196333333335 27.1</gx:coord>

<when>2025-12-17T00:25:33.000Z</when>
<gx:coord>-114.56828349999999 30.018168 25.4</gx:coord>

<when>2025-12-17T00:25:44.000Z</when>
<gx:coord>-114.56727266666667 30.01601683333333 22.6</gx:coord>

<when>2025-12-17T00:25:55.000Z</when>
<gx:coord>-114.56670116666668 30.01376283333333 17.2</gx:coord>

<when>2025-12-17T00:26:06.000Z</when>
<gx:coord>-114.56646350000001 30.011403499999997 17.4</gx:coord>

<when>2025-12-17T00:26:17.000Z</when>
<gx:coord>-114.56626916666667 30.0091245 28.0</gx:coord>

<when>2025-12-17T00:26:28.000Z</when>
<gx:coord>-114.56607783333332 30.006814333333335 33.4</gx:coord>

<when>2025-12-17T00:26:39.000Z</when>
<gx:coord>-114.56586266666666 30.00426183333333 31.0</gx:coord>

<when>2025-12-17T00:26:50.000Z</when>
<gx:coord>-114.56564599999999 30.001771500000004 37.9</gx:coord>

<when>2025-12-17T00:27:01.000Z</when>
<gx:coord>-114.56530816666667 29.999433999999997 48.2</gx:coord>

<when>2025-12-17T00:27:12.000Z</when>
<gx:coord>-114.56462383333334 29.997015499999996 49.9</gx:coord>

<when>2025-12-17T00:27:23.000Z</when>
<gx:coord>-114.56378216666666 29.994462 47.6</gx:coord>

<when>2025-12-17T00:27:34.000Z</when>
<gx:coord>-114.56293633333334 29.991918666666667 52.0</gx:coord>

<when>2025-12-17T00:27:45.000Z</when>
<gx:coord>-114.56209249999999 29.989391666666666 52.0</gx:coord>

<when>2025-12-17T00:27:56.000Z</when>
<gx:coord>-114.56124 29.98685366666667 45.2</gx:coord>

<when>2025-12-17T00:28:07.000Z</when>
<gx:coord>-114.56039116666668 29.98430733333333 49.6</gx:coord>

<when>2025-12-17T00:28:18.000Z</when>
<gx:coord>-114.55929883333334 29.9819715 58.7</gx:coord>

<when>2025-12-17T00:28:29.000Z</when>
<gx:coord>-114.55760883333332 29.97993466666667 57.0</gx:coord>

<when>2025-12-17T00:28:40.000Z</when>
<gx:coord>-114.55561383333334 29.97809516666667 52.2</gx:coord>

<when>2025-12-17T00:28:51.000Z</when>
<gx:coord>-114.5536425 29.97627783333333 56.0</gx:coord>

<when>2025-12-17T00:29:02.000Z</when>
<gx:coord>-114.55173933333332 29.974529500000003 59.9</gx:coord>

<when>2025-12-17T00:29:13.000Z</when>
<gx:coord>-114.54977916666667 29.97272966666667 56.4</gx:coord>

<when>2025-12-17T00:29:24.000Z</when>
<gx:coord>-114.54780366666667 29.970883833333332 50.4</gx:coord>

<when>2025-12-17T00:29:35.000Z</when>
<gx:coord>-114.54600883333333 29.968822333333332 44.1</gx:coord>

<when>2025-12-17T00:29:46.000Z</when>
<gx:coord>-114.54448383333332 29.966593166666666 35.9</gx:coord>

<when>2025-12-17T00:29:57.000Z</when>
<gx:coord>-114.54297049999998 29.964276499999997 31.4</gx:coord>

<when>2025-12-17T00:30:08.000Z</when>
<gx:coord>-114.54151599999999 29.96205133333334 38.5</gx:coord>

<when>2025-12-17T00:30:19.000Z</when>
<gx:coord>-114.54013766666667 29.959932333333334 45.3</gx:coord>

<when>2025-12-17T00:30:30.000Z</when>
<gx:coord>-114.53881683333333 29.957900666666667 50.0</gx:coord>

<when>2025-12-17T00:30:41.000Z</when>
<gx:coord>-114.5374835 29.955851999999997 54.0</gx:coord>

<when>2025-12-17T00:30:52.000Z</when>
<gx:coord>-114.53611266666667 29.953743500000005 59.4</gx:coord>

<when>2025-12-17T00:31:03.000Z</when>
<gx:coord>-114.53471466666666 29.951605499999996 64.5</gx:coord>

<when>2025-12-17T00:31:14.000Z</when>
<gx:coord>-114.53329433333334 29.949420666666665 67.7</gx:coord>

<when>2025-12-17T00:31:25.000Z</when>
<gx:coord>-114.53190733333334 29.947295999999998 71.1</gx:coord>

<when>2025-12-17T00:31:36.000Z</when>
<gx:coord>-114.53052333333332 29.94517283333333 75.1</gx:coord>

<when>2025-12-17T00:31:47.000Z</when>
<gx:coord>-114.52908566666669 29.942969166666664 76.8</gx:coord>

<when>2025-12-17T00:31:58.000Z</when>
<gx:coord>-114.52764816666668 29.940760500000003 81.8</gx:coord>

<when>2025-12-17T00:32:09.000Z</when>
<gx:coord>-114.52620716666667 29.93857816666667 87.9</gx:coord>

<when>2025-12-17T00:32:20.000Z</when>
<gx:coord>-114.52465833333332 29.936314833333334 86.8</gx:coord>

<when>2025-12-17T00:32:31.000Z</when>
<gx:coord>-114.523085 29.934070833333333 89.3</gx:coord>

<when>2025-12-17T00:32:42.000Z</when>
<gx:coord>-114.52156716666666 29.931908500000002 89.8</gx:coord>

<when>2025-12-17T00:32:53.000Z</when>
<gx:coord>-114.51996833333332 29.929622166666665 83.0</gx:coord>

<when>2025-12-17T00:33:04.000Z</when>
<gx:coord>-114.51829649999999 29.927386000000002 84.4</gx:coord>

<when>2025-12-17T00:33:15.000Z</when>
<gx:coord>-114.51611900000002 29.925531333333332 91.0</gx:coord>

<when>2025-12-17T00:33:26.000Z</when>
<gx:coord>-114.51339166666666 29.924188000000004 87.6</gx:coord>

<when>2025-12-17T00:33:37.000Z</when>
<gx:coord>-114.51042600000001 29.923078 79.4</gx:coord>

<when>2025-12-17T00:33:48.000Z</when>
<gx:coord>-114.507545 29.92200366666667 75.8</gx:coord>

<when>2025-12-17T00:33:59.000Z</when>
<gx:coord>-114.504756 29.920958166666665 74.6</gx:coord>

<when>2025-12-17T00:34:10.000Z</when>
<gx:coord>-114.5019705 29.919902666666665 71.9</gx:coord>

<when>2025-12-17T00:34:21.000Z</when>
<gx:coord>-114.49936350000002 29.91853133333333 70.1</gx:coord>

<when>2025-12-17T00:34:32.000Z</when>
<gx:coord>-114.49698866666668 29.916834166666664 68.8</gx:coord>

<when>2025-12-17T00:34:43.000Z</when>
<gx:coord>-114.49456450000001 29.915063499999995 67.1</gx:coord>

<when>2025-12-17T00:34:54.000Z</when>
<gx:coord>-114.49208766666668 29.91325883333333 65.0</gx:coord>

<when>2025-12-17T00:35:05.000Z</when>
<gx:coord>-114.48955383333332 29.911413166666662 61.4</gx:coord>

<when>2025-12-17T00:35:16.000Z</when>
<gx:coord>-114.48696399999999 29.909525 55.8</gx:coord>

<when>2025-12-17T00:35:27.000Z</when>
<gx:coord>-114.48441216666667 29.907661 53.3</gx:coord>

<when>2025-12-17T00:35:38.000Z</when>
<gx:coord>-114.48183599999999 29.905782833333333 51.5</gx:coord>

<when>2025-12-17T00:35:49.000Z</when>
<gx:coord>-114.4792605 29.903903500000002 50.6</gx:coord>

<when>2025-12-17T00:36:00.000Z</when>
<gx:coord>-114.47670616666667 29.90204983333333 47.3</gx:coord>

<when>2025-12-17T00:36:11.000Z</when>
<gx:coord>-114.474172 29.900198666666665 44.5</gx:coord>

<when>2025-12-17T00:36:22.000Z</when>
<gx:coord>-114.47167716666667 29.89837766666667 39.9</gx:coord>

<when>2025-12-17T00:36:33.000Z</when>
<gx:coord>-114.46919133333334 29.89655966666667 37.5</gx:coord>

<when>2025-12-17T00:36:44.000Z</when>
<gx:coord>-114.46668933333333 29.894733499999997 35.1</gx:coord>

<when>2025-12-17T00:36:55.000Z</when>
<gx:coord>-114.46421549999998 29.89292983333333 32.6</gx:coord>

<when>2025-12-17T00:37:06.000Z</when>
<gx:coord>-114.46203799999999 29.891143000000003 26.7</gx:coord>

<when>2025-12-17T00:37:17.000Z</when>
<gx:coord>-114.46007833333333 29.889040666666666 23.4</gx:coord>

<when>2025-12-17T00:37:28.000Z</when>
<gx:coord>-114.45824333333333 29.886769833333332 23.3</gx:coord>

<when>2025-12-17T00:37:39.000Z</when>
<gx:coord>-114.45638633333334 29.88447383333333 21.6</gx:coord>

<when>2025-12-17T00:37:50.000Z</when>
<gx:coord>-114.45459383333333 29.8822485 21.6</gx:coord>

<when>2025-12-17T00:38:01.000Z</when>
<gx:coord>-114.45294366666667 29.8801055 25.2</gx:coord>

<when>2025-12-17T00:38:12.000Z</when>
<gx:coord>-114.45154133333332 29.877734166666663 28.5</gx:coord>

<when>2025-12-17T00:38:23.000Z</when>
<gx:coord>-114.45046466666666 29.875140499999997 29.8</gx:coord>

<when>2025-12-17T00:38:34.000Z</when>
<gx:coord>-114.449585 29.872804166666665 33.1</gx:coord>

<when>2025-12-17T00:38:45.000Z</when>
<gx:coord>-114.44869166666668 29.870458 33.8</gx:coord>

<when>2025-12-17T00:38:56.000Z</when>
<gx:coord>-114.44775316666667 29.867966500000005 35.2</gx:coord>

<when>2025-12-17T00:39:07.000Z</when>
<gx:coord>-114.446839 29.865545166666667 34.5</gx:coord>

<when>2025-12-17T00:39:18.000Z</when>
<gx:coord>-114.44590783333334 29.863058666666667 32.5</gx:coord>

<when>2025-12-17T00:39:29.000Z</when>
<gx:coord>-114.444997 29.860648 34.2</gx:coord>

<when>2025-12-17T00:39:40.000Z</when>
<gx:coord>-114.44408483333333 29.858241833333334 36.2</gx:coord>

<when>2025-12-17T00:39:51.000Z</when>
<gx:coord>-114.44300783333334 29.855733333333333 38.2</gx:coord>

<when>2025-12-17T00:40:02.000Z</when>
<gx:coord>-114.4416855 29.853185500000002 41.7</gx:coord>

<when>2025-12-17T00:40:13.000Z</when>
<gx:coord>-114.440175 29.850708666666666 46.3</gx:coord>

<when>2025-12-17T00:40:24.000Z</when>
<gx:coord>-114.43863250000001 29.848274333333332 54.5</gx:coord>

<when>2025-12-17T00:40:35.000Z</when>
<gx:coord>-114.43719100000001 29.8460025 68.5</gx:coord>

<when>2025-12-17T00:40:46.000Z</when>
<gx:coord>-114.43580183333333 29.843825833333334 77.6</gx:coord>

<when>2025-12-17T00:40:57.000Z</when>
<gx:coord>-114.43419100000001 29.841715833333335 79.5</gx:coord>

<when>2025-12-17T00:41:08.000Z</when>
<gx:coord>-114.43249033333335 29.839874000000002 82.0</gx:coord>

<when>2025-12-17T00:41:19.000Z</when>
<gx:coord>-114.43088866666668 29.83815383333333 83.6</gx:coord>

<when>2025-12-17T00:41:30.000Z</when>
<gx:coord>-114.42949733333334 29.836224166666664 81.4</gx:coord>

<when>2025-12-17T00:41:41.000Z</when>
<gx:coord>-114.42840233333332 29.834047 79.7</gx:coord>

<when>2025-12-17T00:41:52.000Z</when>
<gx:coord>-114.42736483333334 29.831896666666662 71.2</gx:coord>

<when>2025-12-17T00:42:03.000Z</when>
<gx:coord>-114.42586166666666 29.829905 59.1</gx:coord>

<when>2025-12-17T00:42:14.000Z</when>
<gx:coord>-114.42389383333332 29.828119666666666 45.0</gx:coord>

<when>2025-12-17T00:42:25.000Z</when>
<gx:coord>-114.42204883333333 29.826399 42.6</gx:coord>

<when>2025-12-17T00:42:36.000Z</when>
<gx:coord>-114.42073450000001 29.824562999999998 47.6</gx:coord>

<when>2025-12-17T00:42:47.000Z</when>
<gx:coord>-114.419883 29.822538166666664 46.9</gx:coord>

<when>2025-12-17T00:42:58.000Z</when>
<gx:coord>-114.41953616666666 29.820421166666666 42.4</gx:coord>

<when>2025-12-17T00:43:09.000Z</when>
<gx:coord>-114.41949083333333 29.81824 45.3</gx:coord>

<when>2025-12-17T00:43:20.000Z</when>
<gx:coord>-114.41936233333332 29.816106166666668 39.8</gx:coord>

<when>2025-12-17T00:43:31.000Z</when>
<gx:coord>-114.41884316666668 29.813940666666667 30.9</gx:coord>

<when>2025-12-17T00:43:42.000Z</when>
<gx:coord>-114.41823733333334 29.812337166666666 26.5</gx:coord>

<when>2025-12-17T00:43:53.000Z</when>
<gx:coord>-114.41775383333334 29.81111583333333 23.5</gx:coord>

<when>2025-12-17T00:44:04.000Z</when>
<gx:coord>-114.41699733333334 29.80920716666667 19.4</gx:coord>

<when>2025-12-17T00:44:15.000Z</when>
<gx:coord>-114.41615483333332 29.806956 16.9</gx:coord>

<when>2025-12-17T00:44:26.000Z</when>
<gx:coord>-114.41556283333333 29.804586833333328 13.8</gx:coord>

<when>2025-12-17T00:44:37.000Z</when>
<gx:coord>-114.41525183333333 29.8020915 12.6</gx:coord>

<when>2025-12-17T00:44:48.000Z</when>
<gx:coord>-114.4150005 29.799601 16.7</gx:coord>

<when>2025-12-17T00:44:59.000Z</when>
<gx:coord>-114.41474699999999 29.79720316666667 19.3</gx:coord>

<when>2025-12-17T00:45:10.000Z</when>
<gx:coord>-114.41453283333334 29.795161833333335 21.7</gx:coord>

<when>2025-12-17T00:45:21.000Z</when>
<gx:coord>-114.41435299999999 29.793494333333335 22.7</gx:coord>

<when>2025-12-17T00:45:32.000Z</when>
<gx:coord>-114.41420566666666 29.792348500000003 23.0</gx:coord>

<when>2025-12-17T00:45:43.000Z</when>
<gx:coord>-114.41431416666667 29.791840999999998 21.9</gx:coord>

<when>2025-12-17T00:45:54.000Z</when>
<gx:coord>-114.41463583333334 29.7916685 19.4</gx:coord>

<when>2025-12-17T00:55:02.000Z</when>
<gx:coord>-114.41405133333335 29.791854333333337 0.0</gx:coord>

<when>2025-12-17T00:55:40.000Z</when>
<gx:coord>-114.41346816666668 29.792248166666663 15.5</gx:coord>

<when>2025-12-17T00:55:51.000Z</when>
<gx:coord>-114.41322683333334 29.792273833333336 15.4</gx:coord>

<when>2025-12-17T00:56:24.000Z</when>
<gx:coord>-114.41336733333334 29.7922595 17.9</gx:coord>

<when>2025-12-17T00:56:35.000Z</when>
<gx:coord>-114.41352533333333 29.792242166666664 17.7</gx:coord>

<when>2025-12-17T00:56:46.000Z</when>
<gx:coord>-114.41373783333331 29.792240833333334 16.7</gx:coord>

<when>2025-12-17T00:56:57.000Z</when>
<gx:coord>-114.41387233333334 29.792291833333334 17.2</gx:coord>

<when>2025-12-17T00:57:08.000Z</when>
<gx:coord>-114.41400616666667 29.79221016666667 19.6</gx:coord>

<when>2025-12-17T00:57:19.000Z</when>
<gx:coord>-114.41396216666665 29.791889833333336 21.3</gx:coord>

<when>2025-12-17T00:57:30.000Z</when>
<gx:coord>-114.41364316666667 29.79188633333333 19.8</gx:coord>

<when>2025-12-17T00:57:41.000Z</when>
<gx:coord>-114.41340516666666 29.791919 18.8</gx:coord>

<when>2025-12-17T00:57:52.000Z</when>
<gx:coord>-114.41274100000001 29.791983833333333 19.0</gx:coord>

<when>2025-12-17T00:58:03.000Z</when>
<gx:coord>-114.41160550000001 29.79207066666667 17.1</gx:coord>

<when>2025-12-17T00:58:14.000Z</when>
<gx:coord>-114.41023683333333 29.79219183333333 15.8</gx:coord>

<when>2025-12-17T00:58:25.000Z</when>
<gx:coord>-114.408759 29.7923235 13.0</gx:coord>

<when>2025-12-17T00:58:36.000Z</when>
<gx:coord>-114.40721800000001 29.792457833333334 10.2</gx:coord>

<when>2025-12-17T00:58:47.000Z</when>
<gx:coord>-114.40566249999999 29.792603166666662 8.5</gx:coord>

<when>2025-12-17T00:58:58.000Z</when>
<gx:coord>-114.40409766666669 29.792747333333335 7.1</gx:coord>

<when>2025-12-17T00:59:09.000Z</when>
<gx:coord>-114.40252466666668 29.792902833333333 5.1</gx:coord>

<when>2025-12-17T00:59:20.000Z</when>
<gx:coord>-114.40099149999999 29.793059833333338 4.9</gx:coord>

<when>2025-12-17T00:59:31.000Z</when>
<gx:coord>-114.39952550000001 29.793190499999998 4.7</gx:coord>

<when>2025-12-17T00:59:42.000Z</when>
<gx:coord>-114.39833766666668 29.793246500000002 3.2</gx:coord>

<when>2025-12-17T00:59:53.000Z</when>
<gx:coord>-114.39755166666667 29.79317116666667 2.7</gx:coord>

<when>2025-12-17T01:00:04.000Z</when>
<gx:coord>-114.39698833333333 29.792803499999998 4.2</gx:coord>

<when>2025-12-17T01:00:15.000Z</when>
<gx:coord>-114.39652533333334 29.792511166666667 5.2</gx:coord>

<when>2025-12-17T01:00:26.000Z</when>
<gx:coord>-114.39616249999999 29.7923435 6.6</gx:coord>

<when>2025-12-17T01:00:37.000Z</when>
<gx:coord>-114.39600333333334 29.792363666666667 5.2</gx:coord>

<when>2025-12-17T01:02:38.000Z</when>
<gx:coord>-114.39608933333332 29.792357666666664 6.0</gx:coord>

<when>2025-12-17T01:02:49.000Z</when>
<gx:coord>-114.39620199999999 29.792324333333333 5.1</gx:coord>

<when>2025-12-17T01:03:00.000Z</when>
<gx:coord>-114.39624366666666 29.79226233333333 4.4</gx:coord>

<when>2025-12-17T01:03:11.000Z</when>
<gx:coord>-114.39607550000001 29.79224633333333 3.3</gx:coord>

<when>2025-12-17T01:03:22.000Z</when>
<gx:coord>-114.39599449999999 29.7922685 3.0</gx:coord>

<when>2025-12-17T01:04:39.000Z</when>
<gx:coord>-114.39608116666668 29.792234999999998 2.2</gx:coord>

<when>2025-12-17T01:04:50.000Z</when>
<gx:coord>-114.39619683333333 29.792245166666664 1.2</gx:coord>

<when>2025-12-17T01:05:12.000Z</when>
<gx:coord>-114.39620699999999 29.79212933333333 1.9</gx:coord>

<when>2025-12-17T01:05:23.000Z</when>
<gx:coord>-114.39619766666668 29.79221016666667 2.2</gx:coord>

<when>2025-12-17T01:05:34.000Z</when>
<gx:coord>-114.39614949999999 29.79222933333333 2.3</gx:coord>

<when>2025-12-17T01:05:45.000Z</when>
<gx:coord>-114.39610133333332 29.792251166666667 1.3</gx:coord>

<when>2025-12-17T01:06:07.000Z</when>
<gx:coord>-114.39604883333335 29.7922595 1.9</gx:coord>
</gx:Track>
</Placemark></Document></kml>
