<?xml version="1.0" encoding="UTF-8"?><kml xmlns="http://www.opengis.net/kml/2.2" xmlns:gx="http://www.google.com/kml/ext/2.2" xmlns:kml="http://www.opengis.net/kml/2.2" xmlns:atom="http://www.w3.org/2005/Atom"><Document><name>2025-12-05T19:12:41.000Z</name>
<Placemark>
<gx:Track>

<when>2025-12-05T19:12:41.000Z</when>
<gx:coord>-97.58186216666667 29.589823833333337 81.0</gx:coord>

<when>2025-12-05T19:13:04.000Z</when>
<gx:coord>-97.58184816666666 29.589766333333333 72.0</gx:coord>

<when>2025-12-05T19:13:27.000Z</when>
<gx:coord>-97.58182733333334 29.589832166666664 86.0</gx:coord>

<when>2025-12-05T19:17:18.000Z</when>
<gx:coord>-97.58177633333335 29.58981983333333 96.0</gx:coord>

<when>2025-12-05T19:21:09.000Z</when>
<gx:coord>-97.58173800000002 29.58986183333333 97.1</gx:coord>

<when>2025-12-05T19:25:00.000Z</when>
<gx:coord>-97.58180583333333 29.589865999999997 99.7</gx:coord>

<when>2025-12-05T19:25:22.000Z</when>
<gx:coord>-97.58186933333333 29.589879333333336 96.8</gx:coord>

<when>2025-12-05T19:26:06.000Z</when>
<gx:coord>-97.58193449999999 29.589904499999996 97.1</gx:coord>

<when>2025-12-05T19:26:28.000Z</when>
<gx:coord>-97.582094 29.589895833333337 92.0</gx:coord>

<when>2025-12-05T19:26:39.000Z</when>
<gx:coord>-97.58232216666666 29.589845333333333 76.9</gx:coord>

<when>2025-12-05T19:26:50.000Z</when>
<gx:coord>-97.58242066666665 29.58969366666667 72.1</gx:coord>

<when>2025-12-05T19:27:12.000Z</when>
<gx:coord>-97.58247383333334 29.589736500000004 83.4</gx:coord>

<when>2025-12-05T20:16:12.000Z</when>
<gx:coord>-97.5829735 29.58972233333333 62.0</gx:coord>

<when>2025-12-05T20:16:55.000Z</when>
<gx:coord>-97.58262516666667 29.589778166666665 63.2</gx:coord>

<when>2025-12-05T20:17:07.000Z</when>
<gx:coord>-97.58269666666665 29.589759166666667 94.1</gx:coord>

<when>2025-12-05T20:17:29.000Z</when>
<gx:coord>-97.58243833333333 29.589869500000002 105.8</gx:coord>

<when>2025-12-05T20:19:08.000Z</when>
<gx:coord>-97.58239066666665 29.589850666666667 106.4</gx:coord>

<when>2025-12-05T20:20:36.000Z</when>
<gx:coord>-97.58233966666667 29.589835 104.0</gx:coord>

<when>2025-12-05T20:22:15.000Z</when>
<gx:coord>-97.58240683333334 29.58982866666667 97.5</gx:coord>

<when>2025-12-05T20:28:51.000Z</when>
<gx:coord>-97.58237016666665 29.589860833333333 88.1</gx:coord>

<when>2025-12-05T20:33:37.000Z</when>
<gx:coord>-97.58242049999998 29.589871166666665 86.4</gx:coord>

<when>2025-12-05T20:41:30.000Z</when>
<gx:coord>-97.58246750000002 29.589842833333332 94.5</gx:coord>

<when>2025-12-05T20:42:58.000Z</when>
<gx:coord>-97.58252016666665 29.589808833333336 92.8</gx:coord>

<when>2025-12-05T20:43:09.000Z</when>
<gx:coord>-97.58272716666667 29.5896145 89.2</gx:coord>

<when>2025-12-05T20:43:20.000Z</when>
<gx:coord>-97.58311633333332 29.589226 81.3</gx:coord>

<when>2025-12-05T20:43:31.000Z</when>
<gx:coord>-97.58336616666665 29.588983666666664 82.1</gx:coord>

<when>2025-12-05T20:43:42.000Z</when>
<gx:coord>-97.583453 29.588521999999998 82.3</gx:coord>

<when>2025-12-05T20:43:53.000Z</when>
<gx:coord>-97.58361666666666 29.587985333333336 82.9</gx:coord>

<when>2025-12-05T20:44:04.000Z</when>
<gx:coord>-97.58393583333333 29.58771916666667 72.6</gx:coord>

<when>2025-12-05T20:44:15.000Z</when>
<gx:coord>-97.58425116666668 29.587659666666664 69.3</gx:coord>

<when>2025-12-05T20:44:26.000Z</when>
<gx:coord>-97.58462166666668 29.58774133333333 47.7</gx:coord>

<when>2025-12-05T20:44:37.000Z</when>
<gx:coord>-97.584832 29.588019 18.2</gx:coord>

<when>2025-12-05T20:44:48.000Z</when>
<gx:coord>-97.58549783333335 29.588135833333332 28.2</gx:coord>

<when>2025-12-05T20:44:59.000Z</when>
<gx:coord>-97.58624300000001 29.588133333333335 44.5</gx:coord>

<when>2025-12-05T20:45:10.000Z</when>
<gx:coord>-97.58683216666668 29.588026 42.0</gx:coord>

<when>2025-12-05T20:45:21.000Z</when>
<gx:coord>-97.58743866666667 29.58801283333333 44.4</gx:coord>

<when>2025-12-05T20:45:32.000Z</when>
<gx:coord>-97.58815899999999 29.587997166666664 42.3</gx:coord>

<when>2025-12-05T20:45:43.000Z</when>
<gx:coord>-97.58900550000001 29.587865000000004 55.7</gx:coord>

<when>2025-12-05T20:45:54.000Z</when>
<gx:coord>-97.589827 29.587698666666665 61.7</gx:coord>

<when>2025-12-05T20:46:05.000Z</when>
<gx:coord>-97.5906295 29.5875435 66.0</gx:coord>

<when>2025-12-05T20:46:16.000Z</when>
<gx:coord>-97.59106483333335 29.587699833333332 63.9</gx:coord>

<when>2025-12-05T20:46:27.000Z</when>
<gx:coord>-97.59089716666668 29.588074666666664 68.9</gx:coord>

<when>2025-12-05T20:46:38.000Z</when>
<gx:coord>-97.59032583333334 29.588895333333333 71.9</gx:coord>

<when>2025-12-05T20:46:49.000Z</when>
<gx:coord>-97.58949633333334 29.590099499999997 74.3</gx:coord>

<when>2025-12-05T20:47:00.000Z</when>
<gx:coord>-97.58861333333334 29.59141083333333 79.4</gx:coord>

<when>2025-12-05T20:47:11.000Z</when>
<gx:coord>-97.58790666666667 29.59246033333333 84.1</gx:coord>

<when>2025-12-05T20:47:22.000Z</when>
<gx:coord>-97.58714266666667 29.59355333333333 85.3</gx:coord>

<when>2025-12-05T20:47:33.000Z</when>
<gx:coord>-97.58631949999999 29.5947155 85.9</gx:coord>

<when>2025-12-05T20:47:44.000Z</when>
<gx:coord>-97.5853435 29.5958165 88.6</gx:coord>

<when>2025-12-05T20:47:55.000Z</when>
<gx:coord>-97.584704 29.597067 91.3</gx:coord>

<when>2025-12-05T20:48:06.000Z</when>
<gx:coord>-97.58444283333334 29.597730666666667 93.6</gx:coord>

<when>2025-12-05T20:48:17.000Z</when>
<gx:coord>-97.584249 29.5982335 94.3</gx:coord>

<when>2025-12-05T20:48:28.000Z</when>
<gx:coord>-97.58378866666665 29.5993115 95.2</gx:coord>

<when>2025-12-05T20:48:39.000Z</when>
<gx:coord>-97.5831735 29.600387333333334 95.6</gx:coord>

<when>2025-12-05T20:48:50.000Z</when>
<gx:coord>-97.58239816666668 29.601573666666663 95.2</gx:coord>

<when>2025-12-05T20:49:01.000Z</when>
<gx:coord>-97.58151466666668 29.602951833333336 94.0</gx:coord>

<when>2025-12-05T20:49:12.000Z</when>
<gx:coord>-97.58062333333334 29.604352833333337 94.5</gx:coord>

<when>2025-12-05T20:49:23.000Z</when>
<gx:coord>-97.57972416666668 29.605775499999996 95.9</gx:coord>

<when>2025-12-05T20:49:34.000Z</when>
<gx:coord>-97.57874066666666 29.6072865 99.6</gx:coord>

<when>2025-12-05T20:49:45.000Z</when>
<gx:coord>-97.57769933333333 29.608887499999998 101.2</gx:coord>

<when>2025-12-05T20:49:56.000Z</when>
<gx:coord>-97.57669333333334 29.610457333333336 102.6</gx:coord>

<when>2025-12-05T20:50:07.000Z</when>
<gx:coord>-97.57569749999999 29.611986 104.4</gx:coord>

<when>2025-12-05T20:50:18.000Z</when>
<gx:coord>-97.57470283333332 29.613518999999997 106.6</gx:coord>

<when>2025-12-05T20:50:29.000Z</when>
<gx:coord>-97.57369316666667 29.615059166666665 109.8</gx:coord>

<when>2025-12-05T20:50:40.000Z</when>
<gx:coord>-97.57269716666666 29.616563166666666 115.1</gx:coord>

<when>2025-12-05T20:50:51.000Z</when>
<gx:coord>-97.57172766666666 29.61804366666667 114.5</gx:coord>

<when>2025-12-05T20:51:02.000Z</when>
<gx:coord>-97.57114733333334 29.618955666666672 118.9</gx:coord>

<when>2025-12-05T20:51:13.000Z</when>
<gx:coord>-97.57099983333335 29.619332333333332 121.4</gx:coord>

<when>2025-12-05T20:51:24.000Z</when>
<gx:coord>-97.57145383333334 29.620578833333337 123.5</gx:coord>

<when>2025-12-05T20:51:35.000Z</when>
<gx:coord>-97.5720315 29.622180166666666 130.6</gx:coord>

<when>2025-12-05T20:51:46.000Z</when>
<gx:coord>-97.57266866666666 29.62393116666666 137.0</gx:coord>

<when>2025-12-05T20:51:57.000Z</when>
<gx:coord>-97.57335149999999 29.62580666666667 140.0</gx:coord>

<when>2025-12-05T20:52:08.000Z</when>
<gx:coord>-97.57429533333334 29.627934166666666 132.5</gx:coord>

<when>2025-12-05T20:52:19.000Z</when>
<gx:coord>-97.57576266666668 29.630208166666662 122.8</gx:coord>

<when>2025-12-05T20:52:30.000Z</when>
<gx:coord>-97.57781250000001 29.63232066666667 112.3</gx:coord>

<when>2025-12-05T20:52:41.000Z</when>
<gx:coord>-97.57981766666666 29.634371333333334 117.3</gx:coord>

<when>2025-12-05T20:52:52.000Z</when>
<gx:coord>-97.58179916666668 29.63638716666667 117.7</gx:coord>

<when>2025-12-05T20:53:03.000Z</when>
<gx:coord>-97.58366983333332 29.638361166666662 119.6</gx:coord>

<when>2025-12-05T20:53:14.000Z</when>
<gx:coord>-97.58547583333332 29.640431666666668 116.8</gx:coord>

<when>2025-12-05T20:53:25.000Z</when>
<gx:coord>-97.58673833333333 29.642846333333335 113.5</gx:coord>

<when>2025-12-05T20:53:36.000Z</when>
<gx:coord>-97.58788950000002 29.645236 115.9</gx:coord>

<when>2025-12-05T20:53:47.000Z</when>
<gx:coord>-97.58896816666666 29.647466500000004 108.4</gx:coord>

<when>2025-12-05T20:53:58.000Z</when>
<gx:coord>-97.58986766666666 29.649322166666668 101.2</gx:coord>

<when>2025-12-05T20:54:09.000Z</when>
<gx:coord>-97.59045233333333 29.6504605 98.5</gx:coord>

<when>2025-12-05T20:54:20.000Z</when>
<gx:coord>-97.59157483333333 29.651837166666663 95.8</gx:coord>

<when>2025-12-05T20:54:31.000Z</when>
<gx:coord>-97.59319516666667 29.653069833333333 95.7</gx:coord>

<when>2025-12-05T20:54:42.000Z</when>
<gx:coord>-97.59499483333333 29.653936166666668 99.2</gx:coord>

<when>2025-12-05T20:54:53.000Z</when>
<gx:coord>-97.59684483333334 29.65458533333333 100.4</gx:coord>

<when>2025-12-05T20:55:04.000Z</when>
<gx:coord>-97.59889249999999 29.65529466666667 98.7</gx:coord>

<when>2025-12-05T20:55:15.000Z</when>
<gx:coord>-97.60106016666666 29.65606866666667 97.4</gx:coord>

<when>2025-12-05T20:55:26.000Z</when>
<gx:coord>-97.60347500000002 29.656922166666664 96.8</gx:coord>

<when>2025-12-05T20:55:37.000Z</when>
<gx:coord>-97.60589616666667 29.657796333333334 96.6</gx:coord>

<when>2025-12-05T20:55:48.000Z</when>
<gx:coord>-97.60826049999999 29.658852333333336 98.7</gx:coord>

<when>2025-12-05T20:55:59.000Z</when>
<gx:coord>-97.61057016666668 29.66004966666667 96.6</gx:coord>

<when>2025-12-05T20:56:10.000Z</when>
<gx:coord>-97.61295649999998 29.661296500000002 95.2</gx:coord>

<when>2025-12-05T20:56:21.000Z</when>
<gx:coord>-97.61535233333333 29.66254366666667 95.3</gx:coord>

<when>2025-12-05T20:56:32.000Z</when>
<gx:coord>-97.617747 29.663793000000002 96.0</gx:coord>

<when>2025-12-05T20:56:43.000Z</when>
<gx:coord>-97.62016200000001 29.665089 98.0</gx:coord>

<when>2025-12-05T20:56:54.000Z</when>
<gx:coord>-97.62223916666666 29.666814666666664 101.3</gx:coord>

<when>2025-12-05T20:57:05.000Z</when>
<gx:coord>-97.62415833333334 29.668632166666665 109.9</gx:coord>

<when>2025-12-05T20:57:16.000Z</when>
<gx:coord>-97.62606233333332 29.67033633333333 115.4</gx:coord>

<when>2025-12-05T20:57:27.000Z</when>
<gx:coord>-97.62804883333335 29.671992999999997 111.5</gx:coord>

<when>2025-12-05T20:57:38.000Z</when>
<gx:coord>-97.62991166666667 29.673528499999996 113.7</gx:coord>

<when>2025-12-05T20:57:49.000Z</when>
<gx:coord>-97.63172099999998 29.674993166666663 111.5</gx:coord>

<when>2025-12-05T20:58:00.000Z</when>
<gx:coord>-97.63357216666667 29.676243 112.0</gx:coord>

<when>2025-12-05T20:58:11.000Z</when>
<gx:coord>-97.63533866666667 29.677391166666666 114.9</gx:coord>

<when>2025-12-05T20:58:22.000Z</when>
<gx:coord>-97.63717749999999 29.678544666666667 113.8</gx:coord>

<when>2025-12-05T20:58:33.000Z</when>
<gx:coord>-97.63908733333334 29.67934266666667 115.8</gx:coord>

<when>2025-12-05T20:58:44.000Z</when>
<gx:coord>-97.64106216666666 29.679905333333334 114.7</gx:coord>

<when>2025-12-05T20:58:55.000Z</when>
<gx:coord>-97.64303300000002 29.680148 113.4</gx:coord>

<when>2025-12-05T20:59:06.000Z</when>
<gx:coord>-97.64501550000001 29.680327333333334 117.2</gx:coord>

<when>2025-12-05T20:59:17.000Z</when>
<gx:coord>-97.64653516666667 29.68044766666667 119.1</gx:coord>

<when>2025-12-05T20:59:28.000Z</when>
<gx:coord>-97.64686733333335 29.680490833333337 118.8</gx:coord>

<when>2025-12-05T21:00:01.000Z</when>
<gx:coord>-97.647228 29.680516333333337 120.1</gx:coord>

<when>2025-12-05T21:00:12.000Z</when>
<gx:coord>-97.64763133333332 29.680297666666668 117.2</gx:coord>

<when>2025-12-05T21:00:23.000Z</when>
<gx:coord>-97.64780416666666 29.680113666666664 116.2</gx:coord>

<when>2025-12-05T21:16:33.000Z</when>
<gx:coord>-97.647675 29.68007583333333 150.5</gx:coord>

<when>2025-12-05T21:16:44.000Z</when>
<gx:coord>-97.64768983333333 29.679809833333334 143.0</gx:coord>

<when>2025-12-05T21:16:55.000Z</when>
<gx:coord>-97.64781066666667 29.678955499999997 143.4</gx:coord>

<when>2025-12-05T21:17:06.000Z</when>
<gx:coord>-97.64795383333333 29.67786533333333 140.9</gx:coord>

<when>2025-12-05T21:17:16.000Z</when>
<gx:coord>-97.64805066666668 29.677104333333332 139.9</gx:coord>

<when>2025-12-05T21:17:27.000Z</when>
<gx:coord>-97.64823833333334 29.676758666666668 140.9</gx:coord>

<when>2025-12-05T21:45:32.000Z</when>
<gx:coord>-97.64782083333333 29.6795645 131.3</gx:coord>

<when>2025-12-05T21:45:43.000Z</when>
<gx:coord>-97.64837583333335 29.679631166666663 132.5</gx:coord>

<when>2025-12-05T21:45:54.000Z</when>
<gx:coord>-97.64895166666665 29.67966966666667 127.6</gx:coord>

<when>2025-12-05T21:46:05.000Z</when>
<gx:coord>-97.64959366666666 29.67976 129.0</gx:coord>

<when>2025-12-05T21:46:16.000Z</when>
<gx:coord>-97.650155 29.67984183333333 125.5</gx:coord>

<when>2025-12-05T21:46:27.000Z</when>
<gx:coord>-97.650288 29.680369499999998 132.8</gx:coord>

<when>2025-12-05T21:46:38.000Z</when>
<gx:coord>-97.65023733333334 29.68069666666667 132.1</gx:coord>

<when>2025-12-05T21:46:49.000Z</when>
<gx:coord>-97.64997066666668 29.680718333333335 131.9</gx:coord>

<when>2025-12-05T21:47:00.000Z</when>
<gx:coord>-97.64963216666665 29.680597166666665 114.0</gx:coord>

<when>2025-12-05T21:47:11.000Z</when>
<gx:coord>-97.64916866666665 29.680543333333336 114.0</gx:coord>

<when>2025-12-05T21:47:22.000Z</when>
<gx:coord>-97.64912216666669 29.68024816666667 117.4</gx:coord>

<when>2025-12-05T21:47:33.000Z</when>
<gx:coord>-97.64912083333333 29.6800355 124.2</gx:coord>

<when>2025-12-05T21:47:55.000Z</when>
<gx:coord>-97.64907733333332 29.67999033333333 131.4</gx:coord>

<when>2025-12-05T21:48:28.000Z</when>
<gx:coord>-97.64904166666665 29.679957166666668 138.5</gx:coord>

<when>2025-12-05T21:49:01.000Z</when>
<gx:coord>-97.64908216666666 29.6797935 136.9</gx:coord>

<when>2025-12-05T21:49:12.000Z</when>
<gx:coord>-97.64921350000002 29.679749 134.5</gx:coord>

<when>2025-12-05T21:51:13.000Z</when>
<gx:coord>-97.649797 29.679793333333336 119.8</gx:coord>

<when>2025-12-05T21:51:24.000Z</when>
<gx:coord>-97.65029150000001 29.679950833333336 115.4</gx:coord>

<when>2025-12-05T21:51:35.000Z</when>
<gx:coord>-97.6502485 29.680548833333333 114.6</gx:coord>

<when>2025-12-05T21:51:46.000Z</when>
<gx:coord>-97.65022833333333 29.680709166666663 114.8</gx:coord>

<when>2025-12-05T21:52:08.000Z</when>
<gx:coord>-97.65005783333332 29.680757833333338 118.3</gx:coord>

<when>2025-12-05T21:52:19.000Z</when>
<gx:coord>-97.64931983333332 29.68065483333333 111.1</gx:coord>

<when>2025-12-05T21:52:30.000Z</when>
<gx:coord>-97.64837383333334 29.680562166666665 110.9</gx:coord>

<when>2025-12-05T21:52:41.000Z</when>
<gx:coord>-97.6479695 29.6805245 110.3</gx:coord>

<when>2025-12-05T21:52:52.000Z</when>
<gx:coord>-97.64791383333335 29.680530833333332 113.0</gx:coord>

<when>2025-12-05T21:53:14.000Z</when>
<gx:coord>-97.64762383333333 29.68050016666667 115.9</gx:coord>

<when>2025-12-05T21:53:25.000Z</when>
<gx:coord>-97.64682933333333 29.680417000000002 112.0</gx:coord>

<when>2025-12-05T21:53:36.000Z</when>
<gx:coord>-97.645611 29.68029466666667 110.9</gx:coord>

<when>2025-12-05T21:53:47.000Z</when>
<gx:coord>-97.64403483333332 29.680150333333337 111.2</gx:coord>

<when>2025-12-05T21:53:58.000Z</when>
<gx:coord>-97.64213866666665 29.679964499999997 109.1</gx:coord>

<when>2025-12-05T21:54:09.000Z</when>
<gx:coord>-97.64020666666666 29.679572833333335 109.3</gx:coord>

<when>2025-12-05T21:54:20.000Z</when>
<gx:coord>-97.63833016666668 29.678965166666664 109.8</gx:coord>

<when>2025-12-05T21:54:31.000Z</when>
<gx:coord>-97.63654 29.67801366666667 109.6</gx:coord>

<when>2025-12-05T21:54:42.000Z</when>
<gx:coord>-97.63478616666667 29.676891833333336 112.4</gx:coord>

<when>2025-12-05T21:54:53.000Z</when>
<gx:coord>-97.63292233333335 29.675672166666665 109.8</gx:coord>

<when>2025-12-05T21:55:04.000Z</when>
<gx:coord>-97.63101483333334 29.674272333333338 110.8</gx:coord>

<when>2025-12-05T21:55:15.000Z</when>
<gx:coord>-97.629246 29.67280933333333 110.6</gx:coord>

<when>2025-12-05T21:55:26.000Z</when>
<gx:coord>-97.62737216666667 29.671262333333335 108.0</gx:coord>

<when>2025-12-05T21:55:37.000Z</when>
<gx:coord>-97.62556083333332 29.669767666666665 112.2</gx:coord>

<when>2025-12-05T21:55:48.000Z</when>
<gx:coord>-97.62382433333332 29.668153500000003 106.8</gx:coord>

<when>2025-12-05T21:55:59.000Z</when>
<gx:coord>-97.6220275 29.666453666666666 103.2</gx:coord>

<when>2025-12-05T21:56:10.000Z</when>
<gx:coord>-97.620166 29.66495033333333 103.2</gx:coord>

<when>2025-12-05T21:56:21.000Z</when>
<gx:coord>-97.61801083333333 29.66379266666667 102.0</gx:coord>

<when>2025-12-05T21:56:32.000Z</when>
<gx:coord>-97.61571183333332 29.66259116666667 100.5</gx:coord>

<when>2025-12-05T21:56:43.000Z</when>
<gx:coord>-97.61332966666666 29.661345166666667 100.9</gx:coord>

<when>2025-12-05T21:56:54.000Z</when>
<gx:coord>-97.61085800000001 29.66005266666667 101.3</gx:coord>

<when>2025-12-05T21:57:05.000Z</when>
<gx:coord>-97.60836016666666 29.658753499999996 104.2</gx:coord>

<when>2025-12-05T21:57:16.000Z</when>
<gx:coord>-97.605794 29.657609499999996 102.8</gx:coord>

<when>2025-12-05T21:57:27.000Z</when>
<gx:coord>-97.60320633333335 29.656623666666665 103.7</gx:coord>

<when>2025-12-05T21:57:38.000Z</when>
<gx:coord>-97.60063183333332 29.655707666666665 104.8</gx:coord>

<when>2025-12-05T21:57:49.000Z</when>
<gx:coord>-97.59825833333335 29.65485066666667 105.5</gx:coord>

<when>2025-12-05T21:58:00.000Z</when>
<gx:coord>-97.59675066666665 29.654151666666667 107.2</gx:coord>

<when>2025-12-05T21:58:11.000Z</when>
<gx:coord>-97.59633616666666 29.65399616666667 107.5</gx:coord>

<when>2025-12-05T21:58:44.000Z</when>
<gx:coord>-97.59628133333332 29.6539845 106.4</gx:coord>

<when>2025-12-05T21:58:55.000Z</when>
<gx:coord>-97.59532533333335 29.653677666666667 104.9</gx:coord>

<when>2025-12-05T21:59:06.000Z</when>
<gx:coord>-97.59389616666667 29.65308483333333 101.7</gx:coord>

<when>2025-12-05T21:59:17.000Z</when>
<gx:coord>-97.5937525 29.65300783333333 101.4</gx:coord>

<when>2025-12-05T22:00:01.000Z</when>
<gx:coord>-97.59361816666666 29.65292866666667 100.7</gx:coord>

<when>2025-12-05T22:00:12.000Z</when>
<gx:coord>-97.59255566666667 29.652248999999998 99.3</gx:coord>

<when>2025-12-05T22:00:23.000Z</when>
<gx:coord>-97.59117533333334 29.6509865 98.7</gx:coord>

<when>2025-12-05T22:00:34.000Z</when>
<gx:coord>-97.58994133333333 29.649219000000002 100.7</gx:coord>

<when>2025-12-05T22:00:45.000Z</when>
<gx:coord>-97.58894450000001 29.647179166666668 106.2</gx:coord>

<when>2025-12-05T22:00:56.000Z</when>
<gx:coord>-97.58796666666667 29.645172333333335 112.9</gx:coord>

<when>2025-12-05T22:01:07.000Z</when>
<gx:coord>-97.58692549999999 29.643020666666665 111.3</gx:coord>

<when>2025-12-05T22:01:18.000Z</when>
<gx:coord>-97.58577083333333 29.640727000000002 111.8</gx:coord>

<when>2025-12-05T22:01:29.000Z</when>
<gx:coord>-97.5840855 29.638677833333336 114.0</gx:coord>

<when>2025-12-05T22:01:40.000Z</when>
<gx:coord>-97.58222566666667 29.636701000000002 115.7</gx:coord>

<when>2025-12-05T22:01:51.000Z</when>
<gx:coord>-97.58027933333332 29.634701333333336 114.1</gx:coord>

<when>2025-12-05T22:02:02.000Z</when>
<gx:coord>-97.5783075 29.632696666666668 111.8</gx:coord>

<when>2025-12-05T22:02:13.000Z</when>
<gx:coord>-97.57629800000001 29.630652333333334 115.0</gx:coord>

<when>2025-12-05T22:02:24.000Z</when>
<gx:coord>-97.57470083333334 29.628527333333334 121.7</gx:coord>

<when>2025-12-05T22:02:35.000Z</when>
<gx:coord>-97.57360283333334 29.626255333333333 132.1</gx:coord>

<when>2025-12-05T22:02:46.000Z</when>
<gx:coord>-97.57274816666668 29.623919666666666 132.0</gx:coord>

<when>2025-12-05T22:02:57.000Z</when>
<gx:coord>-97.57191900000001 29.62162316666667 126.3</gx:coord>

<when>2025-12-05T22:03:08.000Z</when>
<gx:coord>-97.57121466666668 29.61959583333333 120.4</gx:coord>

<when>2025-12-05T22:03:19.000Z</when>
<gx:coord>-97.57136483333333 29.61866766666667 118.7</gx:coord>

<when>2025-12-05T22:03:30.000Z</when>
<gx:coord>-97.5721655 29.61743183333333 115.3</gx:coord>

<when>2025-12-05T22:03:41.000Z</when>
<gx:coord>-97.57304633333334 29.616084166666663 115.6</gx:coord>

<when>2025-12-05T22:03:52.000Z</when>
<gx:coord>-97.574066 29.614548 110.5</gx:coord>

<when>2025-12-05T22:04:03.000Z</when>
<gx:coord>-97.575128 29.61292116666667 108.6</gx:coord>

<when>2025-12-05T22:04:14.000Z</when>
<gx:coord>-97.57618900000001 29.611303333333332 107.7</gx:coord>

<when>2025-12-05T22:04:25.000Z</when>
<gx:coord>-97.57723349999999 29.609691666666663 107.4</gx:coord>

<when>2025-12-05T22:04:36.000Z</when>
<gx:coord>-97.5782365 29.60814683333333 103.8</gx:coord>

<when>2025-12-05T22:04:47.000Z</when>
<gx:coord>-97.57923666666666 29.606601833333336 103.2</gx:coord>

<when>2025-12-05T22:04:58.000Z</when>
<gx:coord>-97.58031350000002 29.60490916666667 100.5</gx:coord>

<when>2025-12-05T22:05:09.000Z</when>
<gx:coord>-97.58139333333332 29.60322066666667 99.8</gx:coord>

<when>2025-12-05T22:05:20.000Z</when>
<gx:coord>-97.5824755 29.601542166666665 97.0</gx:coord>

<when>2025-12-05T22:05:31.000Z</when>
<gx:coord>-97.58337966666667 29.600158000000004 98.6</gx:coord>

<when>2025-12-05T22:05:42.000Z</when>
<gx:coord>-97.58386899999999 29.599267333333334 98.6</gx:coord>

<when>2025-12-05T22:05:53.000Z</when>
<gx:coord>-97.58434483333333 29.59815083333334 97.3</gx:coord>

<when>2025-12-05T22:06:04.000Z</when>
<gx:coord>-97.58458199999998 29.597523666666667 96.2</gx:coord>

<when>2025-12-05T22:06:15.000Z</when>
<gx:coord>-97.58485350000001 29.59685683333333 94.7</gx:coord>

<when>2025-12-05T22:06:26.000Z</when>
<gx:coord>-97.58523250000002 29.596131833333335 92.7</gx:coord>

<when>2025-12-05T22:06:37.000Z</when>
<gx:coord>-97.58595249999999 29.595299333333333 89.7</gx:coord>

<when>2025-12-05T22:06:48.000Z</when>
<gx:coord>-97.58668983333334 29.59441 88.7</gx:coord>

<when>2025-12-05T22:06:59.000Z</when>
<gx:coord>-97.58744833333334 29.593302 92.7</gx:coord>

<when>2025-12-05T22:07:10.000Z</when>
<gx:coord>-97.58826766666668 29.592119333333336 93.9</gx:coord>

<when>2025-12-05T22:07:21.000Z</when>
<gx:coord>-97.58929183333333 29.590661500000003 88.2</gx:coord>

<when>2025-12-05T22:07:32.000Z</when>
<gx:coord>-97.59043933333332 29.588992833333336 89.7</gx:coord>

<when>2025-12-05T22:07:43.000Z</when>
<gx:coord>-97.5912925 29.58777183333333 91.1</gx:coord>

<when>2025-12-05T22:07:54.000Z</when>
<gx:coord>-97.59131083333332 29.58757633333333 90.6</gx:coord>

<when>2025-12-05T22:08:27.000Z</when>
<gx:coord>-97.591154 29.587891666666664 83.9</gx:coord>

<when>2025-12-05T22:08:38.000Z</when>
<gx:coord>-97.59093966666666 29.588221833333332 84.1</gx:coord>

<when>2025-12-05T22:08:49.000Z</when>
<gx:coord>-97.59076633333333 29.58845983333333 85.0</gx:coord>

<when>2025-12-05T22:09:00.000Z</when>
<gx:coord>-97.59058266666668 29.588724333333335 85.5</gx:coord>

<when>2025-12-05T22:09:11.000Z</when>
<gx:coord>-97.59047133333334 29.588836666666666 80.8</gx:coord>

<when>2025-12-05T22:09:33.000Z</when>
<gx:coord>-97.59044883333333 29.58887966666667 88.2</gx:coord>

<when>2025-12-05T22:10:17.000Z</when>
<gx:coord>-97.59041616666667 29.588919 96.1</gx:coord>

<when>2025-12-05T22:11:12.000Z</when>
<gx:coord>-97.59038450000001 29.588977833333335 101.2</gx:coord>

<when>2025-12-05T22:11:23.000Z</when>
<gx:coord>-97.59019483333334 29.589286666666666 97.1</gx:coord>

<when>2025-12-05T22:11:34.000Z</when>
<gx:coord>-97.58969066666666 29.590012499999997 95.5</gx:coord>

<when>2025-12-05T22:11:45.000Z</when>
<gx:coord>-97.58908016666668 29.590886166666664 96.2</gx:coord>

<when>2025-12-05T22:11:56.000Z</when>
<gx:coord>-97.58839316666666 29.591882000000002 100.2</gx:coord>

<when>2025-12-05T22:12:07.000Z</when>
<gx:coord>-97.58765433333335 29.59294166666667 100.9</gx:coord>

<when>2025-12-05T22:12:18.000Z</when>
<gx:coord>-97.58689616666668 29.594032333333335 98.2</gx:coord>

<when>2025-12-05T22:12:29.000Z</when>
<gx:coord>-97.58604116666666 29.595121166666665 98.2</gx:coord>

<when>2025-12-05T22:12:40.000Z</when>
<gx:coord>-97.58514266666667 29.596196333333335 98.6</gx:coord>

<when>2025-12-05T22:12:51.000Z</when>
<gx:coord>-97.58465083333334 29.597265333333333 99.5</gx:coord>

<when>2025-12-05T22:13:02.000Z</when>
<gx:coord>-97.58445400000001 29.597765499999998 100.8</gx:coord>

<when>2025-12-05T22:13:13.000Z</when>
<gx:coord>-97.58429433333335 29.59819133333333 101.7</gx:coord>

<when>2025-12-05T22:13:24.000Z</when>
<gx:coord>-97.58386649999998 29.599199 102.8</gx:coord>

<when>2025-12-05T22:13:35.000Z</when>
<gx:coord>-97.58334383333334 29.600171833333334 104.0</gx:coord>

<when>2025-12-05T22:13:46.000Z</when>
<gx:coord>-97.58269133333333 29.601158666666667 103.7</gx:coord>

<when>2025-12-05T22:13:57.000Z</when>
<gx:coord>-97.58199616666667 29.602209666666667 103.6</gx:coord>

<when>2025-12-05T22:14:08.000Z</when>
<gx:coord>-97.58137899999998 29.6031785 103.3</gx:coord>

<when>2025-12-05T22:14:19.000Z</when>
<gx:coord>-97.58071616666666 29.604212500000003 104.5</gx:coord>

<when>2025-12-05T22:14:30.000Z</when>
<gx:coord>-97.58004916666665 29.605274666666666 106.3</gx:coord>

<when>2025-12-05T22:14:41.000Z</when>
<gx:coord>-97.57928883333334 29.606448833333335 108.9</gx:coord>

<when>2025-12-05T22:14:52.000Z</when>
<gx:coord>-97.5785015 29.607661833333335 108.8</gx:coord>

<when>2025-12-05T22:15:03.000Z</when>
<gx:coord>-97.57760549999999 29.60903616666667 112.6</gx:coord>

<when>2025-12-05T22:15:14.000Z</when>
<gx:coord>-97.57671716666667 29.610408833333334 114.1</gx:coord>

<when>2025-12-05T22:15:25.000Z</when>
<gx:coord>-97.57583449999998 29.611761666666666 114.8</gx:coord>

<when>2025-12-05T22:15:36.000Z</when>
<gx:coord>-97.57495333333333 29.613106333333334 114.6</gx:coord>

<when>2025-12-05T22:15:47.000Z</when>
<gx:coord>-97.57407616666666 29.614460833333336 114.6</gx:coord>

<when>2025-12-05T22:15:58.000Z</when>
<gx:coord>-97.57320999999999 29.615763 117.6</gx:coord>

<when>2025-12-05T22:16:09.000Z</when>
<gx:coord>-97.57235733333333 29.617051666666665 119.2</gx:coord>

<when>2025-12-05T22:16:20.000Z</when>
<gx:coord>-97.57156416666666 29.618269333333334 120.0</gx:coord>

<when>2025-12-05T22:16:31.000Z</when>
<gx:coord>-97.5711455 29.618932499999996 121.1</gx:coord>

<when>2025-12-05T22:16:42.000Z</when>
<gx:coord>-97.57097283333333 29.619242666666665 120.3</gx:coord>

<when>2025-12-05T22:16:53.000Z</when>
<gx:coord>-97.57136516666667 29.620358166666666 120.5</gx:coord>

<when>2025-12-05T22:17:04.000Z</when>
<gx:coord>-97.57192583333332 29.621911833333336 125.1</gx:coord>

<when>2025-12-05T22:17:15.000Z</when>
<gx:coord>-97.57258783333333 29.623732000000004 129.1</gx:coord>

<when>2025-12-05T22:17:26.000Z</when>
<gx:coord>-97.57331350000001 29.625706666666662 132.7</gx:coord>

<when>2025-12-05T22:17:37.000Z</when>
<gx:coord>-97.57418383333334 29.627723 127.1</gx:coord>

<when>2025-12-05T22:17:48.000Z</when>
<gx:coord>-97.57538516666666 29.6297585 119.9</gx:coord>

<when>2025-12-05T22:17:59.000Z</when>
<gx:coord>-97.57719066666665 29.631684166666666 111.3</gx:coord>

<when>2025-12-05T22:18:10.000Z</when>
<gx:coord>-97.57907366666669 29.6336015 113.8</gx:coord>

<when>2025-12-05T22:18:21.000Z</when>
<gx:coord>-97.58092783333335 29.635483333333333 113.8</gx:coord>

<when>2025-12-05T22:18:32.000Z</when>
<gx:coord>-97.58272216666667 29.637359999999997 117.7</gx:coord>

<when>2025-12-05T22:18:43.000Z</when>
<gx:coord>-97.58450650000002 29.639292666666666 118.9</gx:coord>

<when>2025-12-05T22:18:54.000Z</when>
<gx:coord>-97.58599716666667 29.641373166666668 117.5</gx:coord>

<when>2025-12-05T22:19:05.000Z</when>
<gx:coord>-97.58708433333335 29.64362083333333 118.3</gx:coord>

<when>2025-12-05T22:19:16.000Z</when>
<gx:coord>-97.58811983333332 29.645772833333332 119.1</gx:coord>

<when>2025-12-05T22:19:27.000Z</when>
<gx:coord>-97.58910749999998 29.64781233333333 111.3</gx:coord>

<when>2025-12-05T22:19:38.000Z</when>
<gx:coord>-97.58992983333334 29.64950083333333 107.8</gx:coord>

<when>2025-12-05T22:19:49.000Z</when>
<gx:coord>-97.59064500000001 29.650717999999998 106.5</gx:coord>

<when>2025-12-05T22:20:00.000Z</when>
<gx:coord>-97.59176299999999 29.651999999999997 108.3</gx:coord>

<when>2025-12-05T22:20:11.000Z</when>
<gx:coord>-97.59288016666666 29.652800333333335 108.3</gx:coord>

<when>2025-12-05T22:20:22.000Z</when>
<gx:coord>-97.59382616666666 29.652969666666664 110.6</gx:coord>

<when>2025-12-05T22:20:33.000Z</when>
<gx:coord>-97.59546666666665 29.6526405 113.7</gx:coord>

<when>2025-12-05T22:20:44.000Z</when>
<gx:coord>-97.59752766666666 29.6520035 116.1</gx:coord>

<when>2025-12-05T22:20:55.000Z</when>
<gx:coord>-97.59990333333332 29.651479166666665 118.9</gx:coord>

<when>2025-12-05T22:21:06.000Z</when>
<gx:coord>-97.6024425 29.651060999999995 121.7</gx:coord>

<when>2025-12-05T22:21:17.000Z</when>
<gx:coord>-97.60513066666665 29.650624500000003 122.5</gx:coord>

<when>2025-12-05T22:21:28.000Z</when>
<gx:coord>-97.60790383333332 29.6501695 124.0</gx:coord>

<when>2025-12-05T22:21:39.000Z</when>
<gx:coord>-97.61063316666666 29.649724 128.0</gx:coord>

<when>2025-12-05T22:21:50.000Z</when>
<gx:coord>-97.61330000000001 29.649287833333332 134.7</gx:coord>

<when>2025-12-05T22:22:01.000Z</when>
<gx:coord>-97.61604383333334 29.64883933333333 137.9</gx:coord>

<when>2025-12-05T22:22:12.000Z</when>
<gx:coord>-97.618899 29.648555166666664 140.6</gx:coord>

<when>2025-12-05T22:22:23.000Z</when>
<gx:coord>-97.6217955 29.64865633333333 136.6</gx:coord>

<when>2025-12-05T22:22:34.000Z</when>
<gx:coord>-97.624785 29.648877666666667 128.3</gx:coord>

<when>2025-12-05T22:22:45.000Z</when>
<gx:coord>-97.62778316666666 29.649098666666667 125.4</gx:coord>

<when>2025-12-05T22:22:56.000Z</when>
<gx:coord>-97.63066716666665 29.649315166666664 124.6</gx:coord>

<when>2025-12-05T22:23:07.000Z</when>
<gx:coord>-97.63351800000001 29.64952316666667 124.8</gx:coord>

<when>2025-12-05T22:23:18.000Z</when>
<gx:coord>-97.6363375 29.649730166666668 123.4</gx:coord>

<when>2025-12-05T22:23:29.000Z</when>
<gx:coord>-97.63916883333334 29.649936333333336 122.5</gx:coord>

<when>2025-12-05T22:23:40.000Z</when>
<gx:coord>-97.64198683333333 29.650138500000004 122.6</gx:coord>

<when>2025-12-05T22:23:51.000Z</when>
<gx:coord>-97.6447785 29.650342500000004 121.7</gx:coord>

<when>2025-12-05T22:24:02.000Z</when>
<gx:coord>-97.64764483333332 29.650552666666666 121.3</gx:coord>

<when>2025-12-05T22:24:13.000Z</when>
<gx:coord>-97.65057633333332 29.650768166666662 123.1</gx:coord>

<when>2025-12-05T22:24:24.000Z</when>
<gx:coord>-97.65354016666667 29.650984833333336 124.7</gx:coord>

<when>2025-12-05T22:24:35.000Z</when>
<gx:coord>-97.65657383333334 29.651201666666665 123.8</gx:coord>

<when>2025-12-05T22:24:46.000Z</when>
<gx:coord>-97.65964749999999 29.651423 123.9</gx:coord>

<when>2025-12-05T22:24:57.000Z</when>
<gx:coord>-97.66267616666667 29.651640166666667 123.5</gx:coord>

<when>2025-12-05T22:25:08.000Z</when>
<gx:coord>-97.66567733333335 29.6518565 125.8</gx:coord>

<when>2025-12-05T22:25:19.000Z</when>
<gx:coord>-97.66866 29.652056500000004 127.4</gx:coord>

<when>2025-12-05T22:25:30.000Z</when>
<gx:coord>-97.67162116666665 29.651954166666663 131.7</gx:coord>

<when>2025-12-05T22:25:41.000Z</when>
<gx:coord>-97.67452683333335 29.651421833333334 135.8</gx:coord>

<when>2025-12-05T22:25:52.000Z</when>
<gx:coord>-97.67739833333331 29.650643666666664 136.6</gx:coord>

<when>2025-12-05T22:26:03.000Z</when>
<gx:coord>-97.68034833333334 29.64983833333333 133.4</gx:coord>

<when>2025-12-05T22:26:14.000Z</when>
<gx:coord>-97.68333166666667 29.649029000000002 131.6</gx:coord>

<when>2025-12-05T22:26:25.000Z</when>
<gx:coord>-97.6862615 29.64823333333333 137.1</gx:coord>

<when>2025-12-05T22:26:36.000Z</when>
<gx:coord>-97.6891825 29.647439166666665 142.3</gx:coord>

<when>2025-12-05T22:26:47.000Z</when>
<gx:coord>-97.69208783333333 29.64665133333333 146.6</gx:coord>

<when>2025-12-05T22:26:58.000Z</when>
<gx:coord>-97.69500583333333 29.6458585 144.7</gx:coord>

<when>2025-12-05T22:27:09.000Z</when>
<gx:coord>-97.69804866666666 29.645035666666665 137.4</gx:coord>

<when>2025-12-05T22:27:20.000Z</when>
<gx:coord>-97.70114816666667 29.644192166666667 134.6</gx:coord>

<when>2025-12-05T22:27:31.000Z</when>
<gx:coord>-97.70423616666667 29.643356499999996 134.6</gx:coord>

<when>2025-12-05T22:27:42.000Z</when>
<gx:coord>-97.70736883333332 29.64250516666667 136.4</gx:coord>

<when>2025-12-05T22:27:53.000Z</when>
<gx:coord>-97.7103675 29.641682 139.3</gx:coord>

<when>2025-12-05T22:28:04.000Z</when>
<gx:coord>-97.71330199999998 29.640880833333334 139.9</gx:coord>

<when>2025-12-05T22:28:15.000Z</when>
<gx:coord>-97.71626116666667 29.640076833333335 137.6</gx:coord>

<when>2025-12-05T22:28:26.000Z</when>
<gx:coord>-97.71923899999999 29.639262500000005 130.0</gx:coord>

<when>2025-12-05T22:28:37.000Z</when>
<gx:coord>-97.72225883333334 29.638439833333337 124.4</gx:coord>

<when>2025-12-05T22:28:48.000Z</when>
<gx:coord>-97.72531416666668 29.63761266666667 124.1</gx:coord>

<when>2025-12-05T22:28:59.000Z</when>
<gx:coord>-97.72828 29.636809833333338 128.4</gx:coord>

<when>2025-12-05T22:29:10.000Z</when>
<gx:coord>-97.73119366666667 29.63602283333333 133.2</gx:coord>

<when>2025-12-05T22:29:21.000Z</when>
<gx:coord>-97.73408883333335 29.63524483333333 135.2</gx:coord>

<when>2025-12-05T22:29:32.000Z</when>
<gx:coord>-97.73699649999999 29.634458333333335 135.3</gx:coord>

<when>2025-12-05T22:29:43.000Z</when>
<gx:coord>-97.73998016666668 29.633646999999996 130.4</gx:coord>

<when>2025-12-05T22:29:54.000Z</when>
<gx:coord>-97.74297300000002 29.632832500000003 127.5</gx:coord>

<when>2025-12-05T22:30:05.000Z</when>
<gx:coord>-97.74595466666666 29.6320285 132.4</gx:coord>

<when>2025-12-05T22:30:16.000Z</when>
<gx:coord>-97.74889399999999 29.631233833333333 137.9</gx:coord>

<when>2025-12-05T22:30:27.000Z</when>
<gx:coord>-97.75184433333334 29.630442333333335 137.9</gx:coord>

<when>2025-12-05T22:30:38.000Z</when>
<gx:coord>-97.75485466666666 29.62969966666667 138.2</gx:coord>

<when>2025-12-05T22:30:49.000Z</when>
<gx:coord>-97.75786783333334 29.628926499999995 138.9</gx:coord>

<when>2025-12-05T22:31:00.000Z</when>
<gx:coord>-97.76082216666667 29.62806783333333 143.6</gx:coord>

<when>2025-12-05T22:31:11.000Z</when>
<gx:coord>-97.76367616666667 29.627233500000003 152.2</gx:coord>

<when>2025-12-05T22:31:22.000Z</when>
<gx:coord>-97.76645666666667 29.62642316666667 160.9</gx:coord>

<when>2025-12-05T22:31:33.000Z</when>
<gx:coord>-97.7692735 29.625603666666667 167.1</gx:coord>

<when>2025-12-05T22:31:44.000Z</when>
<gx:coord>-97.77216166666668 29.624757666666664 169.0</gx:coord>

<when>2025-12-05T22:31:55.000Z</when>
<gx:coord>-97.7751105 29.623897499999998 170.3</gx:coord>

<when>2025-12-05T22:32:06.000Z</when>
<gx:coord>-97.77808483333335 29.623025999999996 174.5</gx:coord>

<when>2025-12-05T22:32:17.000Z</when>
<gx:coord>-97.78102249999999 29.622167166666667 177.5</gx:coord>

<when>2025-12-05T22:32:28.000Z</when>
<gx:coord>-97.78391533333334 29.621322000000003 177.3</gx:coord>

<when>2025-12-05T22:32:39.000Z</when>
<gx:coord>-97.78686066666666 29.620461 171.0</gx:coord>

<when>2025-12-05T22:32:50.000Z</when>
<gx:coord>-97.78985666666668 29.619584333333332 168.1</gx:coord>

<when>2025-12-05T22:33:01.000Z</when>
<gx:coord>-97.79284683333331 29.618707000000004 165.3</gx:coord>

<when>2025-12-05T22:33:12.000Z</when>
<gx:coord>-97.79588 29.617818166666666 166.9</gx:coord>

<when>2025-12-05T22:33:23.000Z</when>
<gx:coord>-97.79888533333333 29.616941166666667 170.9</gx:coord>

<when>2025-12-05T22:33:34.000Z</when>
<gx:coord>-97.80187333333333 29.6160645 172.6</gx:coord>

<when>2025-12-05T22:33:45.000Z</when>
<gx:coord>-97.80489566666665 29.615393 177.8</gx:coord>

<when>2025-12-05T22:33:56.000Z</when>
<gx:coord>-97.80791716666666 29.615192999999998 181.4</gx:coord>

<when>2025-12-05T22:34:07.000Z</when>
<gx:coord>-97.81099783333333 29.615170499999998 183.5</gx:coord>

<when>2025-12-05T22:34:18.000Z</when>
<gx:coord>-97.81410983333332 29.615151500000003 184.9</gx:coord>

<when>2025-12-05T22:34:29.000Z</when>
<gx:coord>-97.81724283333332 29.615131833333333 179.6</gx:coord>

<when>2025-12-05T22:34:40.000Z</when>
<gx:coord>-97.82036349999998 29.615108833333338 171.2</gx:coord>

<when>2025-12-05T22:34:51.000Z</when>
<gx:coord>-97.82348516666667 29.61509116666667 163.5</gx:coord>

<when>2025-12-05T22:35:02.000Z</when>
<gx:coord>-97.82658666666666 29.615069000000002 158.9</gx:coord>

<when>2025-12-05T22:35:13.000Z</when>
<gx:coord>-97.82962049999999 29.6150415 161.4</gx:coord>

<when>2025-12-05T22:35:24.000Z</when>
<gx:coord>-97.83261733333332 29.615012166666663 165.3</gx:coord>

<when>2025-12-05T22:35:35.000Z</when>
<gx:coord>-97.83563883333333 29.61499083333333 164.3</gx:coord>

<when>2025-12-05T22:35:46.000Z</when>
<gx:coord>-97.83871683333334 29.6149725 161.4</gx:coord>

<when>2025-12-05T22:35:57.000Z</when>
<gx:coord>-97.84190483333332 29.614943499999995 155.1</gx:coord>

<when>2025-12-05T22:36:08.000Z</when>
<gx:coord>-97.84514400000002 29.614921333333335 152.9</gx:coord>

<when>2025-12-05T22:36:19.000Z</when>
<gx:coord>-97.84831133333334 29.614889 156.6</gx:coord>

<when>2025-12-05T22:36:30.000Z</when>
<gx:coord>-97.85146116666668 29.6145625 159.4</gx:coord>

<when>2025-12-05T22:36:41.000Z</when>
<gx:coord>-97.85455866666668 29.613863666666663 161.0</gx:coord>

<when>2025-12-05T22:36:52.000Z</when>
<gx:coord>-97.85769166666665 29.613143166666667 160.0</gx:coord>

<when>2025-12-05T22:37:03.000Z</when>
<gx:coord>-97.86087516666666 29.612401166666668 158.9</gx:coord>

<when>2025-12-05T22:37:14.000Z</when>
<gx:coord>-97.86405500000001 29.611662833333337 162.2</gx:coord>

<when>2025-12-05T22:37:25.000Z</when>
<gx:coord>-97.86727066666666 29.610918833333336 165.1</gx:coord>

<when>2025-12-05T22:37:36.000Z</when>
<gx:coord>-97.87050383333332 29.610170999999998 165.9</gx:coord>

<when>2025-12-05T22:37:47.000Z</when>
<gx:coord>-97.87378416666667 29.60941683333333 162.8</gx:coord>

<when>2025-12-05T22:37:58.000Z</when>
<gx:coord>-97.87705366666665 29.608669166666665 157.2</gx:coord>

<when>2025-12-05T22:38:09.000Z</when>
<gx:coord>-97.88031016666667 29.607922166666672 151.0</gx:coord>

<when>2025-12-05T22:38:20.000Z</when>
<gx:coord>-97.8835855 29.607168166666664 147.1</gx:coord>

<when>2025-12-05T22:38:31.000Z</when>
<gx:coord>-97.88683350000001 29.606420000000004 149.6</gx:coord>

<when>2025-12-05T22:38:42.000Z</when>
<gx:coord>-97.88992516666667 29.605709 157.1</gx:coord>

<when>2025-12-05T22:38:53.000Z</when>
<gx:coord>-97.89293383333333 29.605019333333335 161.1</gx:coord>

<when>2025-12-05T22:39:04.000Z</when>
<gx:coord>-97.89592333333333 29.604329999999997 164.3</gx:coord>

<when>2025-12-05T22:39:15.000Z</when>
<gx:coord>-97.898944 29.603629333333334 167.5</gx:coord>

<when>2025-12-05T22:39:26.000Z</when>
<gx:coord>-97.90198749999999 29.60292416666667 169.9</gx:coord>

<when>2025-12-05T22:39:37.000Z</when>
<gx:coord>-97.90502233333333 29.602224166666662 172.7</gx:coord>

<when>2025-12-05T22:39:48.000Z</when>
<gx:coord>-97.90801400000001 29.601536333333335 174.4</gx:coord>

<when>2025-12-05T22:39:59.000Z</when>
<gx:coord>-97.911001 29.60085333333333 174.1</gx:coord>

<when>2025-12-05T22:40:10.000Z</when>
<gx:coord>-97.91397366666666 29.600167499999998 171.5</gx:coord>

<when>2025-12-05T22:40:21.000Z</when>
<gx:coord>-97.9170205 29.599688333333333 166.0</gx:coord>

<when>2025-12-05T22:40:32.000Z</when>
<gx:coord>-97.9201455 29.599617833333333 161.1</gx:coord>

<when>2025-12-05T22:40:43.000Z</when>
<gx:coord>-97.923173 29.599610833333333 167.8</gx:coord>

<when>2025-12-05T22:40:54.000Z</when>
<gx:coord>-97.92610133333334 29.599603333333334 173.3</gx:coord>

<when>2025-12-05T22:41:05.000Z</when>
<gx:coord>-97.92914633333334 29.599602833333332 168.7</gx:coord>

<when>2025-12-05T22:41:16.000Z</when>
<gx:coord>-97.93229950000001 29.599603833333337 161.7</gx:coord>

<when>2025-12-05T22:41:27.000Z</when>
<gx:coord>-97.93546450000001 29.5995995 155.1</gx:coord>

<when>2025-12-05T22:41:38.000Z</when>
<gx:coord>-97.93853533333335 29.599595666666666 155.6</gx:coord>

<when>2025-12-05T22:41:49.000Z</when>
<gx:coord>-97.94150149999999 29.599584333333336 160.0</gx:coord>

<when>2025-12-05T22:42:00.000Z</when>
<gx:coord>-97.94437833333335 29.599534833333337 162.2</gx:coord>

<when>2025-12-05T22:42:11.000Z</when>
<gx:coord>-97.94725083333333 29.599477499999995 167.3</gx:coord>

<when>2025-12-05T22:42:22.000Z</when>
<gx:coord>-97.95015533333331 29.59947233333333 176.5</gx:coord>

<when>2025-12-05T22:42:33.000Z</when>
<gx:coord>-97.9531265 29.599468666666667 177.2</gx:coord>

<when>2025-12-05T22:42:44.000Z</when>
<gx:coord>-97.95609433333333 29.599468833333336 174.9</gx:coord>

<when>2025-12-05T22:42:55.000Z</when>
<gx:coord>-97.95905900000001 29.599463833333335 175.6</gx:coord>

<when>2025-12-05T22:43:06.000Z</when>
<gx:coord>-97.96203316666667 29.599460999999998 177.4</gx:coord>

<when>2025-12-05T22:43:17.000Z</when>
<gx:coord>-97.96489783333332 29.599446166666667 184.9</gx:coord>

<when>2025-12-05T22:43:28.000Z</when>
<gx:coord>-97.96777716666665 29.599373833333335 183.0</gx:coord>

<when>2025-12-05T22:43:39.000Z</when>
<gx:coord>-97.9706605 29.598867666666667 175.3</gx:coord>

<when>2025-12-05T22:43:50.000Z</when>
<gx:coord>-97.97339666666667 29.597826 171.5</gx:coord>

<when>2025-12-05T22:44:01.000Z</when>
<gx:coord>-97.975864 29.596316833333336 169.5</gx:coord>

<when>2025-12-05T22:44:12.000Z</when>
<gx:coord>-97.9782525 29.594666500000002 167.6</gx:coord>

<when>2025-12-05T22:44:23.000Z</when>
<gx:coord>-97.9804655 29.593159666666665 165.7</gx:coord>

<when>2025-12-05T22:44:34.000Z</when>
<gx:coord>-97.982713 29.591740333333338 164.7</gx:coord>

<when>2025-12-05T22:44:45.000Z</when>
<gx:coord>-97.98506133333333 29.590132833333335 164.8</gx:coord>

<when>2025-12-05T22:44:56.000Z</when>
<gx:coord>-97.98743316666666 29.588511666666665 170.1</gx:coord>

<when>2025-12-05T22:45:07.000Z</when>
<gx:coord>-97.98973849999999 29.586901833333332 174.2</gx:coord>

<when>2025-12-05T22:45:18.000Z</when>
<gx:coord>-97.99211199999999 29.585308833333336 174.0</gx:coord>

<when>2025-12-05T22:45:29.000Z</when>
<gx:coord>-97.99450049999999 29.583681833333337 171.7</gx:coord>

<when>2025-12-05T22:45:40.000Z</when>
<gx:coord>-97.99697983333333 29.582119166666665 167.0</gx:coord>

<when>2025-12-05T22:45:51.000Z</when>
<gx:coord>-97.99946 29.580733333333335 165.2</gx:coord>

<when>2025-12-05T22:46:02.000Z</when>
<gx:coord>-98.001745 29.579226499999997 161.9</gx:coord>

<when>2025-12-05T22:46:13.000Z</when>
<gx:coord>-98.00405833333335 29.577830833333337 161.8</gx:coord>

<when>2025-12-05T22:46:24.000Z</when>
<gx:coord>-98.00642549999999 29.57656716666667 161.5</gx:coord>

<when>2025-12-05T22:46:35.000Z</when>
<gx:coord>-98.00869316666667 29.57535233333333 161.3</gx:coord>

<when>2025-12-05T22:46:46.000Z</when>
<gx:coord>-98.01092716666666 29.574262833333332 161.6</gx:coord>

<when>2025-12-05T22:46:57.000Z</when>
<gx:coord>-98.01312833333334 29.5734595 162.4</gx:coord>

<when>2025-12-05T22:47:08.000Z</when>
<gx:coord>-98.0149325 29.572871166666665 162.0</gx:coord>

<when>2025-12-05T22:47:19.000Z</when>
<gx:coord>-98.01580299999999 29.57247633333333 160.5</gx:coord>

<when>2025-12-05T22:47:30.000Z</when>
<gx:coord>-98.015996 29.572344166666667 158.6</gx:coord>

<when>2025-12-05T22:47:41.000Z</when>
<gx:coord>-98.01612300000001 29.572250666666665 157.4</gx:coord>

<when>2025-12-05T22:47:52.000Z</when>
<gx:coord>-98.016223 29.572175166666664 157.9</gx:coord>

<when>2025-12-05T22:48:03.000Z</when>
<gx:coord>-98.0167915 29.571752 156.1</gx:coord>

<when>2025-12-05T22:48:14.000Z</when>
<gx:coord>-98.01818766666665 29.570563500000002 153.4</gx:coord>

<when>2025-12-05T22:48:25.000Z</when>
<gx:coord>-98.019339 29.569379833333333 154.6</gx:coord>

<when>2025-12-05T22:48:36.000Z</when>
<gx:coord>-98.02024449999999 29.56877266666667 154.7</gx:coord>

<when>2025-12-05T22:48:47.000Z</when>
<gx:coord>-98.02110433333334 29.568223166666666 155.9</gx:coord>

<when>2025-12-05T22:48:58.000Z</when>
<gx:coord>-98.02236050000002 29.567469666666664 157.7</gx:coord>

<when>2025-12-05T22:49:09.000Z</when>
<gx:coord>-98.02382383333334 29.566590833333333 159.7</gx:coord>

<when>2025-12-05T22:49:20.000Z</when>
<gx:coord>-98.02543349999999 29.565653833333332 160.4</gx:coord>

<when>2025-12-05T22:49:31.000Z</when>
<gx:coord>-98.02728033333332 29.56454366666667 162.0</gx:coord>

<when>2025-12-05T22:49:42.000Z</when>
<gx:coord>-98.02925699999999 29.563364166666663 164.7</gx:coord>

<when>2025-12-05T22:49:53.000Z</when>
<gx:coord>-98.03133600000001 29.561978 167.5</gx:coord>

<when>2025-12-05T22:50:04.000Z</when>
<gx:coord>-98.03321249999999 29.560316166666667 169.6</gx:coord>

<when>2025-12-05T22:50:15.000Z</when>
<gx:coord>-98.03489050000002 29.558497000000003 171.4</gx:coord>

<when>2025-12-05T22:50:26.000Z</when>
<gx:coord>-98.03656916666665 29.556646 173.2</gx:coord>

<when>2025-12-05T22:50:37.000Z</when>
<gx:coord>-98.03799333333333 29.555079999999997 174.4</gx:coord>

<when>2025-12-05T22:50:48.000Z</when>
<gx:coord>-98.03903 29.553938000000002 175.8</gx:coord>

<when>2025-12-05T22:50:59.000Z</when>
<gx:coord>-98.03985316666667 29.553094333333334 176.3</gx:coord>

<when>2025-12-05T22:51:10.000Z</when>
<gx:coord>-98.04063833333333 29.552380833333338 177.1</gx:coord>

<when>2025-12-05T22:51:21.000Z</when>
<gx:coord>-98.04163416666667 29.551584333333334 177.4</gx:coord>

<when>2025-12-05T22:51:32.000Z</when>
<gx:coord>-98.04301833333332 29.550674333333337 177.9</gx:coord>

<when>2025-12-05T22:51:43.000Z</when>
<gx:coord>-98.04468466666667 29.54978533333333 176.6</gx:coord>

<when>2025-12-05T22:51:54.000Z</when>
<gx:coord>-98.04648666666665 29.549060500000003 173.5</gx:coord>

<when>2025-12-05T22:52:05.000Z</when>
<gx:coord>-98.04810950000001 29.548523999999997 174.2</gx:coord>

<when>2025-12-05T22:52:16.000Z</when>
<gx:coord>-98.049273 29.54814783333334 175.8</gx:coord>

<when>2025-12-05T22:52:27.000Z</when>
<gx:coord>-98.05047266666666 29.547759666666668 177.7</gx:coord>

<when>2025-12-05T22:52:38.000Z</when>
<gx:coord>-98.05184516666668 29.547307666666665 179.1</gx:coord>

<when>2025-12-05T22:52:49.000Z</when>
<gx:coord>-98.05358733333333 29.546741833333332 181.2</gx:coord>

<when>2025-12-05T22:53:00.000Z</when>
<gx:coord>-98.05549416666666 29.546122999999998 184.1</gx:coord>

<when>2025-12-05T22:53:11.000Z</when>
<gx:coord>-98.05722183333334 29.5455555 185.8</gx:coord>

<when>2025-12-05T22:53:22.000Z</when>
<gx:coord>-98.05863966666666 29.545093833333333 185.5</gx:coord>

<when>2025-12-05T22:53:33.000Z</when>
<gx:coord>-98.06006000000001 29.544627999999996 182.2</gx:coord>

<when>2025-12-05T22:53:44.000Z</when>
<gx:coord>-98.061504 29.544160333333334 181.2</gx:coord>

<when>2025-12-05T22:53:55.000Z</when>
<gx:coord>-98.06283616666666 29.543729 183.3</gx:coord>

<when>2025-12-05T22:54:06.000Z</when>
<gx:coord>-98.0642845 29.543254333333334 184.7</gx:coord>

<when>2025-12-05T22:54:17.000Z</when>
<gx:coord>-98.06599999999999 29.54269283333333 185.8</gx:coord>

<when>2025-12-05T22:54:28.000Z</when>
<gx:coord>-98.06787250000001 29.542084 187.9</gx:coord>

<when>2025-12-05T22:54:39.000Z</when>
<gx:coord>-98.06993383333332 29.541418999999998 188.2</gx:coord>

<when>2025-12-05T22:54:50.000Z</when>
<gx:coord>-98.072061 29.540721500000004 192.5</gx:coord>

<when>2025-12-05T22:55:01.000Z</when>
<gx:coord>-98.07437583333333 29.539970833333335 192.1</gx:coord>

<when>2025-12-05T22:55:12.000Z</when>
<gx:coord>-98.07688000000002 29.539150166666666 195.6</gx:coord>

<when>2025-12-05T22:55:23.000Z</when>
<gx:coord>-98.07941016666668 29.538325166666663 197.8</gx:coord>

<when>2025-12-05T22:55:34.000Z</when>
<gx:coord>-98.08200383333333 29.537481333333336 195.6</gx:coord>

<when>2025-12-05T22:55:45.000Z</when>
<gx:coord>-98.08469383333335 29.536598000000005 193.7</gx:coord>

<when>2025-12-05T22:55:56.000Z</when>
<gx:coord>-98.08740850000001 29.535782499999996 190.7</gx:coord>

<when>2025-12-05T22:56:07.000Z</when>
<gx:coord>-98.09011899999999 29.535077666666666 188.4</gx:coord>

<when>2025-12-05T22:56:18.000Z</when>
<gx:coord>-98.09291383333333 29.53434216666667 187.0</gx:coord>

<when>2025-12-05T22:56:29.000Z</when>
<gx:coord>-98.0956545 29.533623333333335 188.0</gx:coord>

<when>2025-12-05T22:56:40.000Z</when>
<gx:coord>-98.09839183333334 29.53290716666667 189.0</gx:coord>

<when>2025-12-05T22:56:51.000Z</when>
<gx:coord>-98.10112566666666 29.532190500000002 187.9</gx:coord>

<when>2025-12-05T22:57:02.000Z</when>
<gx:coord>-98.10385849999999 29.531471166666666 188.0</gx:coord>

<when>2025-12-05T22:57:13.000Z</when>
<gx:coord>-98.1064345 29.5307925 186.0</gx:coord>

<when>2025-12-05T22:57:24.000Z</when>
<gx:coord>-98.1089145 29.5301435 178.5</gx:coord>

<when>2025-12-05T22:57:35.000Z</when>
<gx:coord>-98.11153783333333 29.529443999999998 174.9</gx:coord>

<when>2025-12-05T22:57:46.000Z</when>
<gx:coord>-98.11420199999999 29.528526000000003 175.9</gx:coord>

<when>2025-12-05T22:57:57.000Z</when>
<gx:coord>-98.11686583333334 29.527516999999996 174.8</gx:coord>

<when>2025-12-05T22:58:08.000Z</when>
<gx:coord>-98.119387 29.526558833333336 174.2</gx:coord>

<when>2025-12-05T22:58:19.000Z</when>
<gx:coord>-98.12198166666667 29.525568333333332 173.5</gx:coord>

<when>2025-12-05T22:58:30.000Z</when>
<gx:coord>-98.12464200000001 29.524558666666668 178.0</gx:coord>

<when>2025-12-05T22:58:41.000Z</when>
<gx:coord>-98.1272665 29.523571333333333 185.1</gx:coord>

<when>2025-12-05T22:58:52.000Z</when>
<gx:coord>-98.12991183333334 29.522575666666665 187.4</gx:coord>

<when>2025-12-05T22:59:03.000Z</when>
<gx:coord>-98.13257316666667 29.521571833333336 190.2</gx:coord>

<when>2025-12-05T22:59:14.000Z</when>
<gx:coord>-98.13535150000001 29.520518999999997 193.0</gx:coord>

<when>2025-12-05T22:59:25.000Z</when>
<gx:coord>-98.13803000000001 29.519506666666665 197.6</gx:coord>

<when>2025-12-05T22:59:36.000Z</when>
<gx:coord>-98.14057933333333 29.518534666666664 192.6</gx:coord>

<when>2025-12-05T22:59:47.000Z</when>
<gx:coord>-98.14335350000002 29.517483333333335 188.1</gx:coord>

<when>2025-12-05T22:59:58.000Z</when>
<gx:coord>-98.14621700000001 29.516402500000005 185.7</gx:coord>

<when>2025-12-05T23:00:09.000Z</when>
<gx:coord>-98.14915116666667 29.515288166666664 186.5</gx:coord>

<when>2025-12-05T23:00:20.000Z</when>
<gx:coord>-98.15204700000001 29.5141905 186.7</gx:coord>

<when>2025-12-05T23:00:31.000Z</when>
<gx:coord>-98.15484733333332 29.513132666666667 185.5</gx:coord>

<when>2025-12-05T23:00:42.000Z</when>
<gx:coord>-98.15754700000001 29.512107833333335 186.6</gx:coord>

<when>2025-12-05T23:00:53.000Z</when>
<gx:coord>-98.160237 29.511091333333336 186.4</gx:coord>

<when>2025-12-05T23:01:04.000Z</when>
<gx:coord>-98.16293483333332 29.510071666666665 186.6</gx:coord>

<when>2025-12-05T23:01:15.000Z</when>
<gx:coord>-98.16563333333333 29.509050833333337 186.5</gx:coord>

<when>2025-12-05T23:01:26.000Z</when>
<gx:coord>-98.168239 29.508061833333333 188.9</gx:coord>

<when>2025-12-05T23:01:37.000Z</when>
<gx:coord>-98.17092616666666 29.507045499999997 184.0</gx:coord>

<when>2025-12-05T23:01:48.000Z</when>
<gx:coord>-98.17361600000001 29.506030333333335 180.4</gx:coord>

<when>2025-12-05T23:01:59.000Z</when>
<gx:coord>-98.17624400000001 29.505033166666667 180.9</gx:coord>

<when>2025-12-05T23:02:10.000Z</when>
<gx:coord>-98.1788605 29.504043499999998 180.8</gx:coord>

<when>2025-12-05T23:02:21.000Z</when>
<gx:coord>-98.18137933333334 29.50308916666667 181.3</gx:coord>

<when>2025-12-05T23:02:32.000Z</when>
<gx:coord>-98.18389116666667 29.50213533333333 183.4</gx:coord>

<when>2025-12-05T23:02:43.000Z</when>
<gx:coord>-98.18640699999999 29.501186833333335 186.5</gx:coord>

<when>2025-12-05T23:02:54.000Z</when>
<gx:coord>-98.18892499999998 29.5002325 184.4</gx:coord>

<when>2025-12-05T23:03:05.000Z</when>
<gx:coord>-98.19169066666667 29.499210166666664 184.2</gx:coord>

<when>2025-12-05T23:03:16.000Z</when>
<gx:coord>-98.19432499999999 29.498229666666663 185.9</gx:coord>

<when>2025-12-05T23:03:27.000Z</when>
<gx:coord>-98.19691983333333 29.497253 187.3</gx:coord>

<when>2025-12-05T23:03:38.000Z</when>
<gx:coord>-98.19943166666665 29.496371833333335 193.3</gx:coord>

<when>2025-12-05T23:03:49.000Z</when>
<gx:coord>-98.2020485 29.49548533333333 192.7</gx:coord>

<when>2025-12-05T23:04:00.000Z</when>
<gx:coord>-98.20474416666666 29.494566499999998 189.7</gx:coord>

<when>2025-12-05T23:04:11.000Z</when>
<gx:coord>-98.20743499999999 29.493648333333333 187.7</gx:coord>

<when>2025-12-05T23:04:22.000Z</when>
<gx:coord>-98.21016949999999 29.492720833333337 187.0</gx:coord>

<when>2025-12-05T23:04:33.000Z</when>
<gx:coord>-98.21292100000001 29.491783166666664 193.1</gx:coord>

<when>2025-12-05T23:04:44.000Z</when>
<gx:coord>-98.2156445 29.49085616666667 195.5</gx:coord>

<when>2025-12-05T23:04:55.000Z</when>
<gx:coord>-98.21830633333333 29.48994866666667 197.1</gx:coord>

<when>2025-12-05T23:05:06.000Z</when>
<gx:coord>-98.22085399999999 29.48908216666667 200.9</gx:coord>

<when>2025-12-05T23:05:17.000Z</when>
<gx:coord>-98.22345949999999 29.488199833333336 200.9</gx:coord>

<when>2025-12-05T23:05:28.000Z</when>
<gx:coord>-98.22601133333335 29.48733216666667 208.3</gx:coord>

<when>2025-12-05T23:05:39.000Z</when>
<gx:coord>-98.22853633333334 29.486465833333334 212.0</gx:coord>

<when>2025-12-05T23:05:50.000Z</when>
<gx:coord>-98.23111750000001 29.4855765 213.3</gx:coord>

<when>2025-12-05T23:06:01.000Z</when>
<gx:coord>-98.23377666666666 29.48466583333333 212.6</gx:coord>

<when>2025-12-05T23:06:12.000Z</when>
<gx:coord>-98.23647033333333 29.483757999999998 204.2</gx:coord>

<when>2025-12-05T23:06:23.000Z</when>
<gx:coord>-98.2392245 29.482817833333335 198.3</gx:coord>

<when>2025-12-05T23:06:34.000Z</when>
<gx:coord>-98.24195883333331 29.481880666666665 194.5</gx:coord>

<when>2025-12-05T23:06:45.000Z</when>
<gx:coord>-98.24476233333334 29.480923666666666 188.8</gx:coord>

<when>2025-12-05T23:06:56.000Z</when>
<gx:coord>-98.24755983333334 29.479965666666665 184.8</gx:coord>

<when>2025-12-05T23:07:07.000Z</when>
<gx:coord>-98.250366 29.479011 184.5</gx:coord>

<when>2025-12-05T23:07:18.000Z</when>
<gx:coord>-98.25300450000002 29.478115333333335 193.3</gx:coord>

<when>2025-12-05T23:07:29.000Z</when>
<gx:coord>-98.25548383333334 29.477248500000005 194.7</gx:coord>

<when>2025-12-05T23:07:40.000Z</when>
<gx:coord>-98.25799166666665 29.47639716666667 190.8</gx:coord>

<when>2025-12-05T23:07:51.000Z</when>
<gx:coord>-98.26056233333333 29.475582 186.8</gx:coord>

<when>2025-12-05T23:08:02.000Z</when>
<gx:coord>-98.26322466666667 29.474723833333336 182.3</gx:coord>

<when>2025-12-05T23:08:13.000Z</when>
<gx:coord>-98.26586766666667 29.473867499999997 184.6</gx:coord>

<when>2025-12-05T23:08:24.000Z</when>
<gx:coord>-98.2685625 29.4729995 179.3</gx:coord>

<when>2025-12-05T23:08:35.000Z</when>
<gx:coord>-98.27130800000002 29.472119333333332 174.4</gx:coord>

<when>2025-12-05T23:08:46.000Z</when>
<gx:coord>-98.27394533333333 29.471268833333337 176.7</gx:coord>

<when>2025-12-05T23:08:57.000Z</when>
<gx:coord>-98.27657416666668 29.470419999999997 176.7</gx:coord>

<when>2025-12-05T23:09:08.000Z</when>
<gx:coord>-98.279343 29.469527000000003 177.8</gx:coord>

<when>2025-12-05T23:09:19.000Z</when>
<gx:coord>-98.28212299999998 29.468626333333336 183.8</gx:coord>

<when>2025-12-05T23:09:30.000Z</when>
<gx:coord>-98.2848635 29.467738833333335 191.3</gx:coord>

<when>2025-12-05T23:09:41.000Z</when>
<gx:coord>-98.28761816666665 29.466847833333336 197.2</gx:coord>

<when>2025-12-05T23:09:52.000Z</when>
<gx:coord>-98.29043116666665 29.46603 203.8</gx:coord>

<when>2025-12-05T23:10:03.000Z</when>
<gx:coord>-98.29324583333333 29.465289666666663 205.1</gx:coord>

<when>2025-12-05T23:10:14.000Z</when>
<gx:coord>-98.29604249999998 29.46453633333333 197.9</gx:coord>

<when>2025-12-05T23:10:25.000Z</when>
<gx:coord>-98.29887733333335 29.46377916666667 191.9</gx:coord>

<when>2025-12-05T23:10:36.000Z</when>
<gx:coord>-98.30171049999998 29.463027333333336 191.6</gx:coord>

<when>2025-12-05T23:10:47.000Z</when>
<gx:coord>-98.30458266666668 29.46226766666667 193.0</gx:coord>

<when>2025-12-05T23:10:58.000Z</when>
<gx:coord>-98.30745033333332 29.461506500000002 194.6</gx:coord>

<when>2025-12-05T23:11:09.000Z</when>
<gx:coord>-98.31032166666667 29.46074716666667 197.6</gx:coord>

<when>2025-12-05T23:11:20.000Z</when>
<gx:coord>-98.31322066666668 29.459953499999997 199.7</gx:coord>

<when>2025-12-05T23:11:31.000Z</when>
<gx:coord>-98.31602733333332 29.45920866666667 206.6</gx:coord>

<when>2025-12-05T23:11:42.000Z</when>
<gx:coord>-98.31871216666666 29.458502666666664 206.5</gx:coord>

<when>2025-12-05T23:11:53.000Z</when>
<gx:coord>-98.32150850000001 29.457672166666665 201.7</gx:coord>

<when>2025-12-05T23:12:04.000Z</when>
<gx:coord>-98.32440983333332 29.456755833333332 196.7</gx:coord>

<when>2025-12-05T23:12:15.000Z</when>
<gx:coord>-98.32739433333333 29.455815833333336 190.5</gx:coord>

<when>2025-12-05T23:12:26.000Z</when>
<gx:coord>-98.33026550000001 29.454906833333332 193.5</gx:coord>

<when>2025-12-05T23:12:37.000Z</when>
<gx:coord>-98.33304500000001 29.454028333333333 198.5</gx:coord>

<when>2025-12-05T23:12:48.000Z</when>
<gx:coord>-98.33571916666666 29.453179999999996 202.3</gx:coord>

<when>2025-12-05T23:12:59.000Z</when>
<gx:coord>-98.33847750000001 29.452305000000003 200.8</gx:coord>

<when>2025-12-05T23:13:10.000Z</when>
<gx:coord>-98.34127283333333 29.45141683333333 201.8</gx:coord>

<when>2025-12-05T23:13:21.000Z</when>
<gx:coord>-98.34398416666666 29.450554166666667 212.3</gx:coord>

<when>2025-12-05T23:13:32.000Z</when>
<gx:coord>-98.34670716666666 29.449694 216.5</gx:coord>

<when>2025-12-05T23:13:43.000Z</when>
<gx:coord>-98.34957816666665 29.44878883333333 213.5</gx:coord>

<when>2025-12-05T23:13:54.000Z</when>
<gx:coord>-98.35244566666667 29.447883833333336 216.4</gx:coord>

<when>2025-12-05T23:14:05.000Z</when>
<gx:coord>-98.35536883333334 29.44696333333333 215.9</gx:coord>

<when>2025-12-05T23:14:16.000Z</when>
<gx:coord>-98.358353 29.44600516666667 208.2</gx:coord>

<when>2025-12-05T23:14:27.000Z</when>
<gx:coord>-98.36139733333333 29.445030166666665 201.7</gx:coord>

<when>2025-12-05T23:14:38.000Z</when>
<gx:coord>-98.36431233333333 29.444110666666667 203.5</gx:coord>

<when>2025-12-05T23:14:49.000Z</when>
<gx:coord>-98.367198 29.443218333333334 196.9</gx:coord>

<when>2025-12-05T23:15:00.000Z</when>
<gx:coord>-98.37004950000001 29.442318833333335 192.5</gx:coord>

<when>2025-12-05T23:15:11.000Z</when>
<gx:coord>-98.37285066666666 29.44143166666667 193.8</gx:coord>

<when>2025-12-05T23:15:22.000Z</when>
<gx:coord>-98.37549716666666 29.440588333333334 200.4</gx:coord>

<when>2025-12-05T23:15:33.000Z</when>
<gx:coord>-98.37797366666668 29.4398035 203.6</gx:coord>

<when>2025-12-05T23:15:44.000Z</when>
<gx:coord>-98.38031666666666 29.43906533333333 209.1</gx:coord>

<when>2025-12-05T23:15:55.000Z</when>
<gx:coord>-98.38290733333334 29.4382395 207.3</gx:coord>

<when>2025-12-05T23:16:06.000Z</when>
<gx:coord>-98.38558749999999 29.437360166666668 202.4</gx:coord>

<when>2025-12-05T23:16:17.000Z</when>
<gx:coord>-98.38833616666668 29.436486666666664 201.1</gx:coord>

<when>2025-12-05T23:16:28.000Z</when>
<gx:coord>-98.39112933333332 29.435595666666668 201.3</gx:coord>

<when>2025-12-05T23:16:39.000Z</when>
<gx:coord>-98.39392183333332 29.434711833333335 202.5</gx:coord>

<when>2025-12-05T23:16:50.000Z</when>
<gx:coord>-98.39676516666665 29.433894833333337 201.7</gx:coord>

<when>2025-12-05T23:17:01.000Z</when>
<gx:coord>-98.39952783333335 29.433236000000004 208.6</gx:coord>

<when>2025-12-05T23:17:12.000Z</when>
<gx:coord>-98.401894 29.43267316666667 206.9</gx:coord>

<when>2025-12-05T23:17:23.000Z</when>
<gx:coord>-98.403767 29.43244633333334 202.0</gx:coord>

<when>2025-12-05T23:17:34.000Z</when>
<gx:coord>-98.40520116666667 29.43229066666667 200.7</gx:coord>

<when>2025-12-05T23:17:45.000Z</when>
<gx:coord>-98.40548466666665 29.43272116666667 200.1</gx:coord>

<when>2025-12-05T23:17:56.000Z</when>
<gx:coord>-98.40549866666667 29.433240833333336 201.0</gx:coord>

<when>2025-12-05T23:18:07.000Z</when>
<gx:coord>-98.40550516666666 29.43381866666667 202.2</gx:coord>

<when>2025-12-05T23:18:18.000Z</when>
<gx:coord>-98.40551633333334 29.4348595 203.9</gx:coord>

<when>2025-12-05T23:18:29.000Z</when>
<gx:coord>-98.40553483333333 29.435443166666666 205.4</gx:coord>

<when>2025-12-05T23:19:35.000Z</when>
<gx:coord>-98.40558266666667 29.435593666666666 207.5</gx:coord>

<when>2025-12-05T23:19:46.000Z</when>
<gx:coord>-98.40689016666666 29.435690666666666 203.2</gx:coord>

<when>2025-12-05T23:19:57.000Z</when>
<gx:coord>-98.40879616666668 29.435686999999998 201.5</gx:coord>

<when>2025-12-05T23:20:08.000Z</when>
<gx:coord>-98.41070033333332 29.435684833333333 199.1</gx:coord>

<when>2025-12-05T23:20:19.000Z</when>
<gx:coord>-98.41261433333332 29.435674666666667 197.3</gx:coord>

<when>2025-12-05T23:20:30.000Z</when>
<gx:coord>-98.41460716666667 29.435675833333335 196.9</gx:coord>

<when>2025-12-05T23:20:41.000Z</when>
<gx:coord>-98.416549 29.435677499999997 197.0</gx:coord>

<when>2025-12-05T23:20:52.000Z</when>
<gx:coord>-98.41850983333333 29.43561683333333 192.6</gx:coord>

<when>2025-12-05T23:21:03.000Z</when>
<gx:coord>-98.42055383333333 29.435612833333334 186.7</gx:coord>

<when>2025-12-05T23:21:14.000Z</when>
<gx:coord>-98.42215116666667 29.435584833333337 185.4</gx:coord>

<when>2025-12-05T23:21:25.000Z</when>
<gx:coord>-98.42228483333335 29.435245499999997 184.2</gx:coord>

<when>2025-12-05T23:21:36.000Z</when>
<gx:coord>-98.42229383333333 29.43515316666667 186.8</gx:coord>

<when>2025-12-05T23:21:47.000Z</when>
<gx:coord>-98.42229716666667 29.43495683333333 187.7</gx:coord>

<when>2025-12-05T23:22:09.000Z</when>
<gx:coord>-98.42232216666667 29.43478733333333 188.7</gx:coord>

<when>2025-12-05T23:22:20.000Z</when>
<gx:coord>-98.42232883333332 29.434620166666665 188.3</gx:coord>

<when>2025-12-05T23:29:52.000Z</when>
<gx:coord>-98.42112366666667 29.43334666666666 0.0</gx:coord>

<when>2025-12-05T23:30:03.000Z</when>
<gx:coord>-98.42109966666666 29.433199 170.3</gx:coord>

<when>2025-12-05T23:30:14.000Z</when>
<gx:coord>-98.42112266666666 29.433102666666667 175.5</gx:coord>

<when>2025-12-05T23:30:25.000Z</when>
<gx:coord>-98.42109133333334 29.43305 176.7</gx:coord>

<when>2025-12-05T23:30:47.000Z</when>
<gx:coord>-98.42104866666665 29.43301516666667 178.6</gx:coord>

<when>2025-12-05T23:31:09.000Z</when>
<gx:coord>-98.42097816666667 29.433002166666665 181.6</gx:coord>

<when>2025-12-05T23:32:15.000Z</when>
<gx:coord>-98.42092333333333 29.43299833333333 182.5</gx:coord>

<when>2025-12-05T23:38:40.000Z</when>
<gx:coord>-98.42108083333332 29.43308366666667 166.5</gx:coord>

<when>2025-12-05T23:38:51.000Z</when>
<gx:coord>-98.42100516666666 29.4330495 170.3</gx:coord>

<when>2025-12-05T23:40:19.000Z</when>
<gx:coord>-98.420958 29.43302883333333 179.7</gx:coord>

<when>2025-12-05T23:41:14.000Z</when>
<gx:coord>-98.42100283333333 29.433059166666666 175.0</gx:coord>

<when>2025-12-05T23:43:15.000Z</when>
<gx:coord>-98.4209585 29.433027 169.9</gx:coord>

<when>2025-12-05T23:49:49.000Z</when>
<gx:coord>-98.42087250000002 29.43309766666666 0.0</gx:coord>

<when>2025-12-05T23:50:22.000Z</when>
<gx:coord>-98.42088366666667 29.433053000000005 165.6</gx:coord>
</gx:Track>
</Placemark></Document></kml>
