<?xml version="1.0" encoding="UTF-8" ?><gpx version="1.1" creator="GPSLogger 135 - http://gpslogger.mendhak.com/" xmlns:xsi="http://www.w3.org/2001/XMLSchema-instance" xmlns="http://www.topografix.com/GPX/1/1" xmlns:gpxtpx="http://www.garmin.com/xmlschemas/TrackPointExtension/v2" xsi:schemaLocation="http://www.topografix.com/GPX/1/1 http://www.topografix.com/GPX/1/1/gpx.xsd http://www.garmin.com/xmlschemas/TrackPointExtension/v2 https://www8.garmin.com/xmlschemas/TrackPointExtensionv2.xsd "><metadata><time>2025-12-23T18:25:10.000Z</time></metadata><trk><name>20251223</name><trkseg><trkpt lat="24.07927983333333" lon="-109.9919415"><ele>2.2</ele><time>2025-12-23T18:25:10.000Z</time><extensions><gpxtpx:TrackPointExtension><gpxtpx:speed>0.1343425</gpxtpx:speed></gpxtpx:TrackPointExtension></extensions><geoidheight>-32.4</geoidheight><src>gps</src><sat>7</sat><hdop>2.10</hdop><vdop>2.38</vdop><pdop>3.18</pdop></trkpt>
<trkpt lat="24.079293999999997" lon="-109.99188583333334"><ele>7.5</ele><time>2025-12-23T18:25:54.000Z</time><extensions><gpxtpx:TrackPointExtension><gpxtpx:speed>0.01853</gpxtpx:speed></gpxtpx:TrackPointExtension></extensions><geoidheight>-32.4</geoidheight><src>gps</src><sat>11</sat><hdop>0.90</hdop><vdop>1.31</vdop><pdop>1.59</pdop></trkpt>
<trkpt lat="24.079262499999995" lon="-109.99184783333334"><ele>8.4</ele><time>2025-12-23T18:36:21.000Z</time><extensions><gpxtpx:TrackPointExtension><gpxtpx:speed>0.08081139</gpxtpx:speed></gpxtpx:TrackPointExtension></extensions><geoidheight>-32.4</geoidheight><src>gps</src><sat>17</sat><hdop>0.67</hdop><vdop>1.06</vdop><pdop>1.26</pdop></trkpt>
<trkpt lat="24.07920633333333" lon="-109.9917785"><ele>8.0</ele><time>2025-12-23T18:36:32.000Z</time><extensions><gpxtpx:TrackPointExtension><gpxtpx:bearing>160.31</gpxtpx:bearing><gpxtpx:speed>1.1751108</gpxtpx:speed></gpxtpx:TrackPointExtension></extensions><geoidheight>-32.4</geoidheight><src>gps</src><sat>17</sat><hdop>0.67</hdop><vdop>1.06</vdop><pdop>1.26</pdop></trkpt>
<trkpt lat="24.079129166666668" lon="-109.99182216666668"><ele>6.6</ele><time>2025-12-23T18:36:43.000Z</time><extensions><gpxtpx:TrackPointExtension><gpxtpx:speed>0.16522583</gpxtpx:speed></gpxtpx:TrackPointExtension></extensions><geoidheight>-32.4</geoidheight><src>gps</src><sat>17</sat><hdop>0.63</hdop><vdop>0.98</vdop><pdop>1.17</pdop></trkpt>
<trkpt lat="24.079222333333338" lon="-109.99179233333334"><ele>7.6</ele><time>2025-12-23T18:37:05.000Z</time><extensions><gpxtpx:TrackPointExtension><gpxtpx:speed>0.042721946</gpxtpx:speed></gpxtpx:TrackPointExtension></extensions><geoidheight>-32.4</geoidheight><src>gps</src><sat>17</sat><hdop>0.63</hdop><vdop>0.98</vdop><pdop>1.17</pdop></trkpt>
<trkpt lat="24.079245500000003" lon="-109.99185766666666"><ele>6.5</ele><time>2025-12-23T18:37:16.000Z</time><extensions><gpxtpx:TrackPointExtension><gpxtpx:bearing>291.37</gpxtpx:bearing><gpxtpx:speed>1.1277564</gpxtpx:speed></gpxtpx:TrackPointExtension></extensions><geoidheight>-32.4</geoidheight><src>gps</src><sat>16</sat><hdop>0.66</hdop><vdop>1.06</vdop><pdop>1.25</pdop></trkpt>
<trkpt lat="24.079254666666664" lon="-109.99190916666666"><ele>5.1</ele><time>2025-12-23T18:37:27.000Z</time><extensions><gpxtpx:TrackPointExtension><gpxtpx:speed>0.031912778</gpxtpx:speed></gpxtpx:TrackPointExtension></extensions><geoidheight>-32.4</geoidheight><src>gps</src><sat>17</sat><hdop>0.71</hdop><vdop>1.11</vdop><pdop>1.32</pdop></trkpt>
<trkpt lat="24.0792735" lon="-109.99198083333334"><ele>7.7</ele><time>2025-12-23T18:37:49.000Z</time><extensions><gpxtpx:TrackPointExtension><gpxtpx:speed>0.27125862</gpxtpx:speed></gpxtpx:TrackPointExtension></extensions><geoidheight>-32.4</geoidheight><src>gps</src><sat>17</sat><hdop>0.71</hdop><vdop>1.06</vdop><pdop>1.28</pdop></trkpt>
<trkpt lat="24.07933216666667" lon="-109.99203933333335"><ele>7.0</ele><time>2025-12-23T18:38:00.000Z</time><extensions><gpxtpx:TrackPointExtension><gpxtpx:bearing>337.19</gpxtpx:bearing><gpxtpx:speed>0.9846636</gpxtpx:speed></gpxtpx:TrackPointExtension></extensions><geoidheight>-32.4</geoidheight><src>gps</src><sat>17</sat><hdop>0.63</hdop><vdop>0.99</vdop><pdop>1.17</pdop></trkpt>
<trkpt lat="24.079470833333335" lon="-109.99206566666665"><ele>6.8</ele><time>2025-12-23T18:38:11.000Z</time><extensions><gpxtpx:TrackPointExtension><gpxtpx:bearing>350.5</gpxtpx:bearing><gpxtpx:speed>1.6671853</gpxtpx:speed></gpxtpx:TrackPointExtension></extensions><geoidheight>-32.4</geoidheight><src>gps</src><sat>17</sat><hdop>0.63</hdop><vdop>0.99</vdop><pdop>1.18</pdop></trkpt>
<trkpt lat="24.0796145" lon="-109.992095"><ele>7.5</ele><time>2025-12-23T18:38:22.000Z</time><extensions><gpxtpx:TrackPointExtension><gpxtpx:bearing>347.26</gpxtpx:bearing><gpxtpx:speed>1.1133442</gpxtpx:speed></gpxtpx:TrackPointExtension></extensions><geoidheight>-32.4</geoidheight><src>gps</src><sat>17</sat><hdop>0.63</hdop><vdop>0.99</vdop><pdop>1.18</pdop></trkpt>
<trkpt lat="24.079734500000004" lon="-109.99214850000001"><ele>8.3</ele><time>2025-12-23T18:38:33.000Z</time><extensions><gpxtpx:TrackPointExtension><gpxtpx:bearing>330.89</gpxtpx:bearing><gpxtpx:speed>1.3727641</gpxtpx:speed></gpxtpx:TrackPointExtension></extensions><geoidheight>-32.4</geoidheight><src>gps</src><sat>17</sat><hdop>0.63</hdop><vdop>0.99</vdop><pdop>1.18</pdop></trkpt>
<trkpt lat="24.07984916666667" lon="-109.99224000000001"><ele>9.6</ele><time>2025-12-23T18:38:44.000Z</time><extensions><gpxtpx:TrackPointExtension><gpxtpx:bearing>318.8</gpxtpx:bearing><gpxtpx:speed>1.3511459</gpxtpx:speed></gpxtpx:TrackPointExtension></extensions><geoidheight>-32.4</geoidheight><src>gps</src><sat>17</sat><hdop>0.63</hdop><vdop>0.99</vdop><pdop>1.18</pdop></trkpt>
<trkpt lat="24.07998" lon="-109.99233033333333"><ele>10.5</ele><time>2025-12-23T18:38:55.000Z</time><extensions><gpxtpx:TrackPointExtension><gpxtpx:bearing>334.24</gpxtpx:bearing><gpxtpx:speed>1.4278394</gpxtpx:speed></gpxtpx:TrackPointExtension></extensions><geoidheight>-32.4</geoidheight><src>gps</src><sat>17</sat><hdop>0.63</hdop><vdop>1.00</vdop><pdop>1.18</pdop></trkpt>
<trkpt lat="24.080145" lon="-109.99238266666667"><ele>9.9</ele><time>2025-12-23T18:39:06.000Z</time><extensions><gpxtpx:TrackPointExtension><gpxtpx:bearing>342.54</gpxtpx:bearing><gpxtpx:speed>1.6095364</gpxtpx:speed></gpxtpx:TrackPointExtension></extensions><geoidheight>-32.4</geoidheight><src>gps</src><sat>17</sat><hdop>0.69</hdop><vdop>1.07</vdop><pdop>1.27</pdop></trkpt>
<trkpt lat="24.080315499999998" lon="-109.99246833333333"><ele>10.5</ele><time>2025-12-23T18:39:17.000Z</time><extensions><gpxtpx:TrackPointExtension><gpxtpx:bearing>332.13</gpxtpx:bearing><gpxtpx:speed>1.6512289</gpxtpx:speed></gpxtpx:TrackPointExtension></extensions><geoidheight>-32.4</geoidheight><src>gps</src><sat>17</sat><hdop>0.63</hdop><vdop>1.00</vdop><pdop>1.18</pdop></trkpt>
<trkpt lat="24.080448333333333" lon="-109.9925355"><ele>12.1</ele><time>2025-12-23T18:39:28.000Z</time><extensions><gpxtpx:TrackPointExtension><gpxtpx:bearing>334.63</gpxtpx:bearing><gpxtpx:speed>1.3501164</gpxtpx:speed></gpxtpx:TrackPointExtension></extensions><geoidheight>-32.4</geoidheight><src>gps</src><sat>17</sat><hdop>0.63</hdop><vdop>1.00</vdop><pdop>1.18</pdop></trkpt>
<trkpt lat="24.080613000000003" lon="-109.9925905"><ele>10.6</ele><time>2025-12-23T18:39:39.000Z</time><extensions><gpxtpx:TrackPointExtension><gpxtpx:bearing>345.91</gpxtpx:bearing><gpxtpx:speed>1.9070458</gpxtpx:speed></gpxtpx:TrackPointExtension></extensions><geoidheight>-32.4</geoidheight><src>gps</src><sat>17</sat><hdop>0.63</hdop><vdop>1.00</vdop><pdop>1.18</pdop></trkpt>
<trkpt lat="24.080784" lon="-109.99264399999998"><ele>10.1</ele><time>2025-12-23T18:39:50.000Z</time><extensions><gpxtpx:TrackPointExtension><gpxtpx:bearing>342.58</gpxtpx:bearing><gpxtpx:speed>1.3212919</gpxtpx:speed></gpxtpx:TrackPointExtension></extensions><geoidheight>-32.4</geoidheight><src>gps</src><sat>17</sat><hdop>0.63</hdop><vdop>1.00</vdop><pdop>1.18</pdop><dgpsid>0000</dgpsid></trkpt>
<trkpt lat="24.080914" lon="-109.99268849999999"><ele>10.2</ele><time>2025-12-23T18:40:01.000Z</time><extensions><gpxtpx:TrackPointExtension><gpxtpx:bearing>340.23</gpxtpx:bearing><gpxtpx:speed>2.125288</gpxtpx:speed></gpxtpx:TrackPointExtension></extensions><geoidheight>-32.4</geoidheight><src>gps</src><sat>17</sat><hdop>0.63</hdop><vdop>1.00</vdop><pdop>1.19</pdop><dgpsid>0000</dgpsid></trkpt>
<trkpt lat="24.08110766666667" lon="-109.99274783333334"><ele>10.2</ele><time>2025-12-23T18:40:12.000Z</time><extensions><gpxtpx:TrackPointExtension><gpxtpx:bearing>346.97</gpxtpx:bearing><gpxtpx:speed>2.2292619</gpxtpx:speed></gpxtpx:TrackPointExtension></extensions><geoidheight>-32.4</geoidheight><src>gps</src><sat>17</sat><hdop>0.63</hdop><vdop>1.00</vdop><pdop>1.19</pdop><dgpsid>0000</dgpsid></trkpt>
<trkpt lat="24.081318000000003" lon="-109.99281433333333"><ele>9.3</ele><time>2025-12-23T18:40:23.000Z</time><extensions><gpxtpx:TrackPointExtension><gpxtpx:bearing>343.8</gpxtpx:bearing><gpxtpx:speed>2.3507364</gpxtpx:speed></gpxtpx:TrackPointExtension></extensions><geoidheight>-32.4</geoidheight><src>gps</src><sat>17</sat><hdop>0.63</hdop><vdop>1.01</vdop><pdop>1.19</pdop><dgpsid>0000</dgpsid></trkpt>
<trkpt lat="24.081562666666667" lon="-109.9928405"><ele>7.9</ele><time>2025-12-23T18:40:34.000Z</time><extensions><gpxtpx:TrackPointExtension><gpxtpx:bearing>356.53</gpxtpx:bearing><gpxtpx:speed>2.3836787</gpxtpx:speed></gpxtpx:TrackPointExtension></extensions><geoidheight>-32.4</geoidheight><src>gps</src><sat>18</sat><hdop>0.61</hdop><vdop>0.92</vdop><pdop>1.10</pdop><dgpsid>0000</dgpsid></trkpt>
<trkpt lat="24.08177016666667" lon="-109.99288666666668"><ele>9.0</ele><time>2025-12-23T18:40:45.000Z</time><extensions><gpxtpx:TrackPointExtension><gpxtpx:bearing>347.31</gpxtpx:bearing><gpxtpx:speed>1.606448</gpxtpx:speed></gpxtpx:TrackPointExtension></extensions><geoidheight>-32.4</geoidheight><src>gps</src><sat>18</sat><hdop>0.64</hdop><vdop>0.92</vdop><pdop>1.12</pdop><dgpsid>0000</dgpsid></trkpt>
<trkpt lat="24.08190666666667" lon="-109.99294066666668"><ele>9.5</ele><time>2025-12-23T18:40:56.000Z</time><extensions><gpxtpx:TrackPointExtension><gpxtpx:bearing>328.59</gpxtpx:bearing><gpxtpx:speed>1.4999006</gpxtpx:speed></gpxtpx:TrackPointExtension></extensions><geoidheight>-32.4</geoidheight><src>gps</src><sat>18</sat><hdop>0.61</hdop><vdop>0.92</vdop><pdop>1.10</pdop><dgpsid>0000</dgpsid></trkpt>
<trkpt lat="24.081914833333332" lon="-109.99305783333332"><ele>7.8</ele><time>2025-12-23T18:41:07.000Z</time><extensions><gpxtpx:TrackPointExtension><gpxtpx:bearing>224.21</gpxtpx:bearing><gpxtpx:speed>0.9470889</gpxtpx:speed></gpxtpx:TrackPointExtension></extensions><geoidheight>-32.4</geoidheight><src>gps</src><sat>17</sat><hdop>0.63</hdop><vdop>0.95</vdop><pdop>1.14</pdop><dgpsid>0000</dgpsid></trkpt>
<trkpt lat="24.081825333333335" lon="-109.99307633333335"><ele>8.4</ele><time>2025-12-23T18:41:29.000Z</time><extensions><gpxtpx:TrackPointExtension><gpxtpx:bearing>171.64</gpxtpx:bearing><gpxtpx:speed>2.7048652</gpxtpx:speed></gpxtpx:TrackPointExtension></extensions><geoidheight>-32.4</geoidheight><src>gps</src><sat>18</sat><hdop>0.59</hdop><vdop>0.88</vdop><pdop>1.06</pdop><dgpsid>0000</dgpsid></trkpt>
<trkpt lat="24.081521666666664" lon="-109.99306833333334"><ele>8.4</ele><time>2025-12-23T18:41:40.000Z</time><extensions><gpxtpx:TrackPointExtension><gpxtpx:bearing>173.39</gpxtpx:bearing><gpxtpx:speed>3.3997402</gpxtpx:speed></gpxtpx:TrackPointExtension></extensions><geoidheight>-32.4</geoidheight><src>gps</src><sat>18</sat><hdop>0.61</hdop><vdop>0.89</vdop><pdop>1.08</pdop><dgpsid>0000</dgpsid></trkpt>
<trkpt lat="24.08110316666667" lon="-109.99301750000001"><ele>11.7</ele><time>2025-12-23T18:41:51.000Z</time><extensions><gpxtpx:TrackPointExtension><gpxtpx:bearing>175.57</gpxtpx:bearing><gpxtpx:speed>6.166887</gpxtpx:speed></gpxtpx:TrackPointExtension></extensions><geoidheight>-32.4</geoidheight><src>gps</src><sat>16</sat><hdop>0.61</hdop><vdop>0.89</vdop><pdop>1.08</pdop><dgpsid>0000</dgpsid></trkpt>
<trkpt lat="24.0804285" lon="-109.99297049999998"><ele>15.5</ele><time>2025-12-23T18:42:02.000Z</time><extensions><gpxtpx:TrackPointExtension><gpxtpx:bearing>177.19</gpxtpx:bearing><gpxtpx:speed>5.2743587</gpxtpx:speed></gpxtpx:TrackPointExtension></extensions><geoidheight>-32.4</geoidheight><src>gps</src><sat>17</sat><hdop>0.61</hdop><vdop>0.89</vdop><pdop>1.08</pdop><dgpsid>0000</dgpsid></trkpt>
<trkpt lat="24.079931166666665" lon="-109.99294783333335"><ele>18.0</ele><time>2025-12-23T18:42:13.000Z</time><extensions><gpxtpx:TrackPointExtension><gpxtpx:bearing>179.04</gpxtpx:bearing><gpxtpx:speed>4.678825</gpxtpx:speed></gpxtpx:TrackPointExtension></extensions><geoidheight>-32.4</geoidheight><src>gps</src><sat>17</sat><hdop>0.59</hdop><vdop>0.89</vdop><pdop>1.07</pdop><dgpsid>0000</dgpsid></trkpt>
<trkpt lat="24.079488666666666" lon="-109.992958"><ele>18.5</ele><time>2025-12-23T18:42:24.000Z</time><extensions><gpxtpx:TrackPointExtension><gpxtpx:bearing>178.96</gpxtpx:bearing><gpxtpx:speed>3.3971667</gpxtpx:speed></gpxtpx:TrackPointExtension></extensions><geoidheight>-32.4</geoidheight><src>gps</src><sat>17</sat><hdop>0.65</hdop><vdop>0.94</vdop><pdop>1.14</pdop><dgpsid>0000</dgpsid></trkpt>
<trkpt lat="24.07908616666667" lon="-109.9929365"><ele>19.9</ele><time>2025-12-23T18:42:35.000Z</time><extensions><gpxtpx:TrackPointExtension><gpxtpx:bearing>175.77</gpxtpx:bearing><gpxtpx:speed>4.7035317</gpxtpx:speed></gpxtpx:TrackPointExtension></extensions><geoidheight>-32.4</geoidheight><src>gps</src><sat>18</sat><hdop>0.61</hdop><vdop>0.90</vdop><pdop>1.09</pdop><dgpsid>0000</dgpsid></trkpt>
<trkpt lat="24.078565333333337" lon="-109.99289900000001"><ele>22.8</ele><time>2025-12-23T18:42:46.000Z</time><extensions><gpxtpx:TrackPointExtension><gpxtpx:bearing>176.47</gpxtpx:bearing><gpxtpx:speed>5.48488</gpxtpx:speed></gpxtpx:TrackPointExtension></extensions><geoidheight>-32.4</geoidheight><src>gps</src><sat>19</sat><hdop>0.60</hdop><vdop>0.92</vdop><pdop>1.10</pdop><dgpsid>0000</dgpsid></trkpt>
<trkpt lat="24.07801733333333" lon="-109.99283633333334"><ele>25.2</ele><time>2025-12-23T18:42:57.000Z</time><extensions><gpxtpx:TrackPointExtension><gpxtpx:bearing>175.33</gpxtpx:bearing><gpxtpx:speed>5.6392965</gpxtpx:speed></gpxtpx:TrackPointExtension></extensions><geoidheight>-32.4</geoidheight><src>gps</src><sat>18</sat><hdop>0.61</hdop><vdop>0.85</vdop><pdop>1.04</pdop><dgpsid>0000</dgpsid></trkpt>
<trkpt lat="24.077443333333335" lon="-109.99278016666668"><ele>26.0</ele><time>2025-12-23T18:43:08.000Z</time><extensions><gpxtpx:TrackPointExtension><gpxtpx:bearing>174.83</gpxtpx:bearing><gpxtpx:speed>5.884819</gpxtpx:speed></gpxtpx:TrackPointExtension></extensions><geoidheight>-32.4</geoidheight><src>gps</src><sat>18</sat><hdop>0.61</hdop><vdop>0.85</vdop><pdop>1.04</pdop><dgpsid>0000</dgpsid></trkpt>
<trkpt lat="24.076869000000002" lon="-109.99271599999999"><ele>25.9</ele><time>2025-12-23T18:43:19.000Z</time><extensions><gpxtpx:TrackPointExtension><gpxtpx:bearing>175.08</gpxtpx:bearing><gpxtpx:speed>5.81842</gpxtpx:speed></gpxtpx:TrackPointExtension></extensions><geoidheight>-32.4</geoidheight><src>gps</src><sat>18</sat><hdop>0.61</hdop><vdop>0.85</vdop><pdop>1.04</pdop><dgpsid>0000</dgpsid></trkpt>
<trkpt lat="24.076461333333334" lon="-109.99266483333334"><ele>28.3</ele><time>2025-12-23T18:43:30.000Z</time><extensions><gpxtpx:TrackPointExtension><gpxtpx:bearing>174.06</gpxtpx:bearing><gpxtpx:speed>1.1241534</gpxtpx:speed></gpxtpx:TrackPointExtension></extensions><geoidheight>-32.4</geoidheight><src>gps</src><sat>18</sat><hdop>0.61</hdop><vdop>0.85</vdop><pdop>1.04</pdop><dgpsid>0000</dgpsid></trkpt>
<trkpt lat="24.07613216666667" lon="-109.99262666666667"><ele>28.6</ele><time>2025-12-23T18:43:41.000Z</time><extensions><gpxtpx:TrackPointExtension><gpxtpx:bearing>174.66</gpxtpx:bearing><gpxtpx:speed>6.700654</gpxtpx:speed></gpxtpx:TrackPointExtension></extensions><geoidheight>-32.4</geoidheight><src>gps</src><sat>19</sat><hdop>0.57</hdop><vdop>0.83</vdop><pdop>1.01</pdop><dgpsid>0000</dgpsid></trkpt>
<trkpt lat="24.075446166666666" lon="-109.99253916666666"><ele>29.6</ele><time>2025-12-23T18:43:52.000Z</time><extensions><gpxtpx:TrackPointExtension><gpxtpx:bearing>175.07</gpxtpx:bearing><gpxtpx:speed>7.631272</gpxtpx:speed></gpxtpx:TrackPointExtension></extensions><geoidheight>-32.4</geoidheight><src>gps</src><sat>19</sat><hdop>0.57</hdop><vdop>0.83</vdop><pdop>1.01</pdop><dgpsid>0000</dgpsid></trkpt>
<trkpt lat="24.07474216666667" lon="-109.99249066666668"><ele>29.9</ele><time>2025-12-23T18:44:03.000Z</time><extensions><gpxtpx:TrackPointExtension><gpxtpx:bearing>178.69</gpxtpx:bearing><gpxtpx:speed>6.042839</gpxtpx:speed></gpxtpx:TrackPointExtension></extensions><geoidheight>-32.4</geoidheight><src>gps</src><sat>17</sat><hdop>0.60</hdop><vdop>0.85</vdop><pdop>1.04</pdop><dgpsid>0000</dgpsid></trkpt>
<trkpt lat="24.074462999999998" lon="-109.9924835"><ele>30.7</ele><time>2025-12-23T18:44:14.000Z</time><extensions><gpxtpx:TrackPointExtension><gpxtpx:bearing>177.99</gpxtpx:bearing><gpxtpx:speed>1.5899769</gpxtpx:speed></gpxtpx:TrackPointExtension></extensions><geoidheight>-32.4</geoidheight><src>gps</src><sat>18</sat><hdop>0.61</hdop><vdop>0.85</vdop><pdop>1.05</pdop><dgpsid>0000</dgpsid></trkpt>
<trkpt lat="24.074168333333333" lon="-109.99248533333333"><ele>30.7</ele><time>2025-12-23T18:44:25.000Z</time><extensions><gpxtpx:TrackPointExtension><gpxtpx:bearing>178.71</gpxtpx:bearing><gpxtpx:speed>3.6282768</gpxtpx:speed></gpxtpx:TrackPointExtension></extensions><geoidheight>-32.4</geoidheight><src>gps</src><sat>19</sat><hdop>0.58</hdop><vdop>0.87</vdop><pdop>1.05</pdop><dgpsid>0000</dgpsid></trkpt>
<trkpt lat="24.073751500000004" lon="-109.99246766666666"><ele>31.7</ele><time>2025-12-23T18:44:36.000Z</time><extensions><gpxtpx:TrackPointExtension><gpxtpx:bearing>179.96</gpxtpx:bearing><gpxtpx:speed>4.544997</gpxtpx:speed></gpxtpx:TrackPointExtension></extensions><geoidheight>-32.4</geoidheight><src>gps</src><sat>19</sat><hdop>0.58</hdop><vdop>0.87</vdop><pdop>1.05</pdop><dgpsid>0000</dgpsid></trkpt>
<trkpt lat="24.073091666666663" lon="-109.99246233333334"><ele>32.6</ele><time>2025-12-23T18:44:47.000Z</time><extensions><gpxtpx:TrackPointExtension><gpxtpx:bearing>178.85</gpxtpx:bearing><gpxtpx:speed>7.0552974</gpxtpx:speed></gpxtpx:TrackPointExtension></extensions><geoidheight>-32.4</geoidheight><src>gps</src><sat>18</sat><hdop>0.59</hdop><vdop>0.94</vdop><pdop>1.11</pdop><dgpsid>0000</dgpsid></trkpt>
<trkpt lat="24.0724255" lon="-109.99245350000001"><ele>33.0</ele><time>2025-12-23T18:44:58.000Z</time><extensions><gpxtpx:TrackPointExtension><gpxtpx:bearing>179.77</gpxtpx:bearing><gpxtpx:speed>6.134974</gpxtpx:speed></gpxtpx:TrackPointExtension></extensions><geoidheight>-32.4</geoidheight><src>gps</src><sat>19</sat><hdop>0.58</hdop><vdop>0.87</vdop><pdop>1.05</pdop><dgpsid>0000</dgpsid></trkpt>
<trkpt lat="24.071934166666665" lon="-109.99244816666666"><ele>33.1</ele><time>2025-12-23T18:45:09.000Z</time><extensions><gpxtpx:TrackPointExtension><gpxtpx:bearing>180.51</gpxtpx:bearing><gpxtpx:speed>2.4392686</gpxtpx:speed></gpxtpx:TrackPointExtension></extensions><geoidheight>-32.4</geoidheight><src>gps</src><sat>18</sat><hdop>0.61</hdop><vdop>0.89</vdop><pdop>1.08</pdop><dgpsid>0000</dgpsid></trkpt>
<trkpt lat="24.07171933333333" lon="-109.99244466666666"><ele>33.3</ele><time>2025-12-23T18:45:20.000Z</time><extensions><gpxtpx:TrackPointExtension><gpxtpx:bearing>180.79</gpxtpx:bearing><gpxtpx:speed>3.5083466</gpxtpx:speed></gpxtpx:TrackPointExtension></extensions><geoidheight>-32.4</geoidheight><src>gps</src><sat>19</sat><hdop>0.58</hdop><vdop>0.88</vdop><pdop>1.05</pdop><dgpsid>0000</dgpsid></trkpt>
<trkpt lat="24.071340666666668" lon="-109.99244183333333"><ele>32.7</ele><time>2025-12-23T18:45:31.000Z</time><extensions><gpxtpx:TrackPointExtension><gpxtpx:bearing>181.08</gpxtpx:bearing><gpxtpx:speed>3.8804908</gpxtpx:speed></gpxtpx:TrackPointExtension></extensions><geoidheight>-32.4</geoidheight><src>gps</src><sat>19</sat><hdop>0.58</hdop><vdop>0.88</vdop><pdop>1.05</pdop><dgpsid>0000</dgpsid></trkpt>
<trkpt lat="24.071010166666664" lon="-109.99242466666668"><ele>33.5</ele><time>2025-12-23T18:45:42.000Z</time><extensions><gpxtpx:TrackPointExtension><gpxtpx:bearing>175.97</gpxtpx:bearing><gpxtpx:speed>3.6555572</gpxtpx:speed></gpxtpx:TrackPointExtension></extensions><geoidheight>-32.4</geoidheight><src>gps</src><sat>19</sat><hdop>0.56</hdop><vdop>0.86</vdop><pdop>1.03</pdop><dgpsid>0000</dgpsid></trkpt>
<trkpt lat="24.070578500000003" lon="-109.99242733333334"><ele>33.5</ele><time>2025-12-23T18:45:53.000Z</time><extensions><gpxtpx:TrackPointExtension><gpxtpx:bearing>178.87</gpxtpx:bearing><gpxtpx:speed>6.1787257</gpxtpx:speed></gpxtpx:TrackPointExtension></extensions><geoidheight>-32.4</geoidheight><src>gps</src><sat>19</sat><hdop>0.58</hdop><vdop>0.88</vdop><pdop>1.05</pdop><dgpsid>0000</dgpsid></trkpt>
<trkpt lat="24.070032333333334" lon="-109.99240983333333"><ele>35.7</ele><time>2025-12-23T18:46:04.000Z</time><extensions><gpxtpx:TrackPointExtension><gpxtpx:bearing>178.03</gpxtpx:bearing><gpxtpx:speed>2.219997</gpxtpx:speed></gpxtpx:TrackPointExtension></extensions><geoidheight>-32.4</geoidheight><src>gps</src><sat>18</sat><hdop>0.58</hdop><vdop>0.85</vdop><pdop>1.03</pdop><dgpsid>0000</dgpsid></trkpt>
<trkpt lat="24.069692499999995" lon="-109.99239716666668"><ele>36.4</ele><time>2025-12-23T18:46:15.000Z</time><extensions><gpxtpx:TrackPointExtension><gpxtpx:bearing>179.46</gpxtpx:bearing><gpxtpx:speed>6.0418096</gpxtpx:speed></gpxtpx:TrackPointExtension></extensions><geoidheight>-32.4</geoidheight><src>gps</src><sat>19</sat><hdop>0.55</hdop><vdop>0.82</vdop><pdop>0.99</pdop><dgpsid>0000</dgpsid></trkpt>
<trkpt lat="24.068936" lon="-109.99239216666668"><ele>37.2</ele><time>2025-12-23T18:46:26.000Z</time><extensions><gpxtpx:TrackPointExtension><gpxtpx:bearing>179.49</gpxtpx:bearing><gpxtpx:speed>7.9519434</gpxtpx:speed></gpxtpx:TrackPointExtension></extensions><geoidheight>-32.4</geoidheight><src>gps</src><sat>19</sat><hdop>0.55</hdop><vdop>0.84</vdop><pdop>1.00</pdop><dgpsid>0000</dgpsid></trkpt>
<trkpt lat="24.0682535" lon="-109.99238949999999"><ele>36.9</ele><time>2025-12-23T18:46:37.000Z</time><extensions><gpxtpx:TrackPointExtension><gpxtpx:bearing>181.18</gpxtpx:bearing><gpxtpx:speed>6.000117</gpxtpx:speed></gpxtpx:TrackPointExtension></extensions><geoidheight>-32.4</geoidheight><src>gps</src><sat>20</sat><hdop>0.55</hdop><vdop>0.84</vdop><pdop>1.00</pdop><dgpsid>0000</dgpsid></trkpt>
<trkpt lat="24.06780816666667" lon="-109.99238799999999"><ele>36.6</ele><time>2025-12-23T18:46:48.000Z</time><extensions><gpxtpx:TrackPointExtension><gpxtpx:bearing>179.58</gpxtpx:bearing><gpxtpx:speed>1.8535147</gpxtpx:speed></gpxtpx:TrackPointExtension></extensions><geoidheight>-32.4</geoidheight><src>gps</src><sat>20</sat><hdop>0.53</hdop><vdop>0.82</vdop><pdop>0.97</pdop><dgpsid>0000</dgpsid></trkpt>
<trkpt lat="24.067434666666667" lon="-109.99238783333334"><ele>36.1</ele><time>2025-12-23T18:46:59.000Z</time><extensions><gpxtpx:TrackPointExtension><gpxtpx:bearing>180.15</gpxtpx:bearing><gpxtpx:speed>5.581133</gpxtpx:speed></gpxtpx:TrackPointExtension></extensions><geoidheight>-32.4</geoidheight><src>gps</src><sat>20</sat><hdop>0.53</hdop><vdop>0.82</vdop><pdop>0.97</pdop><dgpsid>0000</dgpsid></trkpt>
<trkpt lat="24.06665816666667" lon="-109.99238416666667"><ele>37.5</ele><time>2025-12-23T18:47:10.000Z</time><extensions><gpxtpx:TrackPointExtension><gpxtpx:bearing>179.93</gpxtpx:bearing><gpxtpx:speed>9.2433815</gpxtpx:speed></gpxtpx:TrackPointExtension></extensions><geoidheight>-32.4</geoidheight><src>gps</src><sat>19</sat><hdop>0.55</hdop><vdop>0.83</vdop><pdop>0.99</pdop><dgpsid>0000</dgpsid></trkpt>
<trkpt lat="24.0657385" lon="-109.99238783333334"><ele>38.3</ele><time>2025-12-23T18:47:21.000Z</time><extensions><gpxtpx:TrackPointExtension><gpxtpx:bearing>179.61</gpxtpx:bearing><gpxtpx:speed>8.209305</gpxtpx:speed></gpxtpx:TrackPointExtension></extensions><geoidheight>-32.4</geoidheight><src>gps</src><sat>18</sat><hdop>0.58</hdop><vdop>0.86</vdop><pdop>1.03</pdop><dgpsid>0000</dgpsid></trkpt>
<trkpt lat="24.064940666666665" lon="-109.99238833333332"><ele>39.3</ele><time>2025-12-23T18:47:32.000Z</time><extensions><gpxtpx:TrackPointExtension><gpxtpx:bearing>180.4</gpxtpx:bearing><gpxtpx:speed>7.3533216</gpxtpx:speed></gpxtpx:TrackPointExtension></extensions><geoidheight>-32.4</geoidheight><src>gps</src><sat>20</sat><hdop>0.53</hdop><vdop>0.82</vdop><pdop>0.98</pdop><dgpsid>0000</dgpsid></trkpt>
<trkpt lat="24.064529500000003" lon="-109.99238500000001"><ele>40.0</ele><time>2025-12-23T18:47:43.000Z</time><extensions><gpxtpx:TrackPointExtension><gpxtpx:bearing>177.67</gpxtpx:bearing><gpxtpx:speed>1.4437958</gpxtpx:speed></gpxtpx:TrackPointExtension></extensions><geoidheight>-32.4</geoidheight><src>gps</src><sat>20</sat><hdop>0.55</hdop><vdop>0.84</vdop><pdop>1.00</pdop><dgpsid>0000</dgpsid></trkpt>
<trkpt lat="24.0642065" lon="-109.99238266666667"><ele>39.7</ele><time>2025-12-23T18:47:54.000Z</time><extensions><gpxtpx:TrackPointExtension><gpxtpx:bearing>178.7</gpxtpx:bearing><gpxtpx:speed>6.5555024</gpxtpx:speed></gpxtpx:TrackPointExtension></extensions><geoidheight>-32.4</geoidheight><src>gps</src><sat>19</sat><hdop>0.58</hdop><vdop>0.92</vdop><pdop>1.08</pdop><dgpsid>0000</dgpsid></trkpt>
<trkpt lat="24.0633115" lon="-109.99237133333332"><ele>39.6</ele><time>2025-12-23T18:48:05.000Z</time><extensions><gpxtpx:TrackPointExtension><gpxtpx:bearing>179.43</gpxtpx:bearing><gpxtpx:speed>8.703953</gpxtpx:speed></gpxtpx:TrackPointExtension></extensions><geoidheight>-32.4</geoidheight><src>gps</src><sat>20</sat><hdop>0.55</hdop><vdop>0.84</vdop><pdop>1.01</pdop><dgpsid>0000</dgpsid></trkpt>
<trkpt lat="24.062508666666666" lon="-109.9923615"><ele>40.0</ele><time>2025-12-23T18:48:16.000Z</time><extensions><gpxtpx:TrackPointExtension><gpxtpx:bearing>178.26</gpxtpx:bearing><gpxtpx:speed>8.024005</gpxtpx:speed></gpxtpx:TrackPointExtension></extensions><geoidheight>-32.4</geoidheight><src>gps</src><sat>20</sat><hdop>0.58</hdop><vdop>0.92</vdop><pdop>1.09</pdop><dgpsid>0000</dgpsid></trkpt>
<trkpt lat="24.061729500000002" lon="-109.99218516666666"><ele>38.9</ele><time>2025-12-23T18:48:27.000Z</time><extensions><gpxtpx:TrackPointExtension><gpxtpx:bearing>158.76</gpxtpx:bearing><gpxtpx:speed>8.350853</gpxtpx:speed></gpxtpx:TrackPointExtension></extensions><geoidheight>-32.4</geoidheight><src>gps</src><sat>20</sat><hdop>0.53</hdop><vdop>0.82</vdop><pdop>0.98</pdop><dgpsid>0000</dgpsid></trkpt>
<trkpt lat="24.06098066666667" lon="-109.99177333333334"><ele>35.5</ele><time>2025-12-23T18:48:38.000Z</time><extensions><gpxtpx:TrackPointExtension><gpxtpx:bearing>152.25</gpxtpx:bearing><gpxtpx:speed>8.244821</gpxtpx:speed></gpxtpx:TrackPointExtension></extensions><geoidheight>-32.4</geoidheight><src>gps</src><sat>19</sat><hdop>0.58</hdop><vdop>0.89</vdop><pdop>1.06</pdop><dgpsid>0000</dgpsid></trkpt>
<trkpt lat="24.06029116666667" lon="-109.99138900000001"><ele>33.2</ele><time>2025-12-23T18:48:49.000Z</time><extensions><gpxtpx:TrackPointExtension><gpxtpx:bearing>152.02</gpxtpx:bearing><gpxtpx:speed>7.554578</gpxtpx:speed></gpxtpx:TrackPointExtension></extensions><geoidheight>-32.4</geoidheight><src>gps</src><sat>17</sat><hdop>0.61</hdop><vdop>0.89</vdop><pdop>1.08</pdop><dgpsid>0000</dgpsid></trkpt>
<trkpt lat="24.0596245" lon="-109.99100816666666"><ele>31.6</ele><time>2025-12-23T18:49:00.000Z</time><extensions><gpxtpx:TrackPointExtension><gpxtpx:bearing>151.78</gpxtpx:bearing><gpxtpx:speed>7.2735395</gpxtpx:speed></gpxtpx:TrackPointExtension></extensions><geoidheight>-32.4</geoidheight><src>gps</src><sat>18</sat><hdop>0.58</hdop><vdop>0.85</vdop><pdop>1.03</pdop><dgpsid>0000</dgpsid></trkpt>
<trkpt lat="24.058996499999996" lon="-109.99065033333333"><ele>28.9</ele><time>2025-12-23T18:49:11.000Z</time><extensions><gpxtpx:TrackPointExtension><gpxtpx:bearing>151.6</gpxtpx:bearing><gpxtpx:speed>6.922499</gpxtpx:speed></gpxtpx:TrackPointExtension></extensions><geoidheight>-32.4</geoidheight><src>gps</src><sat>20</sat><hdop>0.61</hdop><vdop>0.86</vdop><pdop>1.05</pdop><dgpsid>0000</dgpsid></trkpt>
<trkpt lat="24.058420166666664" lon="-109.99032616666666"><ele>23.7</ele><time>2025-12-23T18:49:22.000Z</time><extensions><gpxtpx:TrackPointExtension><gpxtpx:bearing>152.89</gpxtpx:bearing><gpxtpx:speed>6.526163</gpxtpx:speed></gpxtpx:TrackPointExtension></extensions><geoidheight>-32.4</geoidheight><src>gps</src><sat>20</sat><hdop>0.54</hdop><vdop>0.81</vdop><pdop>0.97</pdop><dgpsid>0000</dgpsid></trkpt>
<trkpt lat="24.057817999999997" lon="-109.98999433333331"><ele>17.4</ele><time>2025-12-23T18:49:33.000Z</time><extensions><gpxtpx:TrackPointExtension><gpxtpx:bearing>153.6</gpxtpx:bearing><gpxtpx:speed>7.795983</gpxtpx:speed></gpxtpx:TrackPointExtension></extensions><geoidheight>-32.4</geoidheight><src>gps</src><sat>18</sat><hdop>0.54</hdop><vdop>0.81</vdop><pdop>0.97</pdop><dgpsid>0000</dgpsid></trkpt>
<trkpt lat="24.057169999999996" lon="-109.98963049999999"><ele>13.7</ele><time>2025-12-23T18:49:44.000Z</time><extensions><gpxtpx:TrackPointExtension><gpxtpx:bearing>153.72</gpxtpx:bearing><gpxtpx:speed>4.7689013</gpxtpx:speed></gpxtpx:TrackPointExtension></extensions><geoidheight>-32.4</geoidheight><src>gps</src><sat>19</sat><hdop>0.56</hdop><vdop>0.84</vdop><pdop>1.01</pdop><dgpsid>0000</dgpsid></trkpt>
<trkpt lat="24.056572833333334" lon="-109.98945833333333"><ele>12.7</ele><time>2025-12-23T18:49:55.000Z</time><extensions><gpxtpx:TrackPointExtension><gpxtpx:bearing>174.39</gpxtpx:bearing><gpxtpx:speed>7.213832</gpxtpx:speed></gpxtpx:TrackPointExtension></extensions><geoidheight>-32.4</geoidheight><src>gps</src><sat>19</sat><hdop>0.60</hdop><vdop>0.96</vdop><pdop>1.13</pdop><dgpsid>0000</dgpsid></trkpt>
<trkpt lat="24.055931833333336" lon="-109.98941233333335"><ele>12.0</ele><time>2025-12-23T18:50:06.000Z</time><extensions><gpxtpx:TrackPointExtension><gpxtpx:bearing>178.39</gpxtpx:bearing><gpxtpx:speed>7.434133</gpxtpx:speed></gpxtpx:TrackPointExtension></extensions><geoidheight>-32.4</geoidheight><src>gps</src><sat>18</sat><hdop>0.63</hdop><vdop>1.00</vdop><pdop>1.18</pdop><dgpsid>0000</dgpsid></trkpt>
<trkpt lat="24.055236833333332" lon="-109.98948183333331"><ele>8.0</ele><time>2025-12-23T18:50:17.000Z</time><extensions><gpxtpx:TrackPointExtension><gpxtpx:bearing>188.31</gpxtpx:bearing><gpxtpx:speed>6.238948</gpxtpx:speed></gpxtpx:TrackPointExtension></extensions><geoidheight>-32.4</geoidheight><src>gps</src><sat>20</sat><hdop>0.57</hdop><vdop>0.89</vdop><pdop>1.06</pdop><dgpsid>0000</dgpsid></trkpt>
<trkpt lat="24.054725666666666" lon="-109.9895675"><ele>7.3</ele><time>2025-12-23T18:50:28.000Z</time><extensions><gpxtpx:TrackPointExtension><gpxtpx:bearing>190.43</gpxtpx:bearing><gpxtpx:speed>6.30998</gpxtpx:speed></gpxtpx:TrackPointExtension></extensions><geoidheight>-32.4</geoidheight><src>gps</src><sat>18</sat><hdop>0.60</hdop><vdop>0.91</vdop><pdop>1.09</pdop><dgpsid>0000</dgpsid></trkpt>
<trkpt lat="24.054266999999996" lon="-109.98962916666666"><ele>8.9</ele><time>2025-12-23T18:50:39.000Z</time><extensions><gpxtpx:TrackPointExtension><gpxtpx:bearing>162.54</gpxtpx:bearing><gpxtpx:speed>3.1398056</gpxtpx:speed></gpxtpx:TrackPointExtension></extensions><geoidheight>-32.4</geoidheight><src>gps</src><sat>18</sat><hdop>0.64</hdop><vdop>0.98</vdop><pdop>1.17</pdop><dgpsid>0000</dgpsid></trkpt>
<trkpt lat="24.054265" lon="-109.98947616666668"><ele>6.5</ele><time>2025-12-23T18:50:50.000Z</time><extensions><gpxtpx:TrackPointExtension><gpxtpx:bearing>35.1</gpxtpx:bearing><gpxtpx:speed>1.5894623</gpxtpx:speed></gpxtpx:TrackPointExtension></extensions><geoidheight>-32.4</geoidheight><src>gps</src><sat>20</sat><hdop>0.53</hdop><vdop>0.83</vdop><pdop>0.99</pdop><dgpsid>0000</dgpsid></trkpt>
<trkpt lat="24.054323500000002" lon="-109.98942100000001"><ele>7.2</ele><time>2025-12-23T18:51:01.000Z</time><extensions><gpxtpx:TrackPointExtension><gpxtpx:bearing>49.42</gpxtpx:bearing><gpxtpx:speed>0.51832527</gpxtpx:speed></gpxtpx:TrackPointExtension></extensions><geoidheight>-32.4</geoidheight><src>gps</src><sat>20</sat><hdop>0.56</hdop><vdop>0.90</vdop><pdop>1.06</pdop><dgpsid>0000</dgpsid></trkpt>
<trkpt lat="24.054323999999998" lon="-109.98935083333332"><ele>6.7</ele><time>2025-12-23T18:51:12.000Z</time><extensions><gpxtpx:TrackPointExtension><gpxtpx:bearing>114.26</gpxtpx:bearing><gpxtpx:speed>0.7190669</gpxtpx:speed></gpxtpx:TrackPointExtension></extensions><geoidheight>-32.4</geoidheight><src>gps</src><sat>19</sat><hdop>0.59</hdop><vdop>0.94</vdop><pdop>1.11</pdop><dgpsid>0000</dgpsid></trkpt>
<trkpt lat="24.05432616666667" lon="-109.98929616666668"><ele>2.6</ele><time>2025-12-23T18:51:45.000Z</time><extensions><gpxtpx:TrackPointExtension><gpxtpx:speed>0.036545277</gpxtpx:speed></gpxtpx:TrackPointExtension></extensions><geoidheight>-32.4</geoidheight><src>gps</src><sat>20</sat><hdop>0.66</hdop><vdop>1.05</vdop><pdop>1.24</pdop><dgpsid>0000</dgpsid></trkpt>
<trkpt lat="24.054283" lon="-109.98919816666667"><ele>1.8</ele><time>2025-12-23T18:52:07.000Z</time><extensions><gpxtpx:TrackPointExtension><gpxtpx:speed>0.028309721</gpxtpx:speed></gpxtpx:TrackPointExtension></extensions><geoidheight>-32.4</geoidheight><src>gps</src><sat>20</sat><hdop>0.56</hdop><vdop>0.92</vdop><pdop>1.07</pdop><dgpsid>0000</dgpsid></trkpt>
<trkpt lat="24.054245999999996" lon="-109.98916966666665"><ele>5.6</ele><time>2025-12-23T18:54:19.000Z</time><extensions><gpxtpx:TrackPointExtension><gpxtpx:speed>0.008750278</gpxtpx:speed></gpxtpx:TrackPointExtension></extensions><geoidheight>-32.4</geoidheight><src>gps</src><sat>19</sat><hdop>0.59</hdop><vdop>0.95</vdop><pdop>1.12</pdop><dgpsid>0000</dgpsid></trkpt>
<trkpt lat="24.054259000000002" lon="-109.98912"><ele>12.7</ele><time>2025-12-23T19:00:44.000Z</time><extensions><gpxtpx:TrackPointExtension><gpxtpx:bearing>124.87</gpxtpx:bearing><gpxtpx:speed>1.1421686</gpxtpx:speed></gpxtpx:TrackPointExtension></extensions><geoidheight>-32.4</geoidheight><src>gps</src><sat>19</sat><hdop>0.59</hdop><vdop>0.98</vdop><pdop>1.15</pdop><dgpsid>0000</dgpsid></trkpt>
<trkpt lat="24.0541255" lon="-109.98909283333333"><ele>9.4</ele><time>2025-12-23T19:00:55.000Z</time><extensions><gpxtpx:TrackPointExtension><gpxtpx:bearing>193.39</gpxtpx:bearing><gpxtpx:speed>1.2996736</gpxtpx:speed></gpxtpx:TrackPointExtension></extensions><geoidheight>-32.4</geoidheight><src>gps</src><sat>20</sat><hdop>0.53</hdop><vdop>0.87</vdop><pdop>1.02</pdop><dgpsid>0000</dgpsid></trkpt>
<trkpt lat="24.05403516666667" lon="-109.98900866666666"><ele>7.1</ele><time>2025-12-23T19:01:06.000Z</time><extensions><gpxtpx:TrackPointExtension><gpxtpx:bearing>98.83</gpxtpx:bearing><gpxtpx:speed>0.54148775</gpxtpx:speed></gpxtpx:TrackPointExtension></extensions><geoidheight>-32.4</geoidheight><src>gps</src><sat>20</sat><hdop>0.53</hdop><vdop>0.87</vdop><pdop>1.02</pdop><dgpsid>0000</dgpsid></trkpt>
<trkpt lat="24.054023999999995" lon="-109.98895333333333"><ele>5.9</ele><time>2025-12-23T19:01:17.000Z</time><extensions><gpxtpx:TrackPointExtension><gpxtpx:speed>0.08081139</gpxtpx:speed></gpxtpx:TrackPointExtension></extensions><geoidheight>-32.4</geoidheight><src>gps</src><sat>20</sat><hdop>0.53</hdop><vdop>0.87</vdop><pdop>1.02</pdop><dgpsid>0000</dgpsid></trkpt>
<trkpt lat="24.054022833333338" lon="-109.98890233333334"><ele>12.3</ele><time>2025-12-23T19:04:46.000Z</time><extensions><gpxtpx:TrackPointExtension><gpxtpx:speed>0.007206111</gpxtpx:speed></gpxtpx:TrackPointExtension></extensions><geoidheight>-32.4</geoidheight><src>gps</src><sat>18</sat><hdop>0.58</hdop><vdop>0.94</vdop><pdop>1.11</pdop><dgpsid>0000</dgpsid></trkpt>
<trkpt lat="24.0540365" lon="-109.98895300000001"><ele>10.2</ele><time>2025-12-23T19:10:49.000Z</time><extensions><gpxtpx:TrackPointExtension><gpxtpx:speed>0.14309278</gpxtpx:speed></gpxtpx:TrackPointExtension></extensions><geoidheight>-32.4</geoidheight><src>gps</src><sat>19</sat><hdop>0.52</hdop><vdop>0.85</vdop><pdop>1.00</pdop><dgpsid>0000</dgpsid></trkpt>
<trkpt lat="24.054011833333334" lon="-109.98891016666667"><ele>9.7</ele><time>2025-12-23T19:13:34.000Z</time><extensions><gpxtpx:TrackPointExtension><gpxtpx:speed>0.02058889</gpxtpx:speed></gpxtpx:TrackPointExtension></extensions><geoidheight>-32.4</geoidheight><src>gps</src><sat>19</sat><hdop>0.53</hdop><vdop>0.89</vdop><pdop>1.04</pdop><dgpsid>0000</dgpsid></trkpt>
<trkpt lat="24.054029833333335" lon="-109.98885166666666"><ele>11.2</ele><time>2025-12-23T19:23:06.000Z</time><extensions><gpxtpx:TrackPointExtension><gpxtpx:speed>0.022133056</gpxtpx:speed></gpxtpx:TrackPointExtension></extensions><geoidheight>-32.4</geoidheight><src>gps</src><sat>18</sat><hdop>0.61</hdop><vdop>1.12</vdop><pdop>1.27</pdop><dgpsid>0000</dgpsid></trkpt>
<trkpt lat="24.054019999999998" lon="-109.9889005"><ele>11.8</ele><time>2025-12-23T19:29:53.000Z</time><extensions><gpxtpx:TrackPointExtension><gpxtpx:speed>0.02058889</gpxtpx:speed></gpxtpx:TrackPointExtension></extensions><geoidheight>-32.4</geoidheight><src>gps</src><sat>16</sat><hdop>0.81</hdop><vdop>1.68</vdop><pdop>1.87</pdop><dgpsid>0000</dgpsid></trkpt>
<trkpt lat="24.054035666666664" lon="-109.9889675"><ele>13.7</ele><time>2025-12-23T19:32:16.000Z</time><extensions><gpxtpx:TrackPointExtension><gpxtpx:speed>0.16882889</gpxtpx:speed></gpxtpx:TrackPointExtension></extensions><geoidheight>-32.4</geoidheight><src>gps</src><sat>17</sat><hdop>0.63</hdop><vdop>1.33</vdop><pdop>1.47</pdop><dgpsid>0000</dgpsid></trkpt>
<trkpt lat="24.054042499999998" lon="-109.98905716666668"><ele>11.3</ele><time>2025-12-23T19:32:38.000Z</time><extensions><gpxtpx:TrackPointExtension><gpxtpx:bearing>292.2</gpxtpx:bearing><gpxtpx:speed>0.4771475</gpxtpx:speed></gpxtpx:TrackPointExtension></extensions><geoidheight>-32.4</geoidheight><src>gps</src><sat>17</sat><hdop>0.63</hdop><vdop>1.33</vdop><pdop>1.47</pdop><dgpsid>0000</dgpsid></trkpt>
<trkpt lat="24.053990833333334" lon="-109.98910316666667"><ele>14.0</ele><time>2025-12-23T19:33:11.000Z</time><extensions><gpxtpx:TrackPointExtension><gpxtpx:bearing>213.3</gpxtpx:bearing><gpxtpx:speed>0.8503211</gpxtpx:speed></gpxtpx:TrackPointExtension></extensions><geoidheight>-32.4</geoidheight><src>gps</src><sat>18</sat><hdop>0.62</hdop><vdop>1.25</vdop><pdop>1.39</pdop><dgpsid>0000</dgpsid></trkpt>
<trkpt lat="24.054007166666665" lon="-109.98915366666667"><ele>16.6</ele><time>2025-12-23T19:33:44.000Z</time><extensions><gpxtpx:TrackPointExtension><gpxtpx:speed>0.060737222</gpxtpx:speed></gpxtpx:TrackPointExtension></extensions><geoidheight>-32.4</geoidheight><src>gps</src><sat>17</sat><hdop>0.60</hdop><vdop>1.14</vdop><pdop>1.29</pdop><dgpsid>0000</dgpsid></trkpt>
<trkpt lat="24.053999166666667" lon="-109.98910466666666"><ele>12.0</ele><time>2025-12-23T19:54:16.000Z</time><extensions><gpxtpx:TrackPointExtension><gpxtpx:speed>0.0138975</gpxtpx:speed></gpxtpx:TrackPointExtension></extensions><geoidheight>-32.4</geoidheight><src>gps</src><sat>17</sat><hdop>0.56</hdop><vdop>0.99</vdop><pdop>1.13</pdop><dgpsid>0000</dgpsid></trkpt>
</trkseg></trk></gpx>