<?xml version="1.0" encoding="UTF-8"?><kml xmlns="http://www.opengis.net/kml/2.2" xmlns:gx="http://www.google.com/kml/ext/2.2" xmlns:kml="http://www.opengis.net/kml/2.2" xmlns:atom="http://www.w3.org/2005/Atom"><Document><name>2025-12-05T01:31:33.000Z</name>
<Placemark>
<gx:Track>

<when>2025-12-05T01:31:33.000Z</when>
<gx:coord>-96.94933116666668 29.689282166666665 86.6</gx:coord>

<when>2025-12-05T01:31:39.000Z</when>
<gx:coord>-96.951212 29.689175 87.0</gx:coord>

<when>2025-12-05T01:31:45.000Z</when>
<gx:coord>-96.95309966666667 29.68906516666667 88.9</gx:coord>

<when>2025-12-05T01:31:51.000Z</when>
<gx:coord>-96.95494266666668 29.688962500000002 93.3</gx:coord>

<when>2025-12-05T01:31:57.000Z</when>
<gx:coord>-96.95675416666667 29.688959666666666 97.9</gx:coord>

<when>2025-12-05T01:32:03.000Z</when>
<gx:coord>-96.95853183333332 29.68911033333333 102.3</gx:coord>

<when>2025-12-05T01:32:09.000Z</when>
<gx:coord>-96.96028783333334 29.689300333333335 106.4</gx:coord>

<when>2025-12-05T01:32:15.000Z</when>
<gx:coord>-96.96205133333333 29.689508833333335 112.1</gx:coord>

<when>2025-12-05T01:32:21.000Z</when>
<gx:coord>-96.96383133333332 29.6896965 111.9</gx:coord>

<when>2025-12-05T01:32:27.000Z</when>
<gx:coord>-96.96566166666668 29.689892499999996 112.5</gx:coord>

<when>2025-12-05T01:32:33.000Z</when>
<gx:coord>-96.96750133333335 29.690088999999997 112.2</gx:coord>

<when>2025-12-05T01:32:39.000Z</when>
<gx:coord>-96.96927066666667 29.690277166666668 113.1</gx:coord>

<when>2025-12-05T01:32:45.000Z</when>
<gx:coord>-96.97102733333334 29.690463500000003 111.6</gx:coord>

<when>2025-12-05T01:32:51.000Z</when>
<gx:coord>-96.97280683333332 29.690657 111.1</gx:coord>

<when>2025-12-05T01:32:57.000Z</when>
<gx:coord>-96.97460016666668 29.6908495 111.8</gx:coord>

<when>2025-12-05T01:33:03.000Z</when>
<gx:coord>-96.97640000000001 29.691042999999997 112.0</gx:coord>

<when>2025-12-05T01:33:09.000Z</when>
<gx:coord>-96.978198 29.691219833333335 112.4</gx:coord>

<when>2025-12-05T01:33:15.000Z</when>
<gx:coord>-96.98001533333333 29.691336999999997 112.7</gx:coord>

<when>2025-12-05T01:33:21.000Z</when>
<gx:coord>-96.981846 29.691380333333335 112.8</gx:coord>

<when>2025-12-05T01:33:27.000Z</when>
<gx:coord>-96.98369499999998 29.691414333333334 112.3</gx:coord>

<when>2025-12-05T01:33:33.000Z</when>
<gx:coord>-96.98557366666667 29.691444499999996 112.3</gx:coord>

<when>2025-12-05T01:33:39.000Z</when>
<gx:coord>-96.98745566666666 29.691472999999995 112.2</gx:coord>

<when>2025-12-05T01:33:45.000Z</when>
<gx:coord>-96.98932383333334 29.691507 112.0</gx:coord>

<when>2025-12-05T01:33:56.000Z</when>
<gx:coord>-96.99272850000001 29.691558333333333 112.2</gx:coord>

<when>2025-12-05T01:34:07.000Z</when>
<gx:coord>-96.99617933333333 29.69161 111.9</gx:coord>

<when>2025-12-05T01:34:18.000Z</when>
<gx:coord>-96.99942250000001 29.691656833333333 111.0</gx:coord>

<when>2025-12-05T01:34:29.000Z</when>
<gx:coord>-97.00270116666667 29.691717833333335 106.3</gx:coord>

<when>2025-12-05T01:34:40.000Z</when>
<gx:coord>-97.00600416666666 29.69177666666667 103.8</gx:coord>

<when>2025-12-05T01:34:51.000Z</when>
<gx:coord>-97.0093485 29.692048500000002 100.9</gx:coord>

<when>2025-12-05T01:35:02.000Z</when>
<gx:coord>-97.01260750000002 29.692602000000004 105.2</gx:coord>

<when>2025-12-05T01:35:13.000Z</when>
<gx:coord>-97.01581966666666 29.693152333333334 111.4</gx:coord>

<when>2025-12-05T01:35:24.000Z</when>
<gx:coord>-97.01900916666666 29.6937035 112.1</gx:coord>

<when>2025-12-05T01:35:35.000Z</when>
<gx:coord>-97.02219466666665 29.694253166666666 110.0</gx:coord>

<when>2025-12-05T01:35:46.000Z</when>
<gx:coord>-97.02538633333333 29.694813 106.6</gx:coord>

<when>2025-12-05T01:35:57.000Z</when>
<gx:coord>-97.0286125 29.69537683333333 101.9</gx:coord>

<when>2025-12-05T01:36:08.000Z</when>
<gx:coord>-97.03193016666667 29.695958333333337 98.2</gx:coord>

<when>2025-12-05T01:36:19.000Z</when>
<gx:coord>-97.03526533333334 29.69653633333333 96.2</gx:coord>

<when>2025-12-05T01:36:30.000Z</when>
<gx:coord>-97.03853633333334 29.69709233333333 97.3</gx:coord>

<when>2025-12-05T01:36:41.000Z</when>
<gx:coord>-97.04189166666666 29.697592166666663 97.3</gx:coord>

<when>2025-12-05T01:36:52.000Z</when>
<gx:coord>-97.04528616666667 29.697944666666665 97.7</gx:coord>

<when>2025-12-05T01:37:03.000Z</when>
<gx:coord>-97.04867916666666 29.698149833333332 99.5</gx:coord>

<when>2025-12-05T01:37:14.000Z</when>
<gx:coord>-97.051991 29.698219666666667 108.4</gx:coord>

<when>2025-12-05T01:37:25.000Z</when>
<gx:coord>-97.05523116666667 29.6981735 112.8</gx:coord>

<when>2025-12-05T01:37:36.000Z</when>
<gx:coord>-97.05847283333333 29.698097833333335 110.4</gx:coord>

<when>2025-12-05T01:37:47.000Z</when>
<gx:coord>-97.06167133333332 29.698019999999996 109.1</gx:coord>

<when>2025-12-05T01:37:58.000Z</when>
<gx:coord>-97.06484716666667 29.697944666666665 112.4</gx:coord>

<when>2025-12-05T01:38:09.000Z</when>
<gx:coord>-97.06792283333334 29.697872833333335 117.8</gx:coord>

<when>2025-12-05T01:38:20.000Z</when>
<gx:coord>-97.07103316666668 29.6977915 117.5</gx:coord>

<when>2025-12-05T01:38:31.000Z</when>
<gx:coord>-97.07422883333332 29.697697833333336 117.2</gx:coord>

<when>2025-12-05T01:38:42.000Z</when>
<gx:coord>-97.0774615 29.6976035 118.0</gx:coord>

<when>2025-12-05T01:38:53.000Z</when>
<gx:coord>-97.08071883333332 29.697504166666665 116.5</gx:coord>

<when>2025-12-05T01:39:04.000Z</when>
<gx:coord>-97.083974 29.697410666666663 116.2</gx:coord>

<when>2025-12-05T01:39:15.000Z</when>
<gx:coord>-97.08719133333334 29.697316500000003 119.0</gx:coord>

<when>2025-12-05T01:39:26.000Z</when>
<gx:coord>-97.09038299999999 29.697231000000002 120.3</gx:coord>

<when>2025-12-05T01:39:37.000Z</when>
<gx:coord>-97.09354566666667 29.697151166666664 117.9</gx:coord>

<when>2025-12-05T01:39:48.000Z</when>
<gx:coord>-97.09676533333335 29.697091 113.0</gx:coord>

<when>2025-12-05T01:39:59.000Z</when>
<gx:coord>-97.10004816666667 29.697046 110.8</gx:coord>

<when>2025-12-05T01:40:10.000Z</when>
<gx:coord>-97.10319499999999 29.696980500000002 114.9</gx:coord>

<when>2025-12-05T01:40:21.000Z</when>
<gx:coord>-97.10630533333332 29.696911999999998 112.5</gx:coord>

<when>2025-12-05T01:40:32.000Z</when>
<gx:coord>-97.10942533333333 29.696847166666664 110.8</gx:coord>

<when>2025-12-05T01:40:43.000Z</when>
<gx:coord>-97.11267166666667 29.696779999999997 109.8</gx:coord>

<when>2025-12-05T01:40:54.000Z</when>
<gx:coord>-97.11593666666667 29.696702 112.4</gx:coord>

<when>2025-12-05T01:41:05.000Z</when>
<gx:coord>-97.11919283333333 29.696630333333328 113.0</gx:coord>

<when>2025-12-05T01:41:16.000Z</when>
<gx:coord>-97.12246666666667 29.696566999999998 113.6</gx:coord>

<when>2025-12-05T01:41:27.000Z</when>
<gx:coord>-97.12576383333332 29.69654666666667 111.1</gx:coord>

<when>2025-12-05T01:41:38.000Z</when>
<gx:coord>-97.12900050000002 29.69657216666667 106.3</gx:coord>

<when>2025-12-05T01:41:49.000Z</when>
<gx:coord>-97.13227733333333 29.696614999999998 103.5</gx:coord>

<when>2025-12-05T01:42:00.000Z</when>
<gx:coord>-97.13568083333332 29.696651166666665 100.7</gx:coord>

<when>2025-12-05T01:42:11.000Z</when>
<gx:coord>-97.13912916666668 29.696698 99.3</gx:coord>

<when>2025-12-05T01:42:22.000Z</when>
<gx:coord>-97.14258933333333 29.696682000000003 100.0</gx:coord>

<when>2025-12-05T01:42:33.000Z</when>
<gx:coord>-97.14597266666667 29.696187499999997 101.3</gx:coord>

<when>2025-12-05T01:42:44.000Z</when>
<gx:coord>-97.14924233333335 29.695408166666667 102.3</gx:coord>

<when>2025-12-05T01:42:55.000Z</when>
<gx:coord>-97.15254733333335 29.69461516666667 103.4</gx:coord>

<when>2025-12-05T01:43:06.000Z</when>
<gx:coord>-97.1559115 29.69381883333333 102.8</gx:coord>

<when>2025-12-05T01:43:17.000Z</when>
<gx:coord>-97.15933250000002 29.6930105 102.7</gx:coord>

<when>2025-12-05T01:43:28.000Z</when>
<gx:coord>-97.16276916666666 29.692252500000002 101.8</gx:coord>

<when>2025-12-05T01:43:39.000Z</when>
<gx:coord>-97.16603349999998 29.69202833333333 102.0</gx:coord>

<when>2025-12-05T01:43:50.000Z</when>
<gx:coord>-97.16911333333334 29.69205283333333 104.2</gx:coord>

<when>2025-12-05T01:44:01.000Z</when>
<gx:coord>-97.17220583333334 29.69208133333333 106.0</gx:coord>

<when>2025-12-05T01:44:12.000Z</when>
<gx:coord>-97.17533999999999 29.692105500000004 109.0</gx:coord>

<when>2025-12-05T01:44:23.000Z</when>
<gx:coord>-97.17858616666666 29.692135666666665 103.1</gx:coord>

<when>2025-12-05T01:44:34.000Z</when>
<gx:coord>-97.18179066666669 29.692147 93.2</gx:coord>

<when>2025-12-05T01:44:45.000Z</when>
<gx:coord>-97.18493050000001 29.69218883333333 88.3</gx:coord>

<when>2025-12-05T01:44:56.000Z</when>
<gx:coord>-97.1881725 29.69223983333333 91.3</gx:coord>

<when>2025-12-05T01:45:07.000Z</when>
<gx:coord>-97.19137616666667 29.692270666666666 91.7</gx:coord>

<when>2025-12-05T01:45:18.000Z</when>
<gx:coord>-97.19458600000002 29.692295833333333 95.6</gx:coord>

<when>2025-12-05T01:45:29.000Z</when>
<gx:coord>-97.19784283333333 29.692332333333336 96.4</gx:coord>

<when>2025-12-05T01:45:40.000Z</when>
<gx:coord>-97.20111049999998 29.692369999999997 95.3</gx:coord>

<when>2025-12-05T01:45:51.000Z</when>
<gx:coord>-97.20439 29.692402 96.6</gx:coord>

<when>2025-12-05T01:46:02.000Z</when>
<gx:coord>-97.20760933333334 29.692432666666665 97.5</gx:coord>

<when>2025-12-05T01:46:13.000Z</when>
<gx:coord>-97.210817 29.692462666666664 99.3</gx:coord>

<when>2025-12-05T01:46:24.000Z</when>
<gx:coord>-97.2140155 29.692495500000003 101.5</gx:coord>

<when>2025-12-05T01:46:35.000Z</when>
<gx:coord>-97.21721883333333 29.692527666666667 106.4</gx:coord>

<when>2025-12-05T01:46:46.000Z</when>
<gx:coord>-97.2205175 29.692556333333332 111.7</gx:coord>

<when>2025-12-05T01:46:57.000Z</when>
<gx:coord>-97.22386999999999 29.692587166666666 104.8</gx:coord>

<when>2025-12-05T01:47:08.000Z</when>
<gx:coord>-97.22729166666667 29.6926265 95.7</gx:coord>

<when>2025-12-05T01:47:19.000Z</when>
<gx:coord>-97.23070516666667 29.692645833333337 90.1</gx:coord>

<when>2025-12-05T01:47:30.000Z</when>
<gx:coord>-97.23412733333335 29.692668166666667 89.4</gx:coord>

<when>2025-12-05T01:47:41.000Z</when>
<gx:coord>-97.23746916666666 29.692681500000003 81.6</gx:coord>

<when>2025-12-05T01:47:52.000Z</when>
<gx:coord>-97.24083516666666 29.692584333333336 79.3</gx:coord>

<when>2025-12-05T01:48:03.000Z</when>
<gx:coord>-97.244061 29.692032499999996 89.0</gx:coord>

<when>2025-12-05T01:48:14.000Z</when>
<gx:coord>-97.24705549999999 29.691057166666663 94.0</gx:coord>

<when>2025-12-05T01:48:25.000Z</when>
<gx:coord>-97.249989 29.690030833333335 98.7</gx:coord>

<when>2025-12-05T01:48:36.000Z</when>
<gx:coord>-97.25293383333334 29.68899683333333 102.9</gx:coord>

<when>2025-12-05T01:48:47.000Z</when>
<gx:coord>-97.25592316666668 29.687959999999997 104.5</gx:coord>

<when>2025-12-05T01:48:58.000Z</when>
<gx:coord>-97.25900449999999 29.686856166666665 106.2</gx:coord>

<when>2025-12-05T01:49:09.000Z</when>
<gx:coord>-97.26213833333334 29.685749666666666 104.5</gx:coord>

<when>2025-12-05T01:49:20.000Z</when>
<gx:coord>-97.265201 29.684509333333335 106.7</gx:coord>

<when>2025-12-05T01:49:31.000Z</when>
<gx:coord>-97.26808516666667 29.68313033333333 110.9</gx:coord>

<when>2025-12-05T01:49:42.000Z</when>
<gx:coord>-97.270994 29.68173116666667 108.2</gx:coord>

<when>2025-12-05T01:49:53.000Z</when>
<gx:coord>-97.27393066666667 29.680316333333334 101.0</gx:coord>

<when>2025-12-05T01:50:04.000Z</when>
<gx:coord>-97.27678666666667 29.678939 102.9</gx:coord>

<when>2025-12-05T01:50:15.000Z</when>
<gx:coord>-97.27968116666668 29.677546666666665 105.4</gx:coord>

<when>2025-12-05T01:50:26.000Z</when>
<gx:coord>-97.28263083333334 29.676123833333335 108.1</gx:coord>

<when>2025-12-05T01:50:37.000Z</when>
<gx:coord>-97.28557500000001 29.674699999999998 111.5</gx:coord>

<when>2025-12-05T01:50:48.000Z</when>
<gx:coord>-97.288471 29.67330416666667 114.1</gx:coord>

<when>2025-12-05T01:50:59.000Z</when>
<gx:coord>-97.29128133333333 29.67194716666667 116.9</gx:coord>

<when>2025-12-05T01:51:10.000Z</when>
<gx:coord>-97.29402583333334 29.67067083333333 119.5</gx:coord>

<when>2025-12-05T01:51:21.000Z</when>
<gx:coord>-97.29695433333333 29.66990716666667 118.2</gx:coord>

<when>2025-12-05T01:51:32.000Z</when>
<gx:coord>-97.30004533333334 29.6696195 117.0</gx:coord>

<when>2025-12-05T01:51:43.000Z</when>
<gx:coord>-97.303124 29.669357166666668 115.8</gx:coord>

<when>2025-12-05T01:51:54.000Z</when>
<gx:coord>-97.30616216666667 29.669105833333333 113.3</gx:coord>

<when>2025-12-05T01:52:05.000Z</when>
<gx:coord>-97.30937333333334 29.6688435 110.5</gx:coord>

<when>2025-12-05T01:52:16.000Z</when>
<gx:coord>-97.31265183333335 29.668575 116.0</gx:coord>

<when>2025-12-05T01:52:27.000Z</when>
<gx:coord>-97.31585816666666 29.668311333333335 120.7</gx:coord>

<when>2025-12-05T01:52:38.000Z</when>
<gx:coord>-97.3191315 29.668030833333333 116.0</gx:coord>

<when>2025-12-05T01:52:49.000Z</when>
<gx:coord>-97.32246433333333 29.667747666666667 110.4</gx:coord>

<when>2025-12-05T01:53:00.000Z</when>
<gx:coord>-97.32571433333332 29.667477166666664 113.1</gx:coord>

<when>2025-12-05T01:53:11.000Z</when>
<gx:coord>-97.32889783333333 29.667215499999998 116.8</gx:coord>

<when>2025-12-05T01:53:22.000Z</when>
<gx:coord>-97.33204833333333 29.666961833333335 120.9</gx:coord>

<when>2025-12-05T01:53:33.000Z</when>
<gx:coord>-97.335281 29.666687166666666 119.5</gx:coord>

<when>2025-12-05T01:53:44.000Z</when>
<gx:coord>-97.338608 29.666407333333336 113.0</gx:coord>

<when>2025-12-05T01:53:55.000Z</when>
<gx:coord>-97.3419365 29.666137166666665 107.4</gx:coord>

<when>2025-12-05T01:54:06.000Z</when>
<gx:coord>-97.3452535 29.665862833333335 104.5</gx:coord>

<when>2025-12-05T01:54:17.000Z</when>
<gx:coord>-97.34842766666667 29.66559833333333 107.6</gx:coord>

<when>2025-12-05T01:54:28.000Z</when>
<gx:coord>-97.35154949999999 29.66534 110.4</gx:coord>

<when>2025-12-05T01:54:39.000Z</when>
<gx:coord>-97.35464516666667 29.66507633333333 112.5</gx:coord>

<when>2025-12-05T01:54:50.000Z</when>
<gx:coord>-97.35775733333334 29.664808 112.0</gx:coord>

<when>2025-12-05T01:55:01.000Z</when>
<gx:coord>-97.36081266666666 29.664562833333335 109.2</gx:coord>

<when>2025-12-05T01:55:12.000Z</when>
<gx:coord>-97.36387549999999 29.66431 104.7</gx:coord>

<when>2025-12-05T01:55:23.000Z</when>
<gx:coord>-97.36693083333333 29.664050166666666 104.5</gx:coord>

<when>2025-12-05T01:55:34.000Z</when>
<gx:coord>-97.36997033333334 29.663802499999996 102.5</gx:coord>

<when>2025-12-05T01:55:45.000Z</when>
<gx:coord>-97.3730045 29.66355 101.6</gx:coord>

<when>2025-12-05T01:55:56.000Z</when>
<gx:coord>-97.3761125 29.663295499999997 101.5</gx:coord>

<when>2025-12-05T01:56:07.000Z</when>
<gx:coord>-97.37925366666666 29.663029166666668 101.3</gx:coord>

<when>2025-12-05T01:56:18.000Z</when>
<gx:coord>-97.3823625 29.662781499999998 101.0</gx:coord>

<when>2025-12-05T01:56:29.000Z</when>
<gx:coord>-97.38545766666667 29.662517333333334 101.3</gx:coord>

<when>2025-12-05T01:56:40.000Z</when>
<gx:coord>-97.38851416666667 29.66217466666667 103.4</gx:coord>

<when>2025-12-05T01:56:51.000Z</when>
<gx:coord>-97.391534 29.661727333333335 108.5</gx:coord>

<when>2025-12-05T01:57:02.000Z</when>
<gx:coord>-97.39452466666668 29.661277499999997 113.5</gx:coord>

<when>2025-12-05T01:57:13.000Z</when>
<gx:coord>-97.39753450000002 29.660827 113.3</gx:coord>

<when>2025-12-05T01:57:24.000Z</when>
<gx:coord>-97.40053033333334 29.660375166666668 110.4</gx:coord>

<when>2025-12-05T01:57:35.000Z</when>
<gx:coord>-97.40356416666667 29.6599225 107.0</gx:coord>

<when>2025-12-05T01:57:46.000Z</when>
<gx:coord>-97.40665833333333 29.659466166666668 105.9</gx:coord>

<when>2025-12-05T01:57:57.000Z</when>
<gx:coord>-97.40968616666666 29.659077333333336 110.5</gx:coord>

<when>2025-12-05T01:58:08.000Z</when>
<gx:coord>-97.41264616666668 29.658764333333338 118.6</gx:coord>

<when>2025-12-05T01:58:19.000Z</when>
<gx:coord>-97.41556716666668 29.658462666666665 126.2</gx:coord>

<when>2025-12-05T01:58:30.000Z</when>
<gx:coord>-97.41849133333332 29.658153333333335 126.0</gx:coord>

<when>2025-12-05T01:58:41.000Z</when>
<gx:coord>-97.42138533333333 29.657844666666666 126.0</gx:coord>

<when>2025-12-05T01:58:52.000Z</when>
<gx:coord>-97.4242635 29.657547 127.1</gx:coord>

<when>2025-12-05T01:59:03.000Z</when>
<gx:coord>-97.42718766666667 29.657232999999998 126.5</gx:coord>

<when>2025-12-05T01:59:14.000Z</when>
<gx:coord>-97.43015166666667 29.656918000000005 126.7</gx:coord>

<when>2025-12-05T01:59:25.000Z</when>
<gx:coord>-97.4331785 29.656603000000004 126.0</gx:coord>

<when>2025-12-05T01:59:36.000Z</when>
<gx:coord>-97.43627666666667 29.65627233333333 125.1</gx:coord>

<when>2025-12-05T01:59:47.000Z</when>
<gx:coord>-97.43938433333332 29.6559415 124.6</gx:coord>

<when>2025-12-05T01:59:58.000Z</when>
<gx:coord>-97.44251666666666 29.65560966666667 124.0</gx:coord>

<when>2025-12-05T02:00:09.000Z</when>
<gx:coord>-97.4456025 29.655278 125.5</gx:coord>

<when>2025-12-05T02:00:20.000Z</when>
<gx:coord>-97.4487125 29.654949166666665 126.5</gx:coord>

<when>2025-12-05T02:00:31.000Z</when>
<gx:coord>-97.45192966666667 29.65455383333333 126.6</gx:coord>

<when>2025-12-05T02:00:42.000Z</when>
<gx:coord>-97.45507983333333 29.65410716666667 125.2</gx:coord>

<when>2025-12-05T02:00:53.000Z</when>
<gx:coord>-97.45820666666665 29.653662666666666 123.8</gx:coord>

<when>2025-12-05T02:01:04.000Z</when>
<gx:coord>-97.46135516666666 29.653211499999998 123.6</gx:coord>

<when>2025-12-05T02:01:15.000Z</when>
<gx:coord>-97.46450633333333 29.652753333333333 123.6</gx:coord>

<when>2025-12-05T02:01:26.000Z</when>
<gx:coord>-97.46766666666666 29.65229883333333 123.2</gx:coord>

<when>2025-12-05T02:01:37.000Z</when>
<gx:coord>-97.47082716666667 29.651848499999996 123.5</gx:coord>

<when>2025-12-05T02:01:48.000Z</when>
<gx:coord>-97.47398916666667 29.651396 123.6</gx:coord>

<when>2025-12-05T02:01:59.000Z</when>
<gx:coord>-97.47711550000001 29.65094766666667 125.3</gx:coord>

<when>2025-12-05T02:02:10.000Z</when>
<gx:coord>-97.48023466666668 29.650501666666667 129.4</gx:coord>

<when>2025-12-05T02:02:21.000Z</when>
<gx:coord>-97.48329283333332 29.6500675 134.5</gx:coord>

<when>2025-12-05T02:02:32.000Z</when>
<gx:coord>-97.48628750000002 29.649646333333333 133.6</gx:coord>

<when>2025-12-05T02:02:43.000Z</when>
<gx:coord>-97.48940316666668 29.649551166666665 127.3</gx:coord>

<when>2025-12-05T02:02:54.000Z</when>
<gx:coord>-97.49261066666668 29.649744333333334 120.8</gx:coord>

<when>2025-12-05T02:03:05.000Z</when>
<gx:coord>-97.49586733333332 29.64994316666667 114.9</gx:coord>

<when>2025-12-05T02:03:16.000Z</when>
<gx:coord>-97.49916266666666 29.650144333333333 115.0</gx:coord>

<when>2025-12-05T02:03:27.000Z</when>
<gx:coord>-97.50234983333333 29.650345333333334 118.7</gx:coord>

<when>2025-12-05T02:03:38.000Z</when>
<gx:coord>-97.50547033333332 29.650536000000002 121.4</gx:coord>

<when>2025-12-05T02:03:49.000Z</when>
<gx:coord>-97.50864416666667 29.65073466666667 123.6</gx:coord>

<when>2025-12-05T02:04:00.000Z</when>
<gx:coord>-97.51181616666666 29.65094033333333 118.6</gx:coord>

<when>2025-12-05T02:04:11.000Z</when>
<gx:coord>-97.515038 29.65113816666667 114.0</gx:coord>

<when>2025-12-05T02:04:22.000Z</when>
<gx:coord>-97.51834466666666 29.65134833333333 107.7</gx:coord>

<when>2025-12-05T02:04:33.000Z</when>
<gx:coord>-97.52168216666665 29.65154766666667 104.8</gx:coord>

<when>2025-12-05T02:04:44.000Z</when>
<gx:coord>-97.52495316666666 29.651747833333335 104.1</gx:coord>

<when>2025-12-05T02:04:55.000Z</when>
<gx:coord>-97.52823500000001 29.651948333333333 103.5</gx:coord>

<when>2025-12-05T02:05:06.000Z</when>
<gx:coord>-97.53146366666667 29.652144333333332 103.1</gx:coord>

<when>2025-12-05T02:05:17.000Z</when>
<gx:coord>-97.53469666666666 29.652339833333333 102.1</gx:coord>

<when>2025-12-05T02:05:28.000Z</when>
<gx:coord>-97.53797583333335 29.652531 104.9</gx:coord>

<when>2025-12-05T02:05:39.000Z</when>
<gx:coord>-97.541225 29.652725166666663 108.6</gx:coord>

<when>2025-12-05T02:05:50.000Z</when>
<gx:coord>-97.54446350000002 29.65292866666667 112.2</gx:coord>

<when>2025-12-05T02:06:01.000Z</when>
<gx:coord>-97.547647 29.653122500000002 115.7</gx:coord>

<when>2025-12-05T02:06:12.000Z</when>
<gx:coord>-97.55082283333334 29.653315833333334 119.5</gx:coord>

<when>2025-12-05T02:06:23.000Z</when>
<gx:coord>-97.55392599999999 29.653503833333335 124.2</gx:coord>

<when>2025-12-05T02:06:34.000Z</when>
<gx:coord>-97.55701783333333 29.653692999999997 126.9</gx:coord>

<when>2025-12-05T02:06:45.000Z</when>
<gx:coord>-97.56021799999999 29.653880000000004 121.3</gx:coord>

<when>2025-12-05T02:06:56.000Z</when>
<gx:coord>-97.56346666666668 29.6540155 120.7</gx:coord>

<when>2025-12-05T02:07:07.000Z</when>
<gx:coord>-97.56663333333333 29.654112666666666 122.2</gx:coord>

<when>2025-12-05T02:07:18.000Z</when>
<gx:coord>-97.56988199999999 29.654207333333336 116.0</gx:coord>

<when>2025-12-05T02:07:29.000Z</when>
<gx:coord>-97.57306083333333 29.654298166666663 112.6</gx:coord>

<when>2025-12-05T02:07:40.000Z</when>
<gx:coord>-97.57625366666667 29.654398333333333 106.4</gx:coord>

<when>2025-12-05T02:07:51.000Z</when>
<gx:coord>-97.57934416666667 29.654478166666664 100.5</gx:coord>

<when>2025-12-05T02:08:02.000Z</when>
<gx:coord>-97.58247783333333 29.654288333333337 94.6</gx:coord>

<when>2025-12-05T02:08:13.000Z</when>
<gx:coord>-97.58554783333332 29.653801833333333 94.4</gx:coord>

<when>2025-12-05T02:08:24.000Z</when>
<gx:coord>-97.58833033333333 29.653436166666665 92.6</gx:coord>

<when>2025-12-05T02:08:35.000Z</when>
<gx:coord>-97.59059200000002 29.65335866666667 92.3</gx:coord>

<when>2025-12-05T02:08:46.000Z</when>
<gx:coord>-97.59243166666666 29.653190166666665 91.7</gx:coord>

<when>2025-12-05T02:08:57.000Z</when>
<gx:coord>-97.59310916666666 29.653092833333336 92.6</gx:coord>

<when>2025-12-05T02:10:03.000Z</when>
<gx:coord>-97.59330716666666 29.65305433333333 91.3</gx:coord>

<when>2025-12-05T02:10:14.000Z</when>
<gx:coord>-97.59314250000001 29.652661833333333 88.9</gx:coord>

<when>2025-12-05T02:10:25.000Z</when>
<gx:coord>-97.59237483333332 29.652108666666663 86.8</gx:coord>

<when>2025-12-05T02:10:36.000Z</when>
<gx:coord>-97.59154416666667 29.651365499999997 92.4</gx:coord>

<when>2025-12-05T02:10:47.000Z</when>
<gx:coord>-97.5910885 29.650907 94.7</gx:coord>

<when>2025-12-05T02:10:58.000Z</when>
<gx:coord>-97.590983 29.650798833333337 95.7</gx:coord>

<when>2025-12-05T02:11:09.000Z</when>
<gx:coord>-97.59043916666666 29.650085166666667 96.2</gx:coord>

<when>2025-12-05T02:11:20.000Z</when>
<gx:coord>-97.5897465 29.648872666666662 98.6</gx:coord>

<when>2025-12-05T02:11:31.000Z</when>
<gx:coord>-97.58904533333335 29.647428166666668 101.2</gx:coord>

<when>2025-12-05T02:11:42.000Z</when>
<gx:coord>-97.588245 29.64577266666667 106.6</gx:coord>

<when>2025-12-05T02:11:53.000Z</when>
<gx:coord>-97.587303 29.643837333333334 109.2</gx:coord>

<when>2025-12-05T02:12:04.000Z</when>
<gx:coord>-97.58628266666668 29.64171683333333 107.7</gx:coord>

<when>2025-12-05T02:12:15.000Z</when>
<gx:coord>-97.58500049999999 29.639688 111.6</gx:coord>

<when>2025-12-05T02:12:26.000Z</when>
<gx:coord>-97.58321216666667 29.637733000000004 114.1</gx:coord>

<when>2025-12-05T02:12:37.000Z</when>
<gx:coord>-97.58125533333332 29.635680499999996 112.6</gx:coord>

<when>2025-12-05T02:12:48.000Z</when>
<gx:coord>-97.57948083333333 29.633862 113.9</gx:coord>

<when>2025-12-05T02:12:59.000Z</when>
<gx:coord>-97.57782583333334 29.632184666666664 108.9</gx:coord>

<when>2025-12-05T02:13:10.000Z</when>
<gx:coord>-97.57611233333334 29.63042383333333 116.2</gx:coord>

<when>2025-12-05T02:13:21.000Z</when>
<gx:coord>-97.57472333333332 29.628513666666663 122.2</gx:coord>

<when>2025-12-05T02:13:32.000Z</when>
<gx:coord>-97.57375783333333 29.62655033333333 129.7</gx:coord>

<when>2025-12-05T02:13:43.000Z</when>
<gx:coord>-97.57300400000001 29.6245405 132.1</gx:coord>

<when>2025-12-05T02:13:54.000Z</when>
<gx:coord>-97.57226033333333 29.622473 127.0</gx:coord>

<when>2025-12-05T02:14:05.000Z</when>
<gx:coord>-97.57148200000002 29.620317500000002 121.0</gx:coord>

<when>2025-12-05T02:14:16.000Z</when>
<gx:coord>-97.57101533333335 29.618926166666665 119.1</gx:coord>

<when>2025-12-05T02:15:12.000Z</when>
<gx:coord>-97.5710585 29.6190075 118.3</gx:coord>

<when>2025-12-05T02:15:23.000Z</when>
<gx:coord>-97.57130433333332 29.61877966666667 115.8</gx:coord>

<when>2025-12-05T02:15:34.000Z</when>
<gx:coord>-97.57166216666668 29.618213500000003 111.7</gx:coord>

<when>2025-12-05T02:15:45.000Z</when>
<gx:coord>-97.57224383333332 29.617327833333334 109.0</gx:coord>

<when>2025-12-05T02:15:56.000Z</when>
<gx:coord>-97.57293766666665 29.616289166666668 109.8</gx:coord>

<when>2025-12-05T02:16:07.000Z</when>
<gx:coord>-97.57373466666668 29.615090000000002 106.6</gx:coord>

<when>2025-12-05T02:16:18.000Z</when>
<gx:coord>-97.57466500000001 29.61367266666667 104.3</gx:coord>

<when>2025-12-05T02:16:29.000Z</when>
<gx:coord>-97.57563633333332 29.612177499999998 103.3</gx:coord>

<when>2025-12-05T02:16:40.000Z</when>
<gx:coord>-97.5766165 29.610667166666666 101.8</gx:coord>

<when>2025-12-05T02:16:52.000Z</when>
<gx:coord>-97.57760733333335 29.609142833333333 102.0</gx:coord>

<when>2025-12-05T02:17:03.000Z</when>
<gx:coord>-97.57854666666665 29.607700500000004 98.6</gx:coord>

<when>2025-12-05T02:17:14.000Z</when>
<gx:coord>-97.5794715 29.606270666666667 99.2</gx:coord>

<when>2025-12-05T02:17:25.000Z</when>
<gx:coord>-97.58035583333334 29.604862833333332 96.5</gx:coord>

<when>2025-12-05T02:17:36.000Z</when>
<gx:coord>-97.58122366666666 29.603497833333336 96.5</gx:coord>

<when>2025-12-05T02:17:47.000Z</when>
<gx:coord>-97.58204883333335 29.602193333333336 95.2</gx:coord>

<when>2025-12-05T02:17:58.000Z</when>
<gx:coord>-97.58288616666665 29.600922333333333 92.7</gx:coord>

<when>2025-12-05T02:18:09.000Z</when>
<gx:coord>-97.58345483333332 29.600071000000003 91.8</gx:coord>

<when>2025-12-05T02:18:20.000Z</when>
<gx:coord>-97.58372200000001 29.599646333333332 90.5</gx:coord>

<when>2025-12-05T02:18:31.000Z</when>
<gx:coord>-97.58406833333332 29.598901833333336 91.2</gx:coord>

<when>2025-12-05T02:18:42.000Z</when>
<gx:coord>-97.58437666666666 29.598202500000003 92.4</gx:coord>

<when>2025-12-05T02:18:53.000Z</when>
<gx:coord>-97.58447499999998 29.597943499999996 93.5</gx:coord>

<when>2025-12-05T02:19:04.000Z</when>
<gx:coord>-97.58461183333333 29.597595166666665 94.3</gx:coord>

<when>2025-12-05T02:19:15.000Z</when>
<gx:coord>-97.58470133333334 29.5973775 92.4</gx:coord>

<when>2025-12-05T02:19:26.000Z</when>
<gx:coord>-97.5847915 29.597164 91.0</gx:coord>

<when>2025-12-05T02:19:37.000Z</when>
<gx:coord>-97.584938 29.597075000000004 89.1</gx:coord>

<when>2025-12-05T02:19:48.000Z</when>
<gx:coord>-97.58505783333334 29.596937166666667 89.8</gx:coord>

<when>2025-12-05T02:20:32.000Z</when>
<gx:coord>-97.58509516666666 29.596893 87.5</gx:coord>

<when>2025-12-05T02:21:27.000Z</when>
<gx:coord>-97.58509600000001 29.596838166666664 96.9</gx:coord>

<when>2025-12-05T02:24:34.000Z</when>
<gx:coord>-97.58510749999999 29.596886166666664 76.5</gx:coord>

<when>2025-12-05T02:26:57.000Z</when>
<gx:coord>-97.58506766666666 29.596845833333337 95.4</gx:coord>

<when>2025-12-05T02:29:09.000Z</when>
<gx:coord>-97.58501533333335 29.59684816666667 95.8</gx:coord>

<when>2025-12-05T02:30:59.000Z</when>
<gx:coord>-97.58505850000002 29.59682266666667 98.1</gx:coord>

<when>2025-12-05T02:34:17.000Z</when>
<gx:coord>-97.58508283333335 29.596730499999996 98.2</gx:coord>

<when>2025-12-05T02:35:34.000Z</when>
<gx:coord>-97.58501366666665 29.59650316666667 99.0</gx:coord>

<when>2025-12-05T02:35:45.000Z</when>
<gx:coord>-97.5851635 29.596215999999995 95.8</gx:coord>

<when>2025-12-05T02:35:56.000Z</when>
<gx:coord>-97.58551899999999 29.595757333333335 89.8</gx:coord>

<when>2025-12-05T02:36:07.000Z</when>
<gx:coord>-97.58620100000002 29.5950185 87.6</gx:coord>

<when>2025-12-05T02:36:18.000Z</when>
<gx:coord>-97.58672700000001 29.59435116666667 88.1</gx:coord>

<when>2025-12-05T02:36:29.000Z</when>
<gx:coord>-97.58711433333335 29.593792 91.8</gx:coord>

<when>2025-12-05T02:36:40.000Z</when>
<gx:coord>-97.58761333333332 29.593063833333336 94.3</gx:coord>

<when>2025-12-05T02:36:51.000Z</when>
<gx:coord>-97.58822483333333 29.59217716666667 97.6</gx:coord>

<when>2025-12-05T02:37:02.000Z</when>
<gx:coord>-97.58880216666667 29.591348166666663 95.4</gx:coord>

<when>2025-12-05T02:37:13.000Z</when>
<gx:coord>-97.58960683333335 29.590206833333333 92.1</gx:coord>

<when>2025-12-05T02:37:24.000Z</when>
<gx:coord>-97.59051416666668 29.588891166666667 94.0</gx:coord>

<when>2025-12-05T02:37:35.000Z</when>
<gx:coord>-97.59120149999998 29.5879215 92.0</gx:coord>

<when>2025-12-05T02:37:46.000Z</when>
<gx:coord>-97.5911695 29.58756 90.5</gx:coord>

<when>2025-12-05T02:37:57.000Z</when>
<gx:coord>-97.59057200000001 29.587532000000003 88.1</gx:coord>

<when>2025-12-05T02:38:08.000Z</when>
<gx:coord>-97.58948583333334 29.587771166666666 91.6</gx:coord>

<when>2025-12-05T02:38:19.000Z</when>
<gx:coord>-97.58847050000001 29.587938666666666 91.4</gx:coord>

<when>2025-12-05T02:38:30.000Z</when>
<gx:coord>-97.58780933333334 29.587904333333334 87.6</gx:coord>

<when>2025-12-05T02:38:41.000Z</when>
<gx:coord>-97.58733349999999 29.587970333333335 79.2</gx:coord>

<when>2025-12-05T02:38:52.000Z</when>
<gx:coord>-97.58660833333333 29.588077 70.3</gx:coord>

<when>2025-12-05T02:39:03.000Z</when>
<gx:coord>-97.58581366666667 29.588049333333334 66.4</gx:coord>

<when>2025-12-05T02:39:14.000Z</when>
<gx:coord>-97.58529883333334 29.587765666666662 64.5</gx:coord>

<when>2025-12-05T02:39:25.000Z</when>
<gx:coord>-97.5847385 29.587557500000003 64.8</gx:coord>

<when>2025-12-05T02:39:36.000Z</when>
<gx:coord>-97.58421666666666 29.587595000000004 59.4</gx:coord>

<when>2025-12-05T02:39:47.000Z</when>
<gx:coord>-97.58366783333334 29.5879185 86.3</gx:coord>

<when>2025-12-05T02:39:58.000Z</when>
<gx:coord>-97.5835095 29.588425500000003 86.0</gx:coord>

<when>2025-12-05T02:40:09.000Z</when>
<gx:coord>-97.58343066666666 29.588812500000003 72.9</gx:coord>

<when>2025-12-05T02:40:20.000Z</when>
<gx:coord>-97.58342566666667 29.588873166666666 78.7</gx:coord>

<when>2025-12-05T02:40:42.000Z</when>
<gx:coord>-97.58322366666668 29.58907316666667 82.7</gx:coord>

<when>2025-12-05T02:40:53.000Z</when>
<gx:coord>-97.58297749999998 29.58930083333333 83.2</gx:coord>

<when>2025-12-05T02:41:04.000Z</when>
<gx:coord>-97.58270283333334 29.58953166666667 83.0</gx:coord>

<when>2025-12-05T02:41:15.000Z</when>
<gx:coord>-97.58247616666668 29.589775500000005 85.3</gx:coord>

<when>2025-12-05T02:41:26.000Z</when>
<gx:coord>-97.5822725 29.589872666666665 84.7</gx:coord>

<when>2025-12-05T02:41:37.000Z</when>
<gx:coord>-97.58206299999999 29.58992333333333 82.4</gx:coord>

<when>2025-12-05T02:41:48.000Z</when>
<gx:coord>-97.58193583333332 29.589878 82.0</gx:coord>

<when>2025-12-05T02:42:10.000Z</when>
<gx:coord>-97.58186516666667 29.589872333333332 85.2</gx:coord>

<when>2025-12-05T02:43:38.000Z</when>
<gx:coord>-97.5818165 29.5898525 86.6</gx:coord>

<when>2025-12-05T02:44:22.000Z</when>
<gx:coord>-97.58176233333333 29.589845333333333 94.1</gx:coord>
</gx:Track>
</Placemark></Document></kml>
