<?xml version="1.0" encoding="UTF-8" ?><gpx version="1.1" creator="GPSLogger 135 - http://gpslogger.mendhak.com/" xmlns:xsi="http://www.w3.org/2001/XMLSchema-instance" xmlns="http://www.topografix.com/GPX/1/1" xmlns:gpxtpx="http://www.garmin.com/xmlschemas/TrackPointExtension/v2" xsi:schemaLocation="http://www.topografix.com/GPX/1/1 http://www.topografix.com/GPX/1/1/gpx.xsd http://www.garmin.com/xmlschemas/TrackPointExtension/v2 https://www8.garmin.com/xmlschemas/TrackPointExtensionv2.xsd "><metadata><time>2025-12-28T22:05:03.000Z</time></metadata><trk><name>20251228</name><trkseg><trkpt lat="24.0539515" lon="-109.98908983333334"><ele>9.1</ele><time>2025-12-28T22:05:03.000Z</time><extensions><gpxtpx:TrackPointExtension><gpxtpx:speed>0.029339166</gpxtpx:speed></gpxtpx:TrackPointExtension></extensions><geoidheight>-32.4</geoidheight><src>gps</src><sat>4</sat><hdop>1.45</hdop><vdop>2.40</vdop><pdop>2.81</pdop></trkpt>
<trkpt lat="24.054027333333337" lon="-109.98906316666668"><ele>13.6</ele><time>2025-12-28T22:05:24.000Z</time><extensions><gpxtpx:TrackPointExtension><gpxtpx:speed>0.1271364</gpxtpx:speed></gpxtpx:TrackPointExtension></extensions><geoidheight>-32.4</geoidheight><src>gps</src><sat>8</sat><hdop>1.25</hdop><vdop>1.86</vdop><pdop>2.23</pdop></trkpt>
<trkpt lat="24.054001666666668" lon="-109.98910599999999"><ele>16.2</ele><time>2025-12-28T22:07:14.000Z</time><extensions><gpxtpx:TrackPointExtension><gpxtpx:speed>0.061251946</gpxtpx:speed></gpxtpx:TrackPointExtension></extensions><geoidheight>-32.4</geoidheight><src>gps</src><sat>16</sat><hdop>0.78</hdop><vdop>1.10</vdop><pdop>1.34</pdop><dgpsid>0000</dgpsid></trkpt>
<trkpt lat="24.054028499999998" lon="-109.98915116666667"><ele>14.2</ele><time>2025-12-28T22:10:54.000Z</time><extensions><gpxtpx:TrackPointExtension><gpxtpx:speed>0.02985389</gpxtpx:speed></gpxtpx:TrackPointExtension></extensions><geoidheight>-32.4</geoidheight><src>gps</src><sat>18</sat><hdop>0.56</hdop><vdop>0.78</vdop><pdop>0.96</pdop><dgpsid>0000</dgpsid></trkpt>
<trkpt lat="24.054051833333332" lon="-109.98919749999999"><ele>20.9</ele><time>2025-12-28T22:13:17.000Z</time><extensions><gpxtpx:TrackPointExtension><gpxtpx:speed>0.0020588888</gpxtpx:speed></gpxtpx:TrackPointExtension></extensions><geoidheight>-32.4</geoidheight><src>gps</src><sat>18</sat><hdop>0.65</hdop><vdop>0.90</vdop><pdop>1.11</pdop><dgpsid>0000</dgpsid></trkpt>
<trkpt lat="24.054027833333333" lon="-109.98915283333332"><ele>14.9</ele><time>2025-12-28T22:14:34.000Z</time><extensions><gpxtpx:TrackPointExtension><gpxtpx:speed>0.029339166</gpxtpx:speed></gpxtpx:TrackPointExtension></extensions><geoidheight>-32.4</geoidheight><src>gps</src><sat>18</sat><hdop>0.58</hdop><vdop>0.79</vdop><pdop>0.98</pdop><dgpsid>0000</dgpsid></trkpt>
<trkpt lat="24.053984833333335" lon="-109.98910666666667"><ele>30.6</ele><time>2025-12-28T23:32:32.000Z</time><extensions><gpxtpx:TrackPointExtension><gpxtpx:speed>0.019044721</gpxtpx:speed></gpxtpx:TrackPointExtension></extensions><geoidheight>-32.4</geoidheight><src>gps</src><sat>6</sat><hdop>1.37</hdop><vdop>2.17</vdop><pdop>2.57</pdop></trkpt>
<trkpt lat="24.054016166666663" lon="-109.98914883333333"><ele>28.7</ele><time>2025-12-28T23:36:01.000Z</time><extensions><gpxtpx:TrackPointExtension><gpxtpx:speed>0.0416925</gpxtpx:speed></gpxtpx:TrackPointExtension></extensions><geoidheight>-32.4</geoidheight><src>gps</src><sat>14</sat><hdop>0.70</hdop><vdop>0.96</vdop><pdop>1.19</pdop><dgpsid>0000</dgpsid></trkpt>
<trkpt lat="24.054037333333333" lon="-109.98919716666666"><ele>30.1</ele><time>2025-12-28T23:37:29.000Z</time><extensions><gpxtpx:TrackPointExtension><gpxtpx:speed>0.009265</gpxtpx:speed></gpxtpx:TrackPointExtension></extensions><geoidheight>-32.4</geoidheight><src>gps</src><sat>14</sat><hdop>0.75</hdop><vdop>0.95</vdop><pdop>1.21</pdop><dgpsid>0000</dgpsid></trkpt>
<trkpt lat="24.053993999999996" lon="-109.98916666666668"><ele>31.4</ele><time>2025-12-28T23:40:36.000Z</time><extensions><gpxtpx:TrackPointExtension><gpxtpx:speed>0.0231625</gpxtpx:speed></gpxtpx:TrackPointExtension></extensions><geoidheight>-32.4</geoidheight><src>gps</src><sat>16</sat><hdop>0.67</hdop><vdop>1.02</vdop><pdop>1.22</pdop><dgpsid>0000</dgpsid></trkpt>
<trkpt lat="24.053980166666665" lon="-109.98911933333332"><ele>21.5</ele><time>2025-12-28T23:42:15.000Z</time><extensions><gpxtpx:TrackPointExtension><gpxtpx:speed>0.013382778</gpxtpx:speed></gpxtpx:TrackPointExtension></extensions><geoidheight>-32.4</geoidheight><src>gps</src><sat>16</sat><hdop>0.75</hdop><vdop>1.20</vdop><pdop>1.41</pdop><dgpsid>0000</dgpsid></trkpt>
<trkpt lat="24.053989333333334" lon="-109.98917250000001"><ele>12.3</ele><time>2025-12-28T23:44:27.000Z</time><extensions><gpxtpx:TrackPointExtension><gpxtpx:speed>0.007206111</gpxtpx:speed></gpxtpx:TrackPointExtension></extensions><geoidheight>-32.4</geoidheight><src>gps</src><sat>16</sat><hdop>0.66</hdop><vdop>0.96</vdop><pdop>1.17</pdop><dgpsid>0000</dgpsid></trkpt>
<trkpt lat="24.053993166666668" lon="-109.98911266666667"><ele>8.3</ele><time>2025-12-28T23:47:34.000Z</time><extensions><gpxtpx:TrackPointExtension><gpxtpx:speed>0.0602225</gpxtpx:speed></gpxtpx:TrackPointExtension></extensions><geoidheight>-32.4</geoidheight><src>gps</src><sat>16</sat><hdop>0.69</hdop><vdop>1.05</vdop><pdop>1.26</pdop><dgpsid>0000</dgpsid></trkpt>
<trkpt lat="24.053992" lon="-109.98917099999998"><ele>13.4</ele><time>2025-12-28T23:50:19.000Z</time><extensions><gpxtpx:TrackPointExtension><gpxtpx:speed>0.023677222</gpxtpx:speed></gpxtpx:TrackPointExtension></extensions><geoidheight>-32.4</geoidheight><src>gps</src><sat>16</sat><hdop>0.64</hdop><vdop>0.91</vdop><pdop>1.11</pdop><dgpsid>0000</dgpsid></trkpt>
<trkpt lat="24.053983666666667" lon="-109.98912116666666"><ele>10.9</ele><time>2025-12-28T23:51:36.000Z</time><extensions><gpxtpx:TrackPointExtension><gpxtpx:speed>0.012353334</gpxtpx:speed></gpxtpx:TrackPointExtension></extensions><geoidheight>-32.4</geoidheight><src>gps</src><sat>16</sat><hdop>0.67</hdop><vdop>0.91</vdop><pdop>1.13</pdop><dgpsid>0000</dgpsid></trkpt>
<trkpt lat="24.05398566666667" lon="-109.989178"><ele>8.8</ele><time>2025-12-28T23:54:54.000Z</time><extensions><gpxtpx:TrackPointExtension><gpxtpx:speed>0.040148333</gpxtpx:speed></gpxtpx:TrackPointExtension></extensions><geoidheight>-32.4</geoidheight><src>gps</src><sat>16</sat><hdop>0.69</hdop><vdop>0.89</vdop><pdop>1.13</pdop><dgpsid>0000</dgpsid></trkpt>
<trkpt lat="24.053941666666667" lon="-109.98915933333335"><ele>22.1</ele><time>2025-12-28T23:56:55.000Z</time><extensions><gpxtpx:TrackPointExtension><gpxtpx:speed>0.026765555</gpxtpx:speed></gpxtpx:TrackPointExtension></extensions><geoidheight>-32.4</geoidheight><src>gps</src><sat>16</sat><hdop>0.65</hdop><vdop>0.85</vdop><pdop>1.07</pdop><dgpsid>0000</dgpsid></trkpt>
</trkseg></trk></gpx>