<?xml version="1.0" encoding="UTF-8" ?><gpx version="1.1" creator="GPSLogger 135 - http://gpslogger.mendhak.com/" xmlns:xsi="http://www.w3.org/2001/XMLSchema-instance" xmlns="http://www.topografix.com/GPX/1/1" xmlns:gpxtpx="http://www.garmin.com/xmlschemas/TrackPointExtension/v2" xsi:schemaLocation="http://www.topografix.com/GPX/1/1 http://www.topografix.com/GPX/1/1/gpx.xsd http://www.garmin.com/xmlschemas/TrackPointExtension/v2 https://www8.garmin.com/xmlschemas/TrackPointExtensionv2.xsd "><metadata><time>2026-07-31T19:21:42.000Z</time></metadata><trk><name>20260731</name><trkseg><trkpt lat="45.69869533333334" lon="-121.53186966666665"><ele>170.2</ele><time>2026-07-31T19:21:42.000Z</time><extensions><gpxtpx:TrackPointExtension><gpxtpx:speed>0.036030557</gpxtpx:speed></gpxtpx:TrackPointExtension></extensions><geoidheight>-20.1</geoidheight><src>gps</src><sat>3</sat><hdop>2.06</hdop><vdop>2.13</vdop><pdop>2.96</pdop></trkpt>
<trkpt lat="45.69874166666667" lon="-121.5318405"><ele>168.7</ele><time>2026-07-31T19:22:59.000Z</time><extensions><gpxtpx:TrackPointExtension><gpxtpx:speed>0.008750278</gpxtpx:speed></gpxtpx:TrackPointExtension></extensions><geoidheight>-20.1</geoidheight><src>gps</src><sat>14</sat><hdop>0.62</hdop><vdop>0.93</vdop><pdop>1.12</pdop></trkpt>
<trkpt lat="45.69878816666666" lon="-121.53183733333331"><ele>170.8</ele><time>2026-07-31T19:24:05.000Z</time><extensions><gpxtpx:TrackPointExtension><gpxtpx:speed>0.05764889</gpxtpx:speed></gpxtpx:TrackPointExtension></extensions><geoidheight>-20.1</geoidheight><src>gps</src><sat>16</sat><hdop>0.76</hdop><vdop>0.94</vdop><pdop>1.21</pdop><dgpsid>0000</dgpsid></trkpt>
</trkseg></trk></gpx>