<?xml version="1.0" encoding="UTF-8" ?><gpx version="1.1" creator="GPSLogger 135 - http://gpslogger.mendhak.com/" xmlns:xsi="http://www.w3.org/2001/XMLSchema-instance" xmlns="http://www.topografix.com/GPX/1/1" xmlns:gpxtpx="http://www.garmin.com/xmlschemas/TrackPointExtension/v2" xsi:schemaLocation="http://www.topografix.com/GPX/1/1 http://www.topografix.com/GPX/1/1/gpx.xsd http://www.garmin.com/xmlschemas/TrackPointExtension/v2 https://www8.garmin.com/xmlschemas/TrackPointExtensionv2.xsd "><metadata><time>2026-08-13T21:14:41.000Z</time></metadata><trk><name>20260813</name><trkseg><trkpt lat="45.69871916666666" lon="-121.53177933333333"><time>2026-08-13T21:14:41.000Z</time><extensions><gpxtpx:TrackPointExtension><gpxtpx:speed>0.07103167</gpxtpx:speed></gpxtpx:TrackPointExtension></extensions><src>gps</src><hdop>1.74</hdop><vdop>1.00</vdop><pdop>2.01</pdop></trkpt>
<trkpt lat="45.698767" lon="-121.53178966666668"><ele>182.1</ele><time>2026-08-13T21:15:58.000Z</time><extensions><gpxtpx:TrackPointExtension><gpxtpx:speed>0.012353334</gpxtpx:speed></gpxtpx:TrackPointExtension></extensions><geoidheight>-20.1</geoidheight><src>gps</src><sat>13</sat><hdop>0.77</hdop><vdop>1.08</vdop><pdop>1.33</pdop></trkpt>
<trkpt lat="45.69879916666667" lon="-121.53184133333335"><ele>181.7</ele><time>2026-08-13T21:18:10.000Z</time><extensions><gpxtpx:TrackPointExtension><gpxtpx:speed>0.038604166</gpxtpx:speed></gpxtpx:TrackPointExtension></extensions><geoidheight>-20.1</geoidheight><src>gps</src><sat>16</sat><hdop>0.58</hdop><vdop>0.93</vdop><pdop>1.09</pdop><dgpsid>0000</dgpsid></trkpt>
</trkseg></trk></gpx>