<?xml version="1.0" encoding="UTF-8" ?><gpx version="1.1" creator="GPSLogger 135 - http://gpslogger.mendhak.com/" xmlns:xsi="http://www.w3.org/2001/XMLSchema-instance" xmlns="http://www.topografix.com/GPX/1/1" xmlns:gpxtpx="http://www.garmin.com/xmlschemas/TrackPointExtension/v2" xsi:schemaLocation="http://www.topografix.com/GPX/1/1 http://www.topografix.com/GPX/1/1/gpx.xsd http://www.garmin.com/xmlschemas/TrackPointExtension/v2 https://www8.garmin.com/xmlschemas/TrackPointExtensionv2.xsd "><metadata><time>2026-01-03T18:30:03.000Z</time></metadata><trk><name>20260103</name><trkseg><trkpt lat="24.05401" lon="-109.98918383333333"><ele>26.7</ele><time>2026-01-03T18:30:03.000Z</time><extensions><gpxtpx:TrackPointExtension><gpxtpx:speed>0.27897945</gpxtpx:speed></gpxtpx:TrackPointExtension></extensions><geoidheight>-32.4</geoidheight><src>gps</src><sat>7</sat><hdop>1.59</hdop><vdop>2.80</vdop><pdop>3.22</pdop></trkpt>
<trkpt lat="24.054026833333335" lon="-109.98913149999998"><ele>11.5</ele><time>2026-01-03T18:31:19.000Z</time><extensions><gpxtpx:TrackPointExtension><gpxtpx:speed>0.058678333</gpxtpx:speed></gpxtpx:TrackPointExtension></extensions><geoidheight>-32.4</geoidheight><src>gps</src><sat>11</sat><hdop>0.99</hdop><vdop>1.26</vdop><pdop>1.60</pdop><dgpsid>0000</dgpsid></trkpt>
<trkpt lat="24.054043666666665" lon="-109.98919983333332"><ele>11.2</ele><time>2026-01-03T18:34:04.000Z</time><extensions><gpxtpx:TrackPointExtension><gpxtpx:speed>0.038089443</gpxtpx:speed></gpxtpx:TrackPointExtension></extensions><geoidheight>-32.4</geoidheight><src>gps</src><sat>15</sat><hdop>0.72</hdop><vdop>0.94</vdop><pdop>1.18</pdop><dgpsid>0000</dgpsid></trkpt>
<trkpt lat="24.054086666666663" lon="-109.98918433333334"><ele>12.2</ele><time>2026-01-03T18:35:21.000Z</time><extensions><gpxtpx:TrackPointExtension><gpxtpx:speed>0.033971667</gpxtpx:speed></gpxtpx:TrackPointExtension></extensions><geoidheight>-32.4</geoidheight><src>gps</src><sat>17</sat><hdop>0.65</hdop><vdop>0.94</vdop><pdop>1.14</pdop><dgpsid>0000</dgpsid></trkpt>
<trkpt lat="24.054074" lon="-109.98913499999999"><ele>6.6</ele><time>2026-01-03T18:39:12.000Z</time><extensions><gpxtpx:TrackPointExtension><gpxtpx:speed>0.014926945</gpxtpx:speed></gpxtpx:TrackPointExtension></extensions><geoidheight>-32.4</geoidheight><src>gps</src><sat>17</sat><hdop>0.58</hdop><vdop>1.00</vdop><pdop>1.16</pdop><dgpsid>0000</dgpsid></trkpt>
<trkpt lat="24.054043833333335" lon="-109.98917333333333"><ele>11.3</ele><time>2026-01-03T18:41:02.000Z</time><extensions><gpxtpx:TrackPointExtension><gpxtpx:speed>0.008235555</gpxtpx:speed></gpxtpx:TrackPointExtension></extensions><geoidheight>-32.4</geoidheight><src>gps</src><sat>17</sat><hdop>0.57</hdop><vdop>0.99</vdop><pdop>1.14</pdop><dgpsid>0000</dgpsid></trkpt>
<trkpt lat="24.054021499999998" lon="-109.98912883333333"><ele>-5.4</ele><time>2026-01-03T18:45:59.000Z</time><extensions><gpxtpx:TrackPointExtension><gpxtpx:speed>0.007206111</gpxtpx:speed></gpxtpx:TrackPointExtension></extensions><geoidheight>-32.4</geoidheight><src>gps</src><sat>17</sat><hdop>0.59</hdop><vdop>0.97</vdop><pdop>1.14</pdop><dgpsid>0000</dgpsid></trkpt>
<trkpt lat="24.053999999999995" lon="-109.98917916666666"><ele>-3.8</ele><time>2026-01-03T18:47:05.000Z</time><extensions><gpxtpx:TrackPointExtension><gpxtpx:speed>0.014926945</gpxtpx:speed></gpxtpx:TrackPointExtension></extensions><geoidheight>-32.4</geoidheight><src>gps</src><sat>17</sat><hdop>0.59</hdop><vdop>0.97</vdop><pdop>1.14</pdop><dgpsid>0000</dgpsid></trkpt>
<trkpt lat="24.054048833333333" lon="-109.98916083333333"><ele>-3.6</ele><time>2026-01-03T18:49:50.000Z</time><extensions><gpxtpx:TrackPointExtension><gpxtpx:speed>0.009779722</gpxtpx:speed></gpxtpx:TrackPointExtension></extensions><geoidheight>-32.4</geoidheight><src>gps</src><sat>17</sat><hdop>0.55</hdop><vdop>0.95</vdop><pdop>1.10</pdop><dgpsid>0000</dgpsid></trkpt>
<trkpt lat="24.054087166666665" lon="-109.98913116666667"><ele>-5.8</ele><time>2026-01-03T19:00:39.000Z</time><extensions><gpxtpx:TrackPointExtension><gpxtpx:speed>0.0138975</gpxtpx:speed></gpxtpx:TrackPointExtension></extensions><geoidheight>-32.4</geoidheight><src>gps</src><sat>17</sat><hdop>0.61</hdop><vdop>1.01</vdop><pdop>1.18</pdop><dgpsid>0000</dgpsid></trkpt>
<trkpt lat="24.054040166666663" lon="-109.98914966666668"><ele>0.4</ele><time>2026-01-03T19:03:02.000Z</time><extensions><gpxtpx:TrackPointExtension><gpxtpx:speed>0.013382778</gpxtpx:speed></gpxtpx:TrackPointExtension></extensions><geoidheight>-32.4</geoidheight><src>gps</src><sat>17</sat><hdop>0.55</hdop><vdop>0.92</vdop><pdop>1.08</pdop><dgpsid>0000</dgpsid></trkpt>
<trkpt lat="24.054004833333337" lon="-109.9891905"><ele>4.7</ele><time>2026-01-03T19:04:19.000Z</time><extensions><gpxtpx:TrackPointExtension><gpxtpx:speed>0.006176667</gpxtpx:speed></gpxtpx:TrackPointExtension></extensions><geoidheight>-32.4</geoidheight><src>gps</src><sat>17</sat><hdop>0.53</hdop><vdop>0.90</vdop><pdop>1.05</pdop><dgpsid>0000</dgpsid></trkpt>
<trkpt lat="24.054012333333336" lon="-109.98913900000001"><ele>6.0</ele><time>2026-01-03T19:06:20.000Z</time><extensions><gpxtpx:TrackPointExtension><gpxtpx:speed>0.010294445</gpxtpx:speed></gpxtpx:TrackPointExtension></extensions><geoidheight>-32.4</geoidheight><src>gps</src><sat>18</sat><hdop>0.53</hdop><vdop>0.87</vdop><pdop>1.02</pdop><dgpsid>0000</dgpsid></trkpt>
<trkpt lat="24.054061333333333" lon="-109.98912666666665"><ele>3.5</ele><time>2026-01-03T19:16:25.000Z</time><extensions><gpxtpx:TrackPointExtension><gpxtpx:speed>0.021618333</gpxtpx:speed></gpxtpx:TrackPointExtension></extensions><geoidheight>-32.4</geoidheight><src>gps</src><sat>17</sat><hdop>0.59</hdop><vdop>0.96</vdop><pdop>1.13</pdop><dgpsid>0000</dgpsid></trkpt>
<trkpt lat="24.054046333333336" lon="-109.98917683333333"><ele>8.3</ele><time>2026-01-03T19:20:38.000Z</time><extensions><gpxtpx:TrackPointExtension><gpxtpx:speed>0.020074166</gpxtpx:speed></gpxtpx:TrackPointExtension></extensions><geoidheight>-32.4</geoidheight><src>gps</src><sat>17</sat><hdop>0.56</hdop><vdop>0.96</vdop><pdop>1.12</pdop><dgpsid>0000</dgpsid></trkpt>
<trkpt lat="24.054010499999997" lon="-109.98920783333332"><ele>13.9</ele><time>2026-01-03T19:35:29.000Z</time><extensions><gpxtpx:TrackPointExtension><gpxtpx:speed>0.011838611</gpxtpx:speed></gpxtpx:TrackPointExtension></extensions><geoidheight>-32.4</geoidheight><src>gps</src><sat>18</sat><hdop>0.58</hdop><vdop>0.91</vdop><pdop>1.08</pdop><dgpsid>0000</dgpsid></trkpt>
<trkpt lat="24.054029500000002" lon="-109.98916033333334"><ele>8.9</ele><time>2026-01-03T19:49:14.000Z</time><extensions><gpxtpx:TrackPointExtension><gpxtpx:speed>0.010809166</gpxtpx:speed></gpxtpx:TrackPointExtension></extensions><geoidheight>-32.4</geoidheight><src>gps</src><sat>18</sat><hdop>0.61</hdop><vdop>1.05</vdop><pdop>1.22</pdop><dgpsid>0000</dgpsid></trkpt>
<trkpt lat="24.053983166666665" lon="-109.98917566666665"><ele>10.4</ele><time>2026-01-03T19:52:32.000Z</time><extensions><gpxtpx:TrackPointExtension><gpxtpx:speed>0.01647111</gpxtpx:speed></gpxtpx:TrackPointExtension></extensions><geoidheight>-32.4</geoidheight><src>gps</src><sat>18</sat><hdop>0.57</hdop><vdop>1.01</vdop><pdop>1.16</pdop><dgpsid>0000</dgpsid></trkpt>
</trkseg></trk></gpx>