<?xml version="1.0" encoding="UTF-8"?><kml xmlns="http://www.opengis.net/kml/2.2" xmlns:gx="http://www.google.com/kml/ext/2.2" xmlns:kml="http://www.opengis.net/kml/2.2" xmlns:atom="http://www.w3.org/2005/Atom"><Document><name>2026-09-18T00:05:56.000Z</name>
<Placemark>
<gx:Track>

<when>2026-09-18T00:05:56.000Z</when>
<gx:coord>-121.53181116666669 45.69868266666667 159.5</gx:coord>

<when>2026-09-18T00:15:53.000Z</when>
<gx:coord>-121.53179516666665 45.698728333333335 165.1</gx:coord>
</gx:Track>
</Placemark></Document></kml>
