<?xml version="1.0" encoding="UTF-8" ?><gpx version="1.1" creator="GPSLogger 135 - http://gpslogger.mendhak.com/" xmlns:xsi="http://www.w3.org/2001/XMLSchema-instance" xmlns="http://www.topografix.com/GPX/1/1" xmlns:gpxtpx="http://www.garmin.com/xmlschemas/TrackPointExtension/v2" xsi:schemaLocation="http://www.topografix.com/GPX/1/1 http://www.topografix.com/GPX/1/1/gpx.xsd http://www.garmin.com/xmlschemas/TrackPointExtension/v2 https://www8.garmin.com/xmlschemas/TrackPointExtensionv2.xsd "><metadata><time>2026-09-11T17:19:45.000Z</time></metadata><trk><name>20260911</name><trkseg><trkpt lat="45.698545333333335" lon="-121.53188583333333"><time>2026-09-11T17:19:45.000Z</time><extensions><gpxtpx:TrackPointExtension><gpxtpx:speed>0.04889861</gpxtpx:speed></gpxtpx:TrackPointExtension></extensions><src>gps</src><hdop>2.61</hdop><vdop>3.00</vdop><pdop>3.98</pdop></trkpt>
<trkpt lat="45.69843133333334" lon="-121.53195666666667"><ele>145.9</ele><time>2026-09-11T17:19:56.000Z</time><extensions><gpxtpx:TrackPointExtension><gpxtpx:bearing>209.67</gpxtpx:bearing><gpxtpx:speed>0.41332194</gpxtpx:speed></gpxtpx:TrackPointExtension></extensions><geoidheight>-20.1</geoidheight><src>gps</src><sat>6</sat><hdop>1.96</hdop><vdop>2.87</vdop><pdop>3.48</pdop></trkpt>
<trkpt lat="45.698613666666674" lon="-121.531929"><ele>160.6</ele><time>2026-09-11T17:20:07.000Z</time><extensions><gpxtpx:TrackPointExtension><gpxtpx:speed>0.06845806</gpxtpx:speed></gpxtpx:TrackPointExtension></extensions><geoidheight>-20.1</geoidheight><src>gps</src><sat>6</sat><hdop>1.46</hdop><vdop>1.64</vdop><pdop>2.20</pdop></trkpt>
</trkseg></trk></gpx>