<?xml version="1.0" encoding="UTF-8"?><kml xmlns="http://www.opengis.net/kml/2.2" xmlns:gx="http://www.google.com/kml/ext/2.2" xmlns:kml="http://www.opengis.net/kml/2.2" xmlns:atom="http://www.w3.org/2005/Atom"><Document><name>2026-08-28T23:13:32.000Z</name>
<Placemark>
<gx:Track>

<when>2026-08-28T23:13:32.000Z</when>
<gx:coord>-121.53172783333333 45.6988115 157.3</gx:coord>

<when>2026-08-28T23:13:54.000Z</when>
<gx:coord>-121.53178750000001 45.69878216666666 167.5</gx:coord>
</gx:Track>
</Placemark></Document></kml>
