<?xml version="1.0" encoding="UTF-8"?><kml xmlns="http://www.opengis.net/kml/2.2" xmlns:gx="http://www.google.com/kml/ext/2.2" xmlns:kml="http://www.opengis.net/kml/2.2" xmlns:atom="http://www.w3.org/2005/Atom"><Document><name>2026-08-31T16:55:02.000Z</name>
<Placemark>
<gx:Track>

<when>2026-08-31T16:55:02.000Z</when>
<gx:coord>-122.90293850000002 46.4811065 142.8</gx:coord>

<when>2026-08-31T16:59:48.000Z</when>
<gx:coord>-122.90299933333333 46.481086166666664 144.3</gx:coord>

<when>2026-08-31T17:01:05.000Z</when>
<gx:coord>-122.902943 46.48106216666667 147.8</gx:coord>

<when>2026-08-31T17:05:29.000Z</when>
<gx:coord>-122.902841 46.481063999999996 147.9</gx:coord>

<when>2026-08-31T17:05:40.000Z</when>
<gx:coord>-122.90264033333332 46.48114333333333 145.7</gx:coord>

<when>2026-08-31T17:05:50.000Z</when>
<gx:coord>-122.90264266666667 46.481303833333335 144.8</gx:coord>

<when>2026-08-31T17:06:02.000Z</when>
<gx:coord>-122.9028775 46.481396833333335 144.2</gx:coord>

<when>2026-08-31T17:06:13.000Z</when>
<gx:coord>-122.9029965 46.481412166666665 144.6</gx:coord>

<when>2026-08-31T17:07:19.000Z</when>
<gx:coord>-122.9030395 46.48135533333334 149.3</gx:coord>

<when>2026-08-31T17:07:52.000Z</when>
<gx:coord>-122.90294133333333 46.481461833333334 148.5</gx:coord>

<when>2026-08-31T17:08:03.000Z</when>
<gx:coord>-122.90289216666666 46.48156300000001 148.5</gx:coord>

<when>2026-08-31T17:08:14.000Z</when>
<gx:coord>-122.90285266666666 46.48161316666666 147.9</gx:coord>

<when>2026-08-31T17:24:44.000Z</when>
<gx:coord>-122.90282499999999 46.48161100000001 147.4</gx:coord>

<when>2026-08-31T17:40:58.000Z</when>
<gx:coord>-122.90290766666666 46.48152016666666 144.3</gx:coord>

<when>2026-08-31T17:41:09.000Z</when>
<gx:coord>-122.90297066666666 46.48137766666667 144.4</gx:coord>

<when>2026-08-31T17:41:20.000Z</when>
<gx:coord>-122.90308966666667 46.48120216666666 143.3</gx:coord>

<when>2026-08-31T17:41:31.000Z</when>
<gx:coord>-122.90320183333333 46.481046666666664 141.9</gx:coord>

<when>2026-08-31T17:41:53.000Z</when>
<gx:coord>-122.90323683333332 46.480998833333324 141.3</gx:coord>

<when>2026-08-31T17:42:04.000Z</when>
<gx:coord>-122.90311683333333 46.480885333333326 141.6</gx:coord>

<when>2026-08-31T17:42:15.000Z</when>
<gx:coord>-122.90251716666668 46.48072950000001 142.1</gx:coord>

<when>2026-08-31T17:42:26.000Z</when>
<gx:coord>-122.90111550000002 46.48035433333333 138.6</gx:coord>

<when>2026-08-31T17:42:37.000Z</when>
<gx:coord>-122.89916216666667 46.479817999999995 137.3</gx:coord>

<when>2026-08-31T17:42:48.000Z</when>
<gx:coord>-122.89691133333332 46.47920066666667 140.8</gx:coord>

<when>2026-08-31T17:42:59.000Z</when>
<gx:coord>-122.894685 46.47860266666667 143.6</gx:coord>

<when>2026-08-31T17:43:10.000Z</when>
<gx:coord>-122.89252983333333 46.47803366666667 148.6</gx:coord>

<when>2026-08-31T17:43:21.000Z</when>
<gx:coord>-122.89043799999999 46.47760033333334 145.3</gx:coord>

<when>2026-08-31T17:43:32.000Z</when>
<gx:coord>-122.88820666666668 46.476977000000005 135.2</gx:coord>

<when>2026-08-31T17:43:43.000Z</when>
<gx:coord>-122.886092 46.47640783333333 127.0</gx:coord>

<when>2026-08-31T17:43:54.000Z</when>
<gx:coord>-122.88471116666666 46.4759815 121.1</gx:coord>

<when>2026-08-31T17:44:05.000Z</when>
<gx:coord>-122.88459716666667 46.47517733333334 116.3</gx:coord>

<when>2026-08-31T17:44:16.000Z</when>
<gx:coord>-122.88431483333333 46.47363 104.8</gx:coord>

<when>2026-08-31T17:44:27.000Z</when>
<gx:coord>-122.88425950000001 46.47180466666667 97.8</gx:coord>

<when>2026-08-31T17:44:38.000Z</when>
<gx:coord>-122.88448949999999 46.469797333333325 94.4</gx:coord>

<when>2026-08-31T17:44:49.000Z</when>
<gx:coord>-122.88476333333334 46.467458666666666 93.7</gx:coord>

<when>2026-08-31T17:45:00.000Z</when>
<gx:coord>-122.88512033333333 46.46487316666666 93.4</gx:coord>

<when>2026-08-31T17:45:11.000Z</when>
<gx:coord>-122.88550383333335 46.46214583333334 91.3</gx:coord>

<when>2026-08-31T17:45:22.000Z</when>
<gx:coord>-122.88589483333332 46.45938266666667 89.8</gx:coord>

<when>2026-08-31T17:45:33.000Z</when>
<gx:coord>-122.88629883333333 46.45660483333333 88.4</gx:coord>

<when>2026-08-31T17:45:44.000Z</when>
<gx:coord>-122.88668766666666 46.45391800000001 87.6</gx:coord>

<when>2026-08-31T17:45:55.000Z</when>
<gx:coord>-122.88705350000001 46.4512745 86.6</gx:coord>

<when>2026-08-31T17:46:06.000Z</when>
<gx:coord>-122.88739616666665 46.448588666666666 82.2</gx:coord>

<when>2026-08-31T17:46:17.000Z</when>
<gx:coord>-122.88779833333335 46.44575383333334 72.0</gx:coord>

<when>2026-08-31T17:46:28.000Z</when>
<gx:coord>-122.888201 46.442984666666675 73.1</gx:coord>

<when>2026-08-31T17:46:39.000Z</when>
<gx:coord>-122.88858983333333 46.44025416666667 77.6</gx:coord>

<when>2026-08-31T17:46:50.000Z</when>
<gx:coord>-122.88897266666666 46.43757133333334 81.7</gx:coord>

<when>2026-08-31T17:47:01.000Z</when>
<gx:coord>-122.88935883333333 46.434813 81.2</gx:coord>

<when>2026-08-31T17:47:12.000Z</when>
<gx:coord>-122.88975933333334 46.431969333333335 74.1</gx:coord>

<when>2026-08-31T17:47:23.000Z</when>
<gx:coord>-122.89015050000002 46.4291595 65.3</gx:coord>

<when>2026-08-31T17:47:34.000Z</when>
<gx:coord>-122.89052416666667 46.426392333333325 56.4</gx:coord>

<when>2026-08-31T17:47:45.000Z</when>
<gx:coord>-122.8909115 46.4236435 46.8</gx:coord>

<when>2026-08-31T17:47:56.000Z</when>
<gx:coord>-122.89125 46.4208005 38.6</gx:coord>

<when>2026-08-31T17:48:07.000Z</when>
<gx:coord>-122.89100333333333 46.41797283333334 34.7</gx:coord>

<when>2026-08-31T17:48:18.000Z</when>
<gx:coord>-122.8904895 46.41516750000001 33.8</gx:coord>

<when>2026-08-31T17:48:29.000Z</when>
<gx:coord>-122.89000066666668 46.412521500000004 45.7</gx:coord>

<when>2026-08-31T17:48:40.000Z</when>
<gx:coord>-122.88959983333334 46.410005 51.1</gx:coord>

<when>2026-08-31T17:48:51.000Z</when>
<gx:coord>-122.89010933333333 46.40751916666667 53.4</gx:coord>

<when>2026-08-31T17:49:02.000Z</when>
<gx:coord>-122.8918465 46.40519833333333 52.0</gx:coord>

<when>2026-08-31T17:49:13.000Z</when>
<gx:coord>-122.89444049999999 46.40310266666667 52.2</gx:coord>

<when>2026-08-31T17:49:24.000Z</when>
<gx:coord>-122.89699833333334 46.40107716666667 51.3</gx:coord>

<when>2026-08-31T17:49:35.000Z</when>
<gx:coord>-122.89923683333333 46.39894533333333 52.2</gx:coord>

<when>2026-08-31T17:49:46.000Z</when>
<gx:coord>-122.90043033333335 46.39645516666666 52.9</gx:coord>

<when>2026-08-31T17:49:57.000Z</when>
<gx:coord>-122.9011235 46.393820166666664 52.2</gx:coord>

<when>2026-08-31T17:50:08.000Z</when>
<gx:coord>-122.90183633333332 46.391148333333334 51.5</gx:coord>

<when>2026-08-31T17:50:19.000Z</when>
<gx:coord>-122.90253650000001 46.38846266666666 51.1</gx:coord>

<when>2026-08-31T17:50:30.000Z</when>
<gx:coord>-122.90324749999999 46.38574633333333 51.6</gx:coord>

<when>2026-08-31T17:50:41.000Z</when>
<gx:coord>-122.90396883333332 46.382984333333326 51.5</gx:coord>

<when>2026-08-31T17:50:52.000Z</when>
<gx:coord>-122.90468833333334 46.380214666666674 53.4</gx:coord>

<when>2026-08-31T17:51:03.000Z</when>
<gx:coord>-122.90542699999999 46.37742483333333 52.0</gx:coord>

<when>2026-08-31T17:51:14.000Z</when>
<gx:coord>-122.90617016666666 46.374577 53.1</gx:coord>

<when>2026-08-31T17:51:25.000Z</when>
<gx:coord>-122.90694749999999 46.37177866666666 59.2</gx:coord>

<when>2026-08-31T17:51:36.000Z</when>
<gx:coord>-122.907659 46.36912316666667 72.4</gx:coord>

<when>2026-08-31T17:51:47.000Z</when>
<gx:coord>-122.90814716666667 46.36661983333333 84.5</gx:coord>

<when>2026-08-31T17:51:58.000Z</when>
<gx:coord>-122.90810683333332 46.364222500000004 89.7</gx:coord>

<when>2026-08-31T17:52:09.000Z</when>
<gx:coord>-122.90759683333333 46.36185083333333 93.9</gx:coord>

<when>2026-08-31T17:52:20.000Z</when>
<gx:coord>-122.90693683333332 46.35931833333334 96.4</gx:coord>

<when>2026-08-31T17:52:31.000Z</when>
<gx:coord>-122.90629383333335 46.356732166666674 103.0</gx:coord>

<when>2026-08-31T17:52:42.000Z</when>
<gx:coord>-122.90607566666668 46.354115666666665 108.3</gx:coord>

<when>2026-08-31T17:52:53.000Z</when>
<gx:coord>-122.90634183333334 46.351510000000005 108.3</gx:coord>

<when>2026-08-31T17:53:04.000Z</when>
<gx:coord>-122.90665849999999 46.34888816666667 102.2</gx:coord>

<when>2026-08-31T17:53:15.000Z</when>
<gx:coord>-122.906964 46.34622733333334 94.4</gx:coord>

<when>2026-08-31T17:53:26.000Z</when>
<gx:coord>-122.9072555 46.34362916666667 87.8</gx:coord>

<when>2026-08-31T17:53:37.000Z</when>
<gx:coord>-122.90755333333333 46.341043166666665 81.9</gx:coord>

<when>2026-08-31T17:53:48.000Z</when>
<gx:coord>-122.90784566666667 46.33841916666667 76.6</gx:coord>

<when>2026-08-31T17:53:59.000Z</when>
<gx:coord>-122.90816816666666 46.33572533333333 68.5</gx:coord>

<when>2026-08-31T17:54:10.000Z</when>
<gx:coord>-122.90849316666666 46.332909666666666 61.2</gx:coord>

<when>2026-08-31T17:54:21.000Z</when>
<gx:coord>-122.90901133333334 46.330037999999995 50.4</gx:coord>

<when>2026-08-31T17:54:32.000Z</when>
<gx:coord>-122.91056099999999 46.32728399999999 39.7</gx:coord>

<when>2026-08-31T17:54:43.000Z</when>
<gx:coord>-122.912438 46.3246245 30.2</gx:coord>

<when>2026-08-31T17:54:54.000Z</when>
<gx:coord>-122.91410883333334 46.32190083333333 26.0</gx:coord>

<when>2026-08-31T17:55:05.000Z</when>
<gx:coord>-122.9150385 46.319039999999994 25.3</gx:coord>

<when>2026-08-31T17:55:16.000Z</when>
<gx:coord>-122.91520283333332 46.31611833333333 26.2</gx:coord>

<when>2026-08-31T17:55:27.000Z</when>
<gx:coord>-122.91464316666666 46.31323616666667 25.8</gx:coord>

<when>2026-08-31T17:55:38.000Z</when>
<gx:coord>-122.91393783333334 46.31039066666667 26.5</gx:coord>

<when>2026-08-31T17:55:49.000Z</when>
<gx:coord>-122.91326150000002 46.307606333333325 26.1</gx:coord>

<when>2026-08-31T17:56:00.000Z</when>
<gx:coord>-122.912589 46.30489266666667 27.8</gx:coord>

<when>2026-08-31T17:56:11.000Z</when>
<gx:coord>-122.91187133333332 46.302173833333335 27.6</gx:coord>

<when>2026-08-31T17:56:22.000Z</when>
<gx:coord>-122.910829 46.299395000000004 26.2</gx:coord>

<when>2026-08-31T17:56:33.000Z</when>
<gx:coord>-122.90948683333333 46.29663133333334 22.2</gx:coord>

<when>2026-08-31T17:56:44.000Z</when>
<gx:coord>-122.90812183333334 46.293915500000004 19.9</gx:coord>

<when>2026-08-31T17:56:55.000Z</when>
<gx:coord>-122.90677099999999 46.29124233333334 18.6</gx:coord>

<when>2026-08-31T17:57:06.000Z</when>
<gx:coord>-122.90533216666667 46.28857616666666 16.7</gx:coord>

<when>2026-08-31T17:57:17.000Z</when>
<gx:coord>-122.90381633333332 46.28593283333333 24.9</gx:coord>

<when>2026-08-31T17:57:28.000Z</when>
<gx:coord>-122.90237499999999 46.28341716666667 34.3</gx:coord>

<when>2026-08-31T17:57:39.000Z</when>
<gx:coord>-122.90095500000001 46.2809555 39.1</gx:coord>

<when>2026-08-31T17:57:50.000Z</when>
<gx:coord>-122.899467 46.27845033333333 32.4</gx:coord>

<when>2026-08-31T17:58:01.000Z</when>
<gx:coord>-122.89800766666667 46.27590466666667 23.4</gx:coord>

<when>2026-08-31T17:58:12.000Z</when>
<gx:coord>-122.89658933333334 46.27331933333333 19.3</gx:coord>

<when>2026-08-31T17:58:23.000Z</when>
<gx:coord>-122.89518116666667 46.270868 24.5</gx:coord>

<when>2026-08-31T17:58:34.000Z</when>
<gx:coord>-122.89378733333334 46.268536 32.7</gx:coord>

<when>2026-08-31T17:58:45.000Z</when>
<gx:coord>-122.89223333333332 46.266274 42.3</gx:coord>

<when>2026-08-31T17:58:56.000Z</when>
<gx:coord>-122.89058116666665 46.26395283333333 42.2</gx:coord>

<when>2026-08-31T17:59:07.000Z</when>
<gx:coord>-122.88888633333333 46.261569666666674 34.7</gx:coord>

<when>2026-08-31T17:59:18.000Z</when>
<gx:coord>-122.88722000000001 46.25921533333334 25.3</gx:coord>

<when>2026-08-31T17:59:29.000Z</when>
<gx:coord>-122.88552466666667 46.256834833333336 18.6</gx:coord>

<when>2026-08-31T17:59:40.000Z</when>
<gx:coord>-122.88426366666666 46.254106666666665 16.7</gx:coord>

<when>2026-08-31T17:59:51.000Z</when>
<gx:coord>-122.88447550000001 46.25117316666667 24.4</gx:coord>

<when>2026-08-31T18:00:02.000Z</when>
<gx:coord>-122.88502466666665 46.24847116666667 37.9</gx:coord>

<when>2026-08-31T18:00:13.000Z</when>
<gx:coord>-122.88557616666667 46.245809333333334 42.2</gx:coord>

<when>2026-08-31T18:00:24.000Z</when>
<gx:coord>-122.8861755 46.24290416666666 37.0</gx:coord>

<when>2026-08-31T18:00:35.000Z</when>
<gx:coord>-122.88678566666667 46.23989633333334 29.3</gx:coord>

<when>2026-08-31T18:00:46.000Z</when>
<gx:coord>-122.88739883333334 46.23689316666667 28.1</gx:coord>

<when>2026-08-31T18:00:57.000Z</when>
<gx:coord>-122.88801933333335 46.23391816666667 32.0</gx:coord>

<when>2026-08-31T18:01:08.000Z</when>
<gx:coord>-122.88864883333332 46.23093000000001 33.7</gx:coord>

<when>2026-08-31T18:01:19.000Z</when>
<gx:coord>-122.88925249999998 46.227954 28.0</gx:coord>

<when>2026-08-31T18:01:30.000Z</when>
<gx:coord>-122.88982466666667 46.2251195 20.6</gx:coord>

<when>2026-08-31T18:01:41.000Z</when>
<gx:coord>-122.89039766666669 46.22225216666667 22.7</gx:coord>

<when>2026-08-31T18:01:52.000Z</when>
<gx:coord>-122.89098600000001 46.21937366666666 21.2</gx:coord>

<when>2026-08-31T18:02:03.000Z</when>
<gx:coord>-122.89158433333333 46.216511000000004 19.8</gx:coord>

<when>2026-08-31T18:02:14.000Z</when>
<gx:coord>-122.89209816666668 46.2137115 23.4</gx:coord>

<when>2026-08-31T18:02:25.000Z</when>
<gx:coord>-122.89230466666667 46.21090933333333 26.2</gx:coord>

<when>2026-08-31T18:02:36.000Z</when>
<gx:coord>-122.892436 46.20804166666667 28.2</gx:coord>

<when>2026-08-31T18:02:47.000Z</when>
<gx:coord>-122.89257216666668 46.205117 30.5</gx:coord>

<when>2026-08-31T18:02:58.000Z</when>
<gx:coord>-122.89271316666667 46.202266666666674 28.1</gx:coord>

<when>2026-08-31T18:03:09.000Z</when>
<gx:coord>-122.89287083333332 46.1995595 22.1</gx:coord>

<when>2026-08-31T18:03:20.000Z</when>
<gx:coord>-122.89355383333334 46.196818 16.9</gx:coord>

<when>2026-08-31T18:03:31.000Z</when>
<gx:coord>-122.89454099999999 46.1939815 17.4</gx:coord>

<when>2026-08-31T18:03:42.000Z</when>
<gx:coord>-122.89551349999998 46.19113966666667 23.4</gx:coord>

<when>2026-08-31T18:03:53.000Z</when>
<gx:coord>-122.89650966666667 46.1882625 24.3</gx:coord>

<when>2026-08-31T18:04:04.000Z</when>
<gx:coord>-122.897507 46.18539583333333 22.5</gx:coord>

<when>2026-08-31T18:04:15.000Z</when>
<gx:coord>-122.89857266666668 46.18250866666667 18.6</gx:coord>

<when>2026-08-31T18:04:26.000Z</when>
<gx:coord>-122.90028816666667 46.17984133333333 16.6</gx:coord>

<when>2026-08-31T18:04:37.000Z</when>
<gx:coord>-122.90201700000001 46.17737283333333 26.9</gx:coord>

<when>2026-08-31T18:04:48.000Z</when>
<gx:coord>-122.90364816666667 46.175031000000004 38.4</gx:coord>

<when>2026-08-31T18:04:59.000Z</when>
<gx:coord>-122.90479916666666 46.1726695 45.7</gx:coord>

<when>2026-08-31T18:05:10.000Z</when>
<gx:coord>-122.90487766666665 46.17002366666667 42.9</gx:coord>

<when>2026-08-31T18:05:21.000Z</when>
<gx:coord>-122.90436566666668 46.16709866666667 27.1</gx:coord>

<when>2026-08-31T18:05:32.000Z</when>
<gx:coord>-122.90382133333333 46.1640785 15.0</gx:coord>

<when>2026-08-31T18:05:43.000Z</when>
<gx:coord>-122.90331416666668 46.16120883333333 14.7</gx:coord>

<when>2026-08-31T18:05:54.000Z</when>
<gx:coord>-122.90278116666666 46.15840549999999 18.9</gx:coord>

<when>2026-08-31T18:06:05.000Z</when>
<gx:coord>-122.90217200000001 46.15563166666667 27.0</gx:coord>

<when>2026-08-31T18:06:16.000Z</when>
<gx:coord>-122.9015325 46.152905 32.8</gx:coord>

<when>2026-08-31T18:06:27.000Z</when>
<gx:coord>-122.9005255 46.1501505 28.9</gx:coord>

<when>2026-08-31T18:06:38.000Z</when>
<gx:coord>-122.89913399999999 46.1474505 21.0</gx:coord>

<when>2026-08-31T18:06:49.000Z</when>
<gx:coord>-122.89788933333332 46.14475000000001 12.8</gx:coord>

<when>2026-08-31T18:07:00.000Z</when>
<gx:coord>-122.89776683333334 46.14207016666666 10.7</gx:coord>

<when>2026-08-31T18:07:11.000Z</when>
<gx:coord>-122.898091 46.13939833333334 10.7</gx:coord>

<when>2026-08-31T18:07:22.000Z</when>
<gx:coord>-122.89841516666665 46.13669066666667 11.6</gx:coord>

<when>2026-08-31T18:07:33.000Z</when>
<gx:coord>-122.89873883333333 46.133918333333334 10.3</gx:coord>

<when>2026-08-31T18:07:44.000Z</when>
<gx:coord>-122.89906799999999 46.131153833333336 8.1</gx:coord>

<when>2026-08-31T18:07:55.000Z</when>
<gx:coord>-122.89826783333335 46.12836949999999 9.0</gx:coord>

<when>2026-08-31T18:08:06.000Z</when>
<gx:coord>-122.89563083333333 46.12616800000001 7.6</gx:coord>

<when>2026-08-31T18:08:17.000Z</when>
<gx:coord>-122.89212350000001 46.1245895 10.9</gx:coord>

<when>2026-08-31T18:08:28.000Z</when>
<gx:coord>-122.88954716666667 46.12234483333334 9.4</gx:coord>

<when>2026-08-31T18:08:39.000Z</when>
<gx:coord>-122.88784966666665 46.119696999999995 11.5</gx:coord>

<when>2026-08-31T18:08:50.000Z</when>
<gx:coord>-122.88618783333335 46.117093000000004 13.2</gx:coord>

<when>2026-08-31T18:09:01.000Z</when>
<gx:coord>-122.88449766666666 46.11446116666666 12.0</gx:coord>

<when>2026-08-31T18:09:12.000Z</when>
<gx:coord>-122.88269999999999 46.11185933333333 9.7</gx:coord>

<when>2026-08-31T18:09:23.000Z</when>
<gx:coord>-122.88081666666668 46.10925333333333 8.1</gx:coord>

<when>2026-08-31T18:09:34.000Z</when>
<gx:coord>-122.87918833333333 46.106539833333336 7.9</gx:coord>

<when>2026-08-31T18:09:45.000Z</when>
<gx:coord>-122.87761483333334 46.1038445 8.3</gx:coord>

<when>2026-08-31T18:09:56.000Z</when>
<gx:coord>-122.8761055 46.10116033333334 7.1</gx:coord>

<when>2026-08-31T18:10:07.000Z</when>
<gx:coord>-122.87466433333333 46.09852083333333 6.0</gx:coord>

<when>2026-08-31T18:10:18.000Z</when>
<gx:coord>-122.87327699999999 46.09591650000001 4.0</gx:coord>

<when>2026-08-31T18:10:29.000Z</when>
<gx:coord>-122.87199033333333 46.093289999999996 1.8</gx:coord>

<when>2026-08-31T18:10:40.000Z</when>
<gx:coord>-122.87066699999998 46.09058666666667 0.8</gx:coord>

<when>2026-08-31T18:10:51.000Z</when>
<gx:coord>-122.86946950000001 46.087758666666666 2.4</gx:coord>

<when>2026-08-31T18:11:02.000Z</when>
<gx:coord>-122.86838616666667 46.08498783333333 4.4</gx:coord>

<when>2026-08-31T18:11:13.000Z</when>
<gx:coord>-122.86733000000001 46.08225949999999 2.9</gx:coord>

<when>2026-08-31T18:11:24.000Z</when>
<gx:coord>-122.86677200000001 46.079490500000006 1.7</gx:coord>

<when>2026-08-31T18:11:35.000Z</when>
<gx:coord>-122.86694483333333 46.076665999999996 0.0</gx:coord>

<when>2026-08-31T18:11:46.000Z</when>
<gx:coord>-122.86758216666666 46.07384066666667 2.0</gx:coord>

<when>2026-08-31T18:11:57.000Z</when>
<gx:coord>-122.86820466666668 46.07104716666666 6.3</gx:coord>

<when>2026-08-31T18:12:08.000Z</when>
<gx:coord>-122.86838716666668 46.06820716666666 8.8</gx:coord>

<when>2026-08-31T18:12:19.000Z</when>
<gx:coord>-122.86795249999999 46.0653615 9.2</gx:coord>

<when>2026-08-31T18:12:30.000Z</when>
<gx:coord>-122.86745066666666 46.06251816666666 9.1</gx:coord>

<when>2026-08-31T18:12:41.000Z</when>
<gx:coord>-122.86646633333334 46.05975883333334 8.8</gx:coord>

<when>2026-08-31T18:12:52.000Z</when>
<gx:coord>-122.86487299999999 46.057089833333336 9.3</gx:coord>

<when>2026-08-31T18:13:03.000Z</when>
<gx:coord>-122.86369199999999 46.05434866666666 8.5</gx:coord>

<when>2026-08-31T18:13:14.000Z</when>
<gx:coord>-122.8628115 46.05159633333333 9.2</gx:coord>

<when>2026-08-31T18:13:25.000Z</when>
<gx:coord>-122.86192383333334 46.04888783333334 9.1</gx:coord>

<when>2026-08-31T18:13:36.000Z</when>
<gx:coord>-122.86100183333335 46.046156 9.3</gx:coord>

<when>2026-08-31T18:13:47.000Z</when>
<gx:coord>-122.86007483333333 46.04342283333334 8.9</gx:coord>

<when>2026-08-31T18:13:58.000Z</when>
<gx:coord>-122.85914116666666 46.040704166666664 10.4</gx:coord>

<when>2026-08-31T18:14:09.000Z</when>
<gx:coord>-122.85827650000002 46.038059000000004 9.2</gx:coord>

<when>2026-08-31T18:14:20.000Z</when>
<gx:coord>-122.85743150000002 46.03537783333333 9.9</gx:coord>

<when>2026-08-31T18:14:31.000Z</when>
<gx:coord>-122.85658933333335 46.032643166666666 6.6</gx:coord>

<when>2026-08-31T18:14:42.000Z</when>
<gx:coord>-122.85565399999999 46.02986816666667 7.8</gx:coord>

<when>2026-08-31T18:14:53.000Z</when>
<gx:coord>-122.85450533333332 46.02719916666667 7.4</gx:coord>

<when>2026-08-31T18:15:04.000Z</when>
<gx:coord>-122.85329166666666 46.024544666666664 8.9</gx:coord>

<when>2026-08-31T18:15:15.000Z</when>
<gx:coord>-122.851805 46.02189433333333 9.0</gx:coord>

<when>2026-08-31T18:15:26.000Z</when>
<gx:coord>-122.85024816666667 46.0191675 8.5</gx:coord>

<when>2026-08-31T18:15:37.000Z</when>
<gx:coord>-122.84929783333334 46.01637683333333 11.1</gx:coord>

<when>2026-08-31T18:15:48.000Z</when>
<gx:coord>-122.84851166666667 46.01369 9.7</gx:coord>

<when>2026-08-31T18:15:59.000Z</when>
<gx:coord>-122.84732816666668 46.011067000000004 7.4</gx:coord>

<when>2026-08-31T18:16:10.000Z</when>
<gx:coord>-122.84616433333333 46.00848883333333 8.4</gx:coord>

<when>2026-08-31T18:16:21.000Z</when>
<gx:coord>-122.845086 46.005997166666674 15.6</gx:coord>

<when>2026-08-31T18:16:32.000Z</when>
<gx:coord>-122.84433116666666 46.00336066666667 13.9</gx:coord>

<when>2026-08-31T18:16:43.000Z</when>
<gx:coord>-122.8434665 46.00066283333334 9.9</gx:coord>

<when>2026-08-31T18:16:54.000Z</when>
<gx:coord>-122.84200733333334 45.998067000000006 8.2</gx:coord>

<when>2026-08-31T18:17:05.000Z</when>
<gx:coord>-122.84010183333334 45.9957735 9.2</gx:coord>

<when>2026-08-31T18:17:16.000Z</when>
<gx:coord>-122.8379995 45.993573 8.7</gx:coord>

<when>2026-08-31T18:17:27.000Z</when>
<gx:coord>-122.83584016666667 45.99133716666667 7.5</gx:coord>

<when>2026-08-31T18:17:38.000Z</when>
<gx:coord>-122.83367783333333 45.98907783333334 8.0</gx:coord>

<when>2026-08-31T18:17:49.000Z</when>
<gx:coord>-122.83158 45.986907 8.4</gx:coord>

<when>2026-08-31T18:18:00.000Z</when>
<gx:coord>-122.82947633333333 45.98472083333333 10.6</gx:coord>

<when>2026-08-31T18:18:11.000Z</when>
<gx:coord>-122.82734966666666 45.98252016666667 13.3</gx:coord>

<when>2026-08-31T18:18:22.000Z</when>
<gx:coord>-122.82518933333334 45.9802835 16.3</gx:coord>

<when>2026-08-31T18:18:33.000Z</when>
<gx:coord>-122.82304533333333 45.97805833333334 19.5</gx:coord>

<when>2026-08-31T18:18:44.000Z</when>
<gx:coord>-122.82082766666666 45.97575716666667 20.1</gx:coord>

<when>2026-08-31T18:18:55.000Z</when>
<gx:coord>-122.818577 45.97341166666667 19.0</gx:coord>

<when>2026-08-31T18:19:06.000Z</when>
<gx:coord>-122.81635583333333 45.97110483333333 17.3</gx:coord>

<when>2026-08-31T18:19:17.000Z</when>
<gx:coord>-122.81421133333333 45.96887033333334 16.1</gx:coord>

<when>2026-08-31T18:19:28.000Z</when>
<gx:coord>-122.81211483333333 45.966708000000004 15.5</gx:coord>

<when>2026-08-31T18:19:39.000Z</when>
<gx:coord>-122.81009466666667 45.96461783333333 20.4</gx:coord>

<when>2026-08-31T18:19:50.000Z</when>
<gx:coord>-122.80813866666668 45.962395 21.4</gx:coord>

<when>2026-08-31T18:20:01.000Z</when>
<gx:coord>-122.80641766666668 45.95993083333333 18.8</gx:coord>

<when>2026-08-31T18:20:12.000Z</when>
<gx:coord>-122.80377133333334 45.95803850000001 11.0</gx:coord>

<when>2026-08-31T18:20:23.000Z</when>
<gx:coord>-122.80024283333333 45.956959999999995 3.8</gx:coord>

<when>2026-08-31T18:20:34.000Z</when>
<gx:coord>-122.79687516666667 45.95569650000001 2.3</gx:coord>

<when>2026-08-31T18:20:45.000Z</when>
<gx:coord>-122.79398166666667 45.953895166666676 2.5</gx:coord>

<when>2026-08-31T18:20:56.000Z</when>
<gx:coord>-122.79109766666667 45.952063333333335 4.2</gx:coord>

<when>2026-08-31T18:21:07.000Z</when>
<gx:coord>-122.78819383333332 45.950225 5.6</gx:coord>

<when>2026-08-31T18:21:18.000Z</when>
<gx:coord>-122.78529183333333 45.948379666666675 6.3</gx:coord>

<when>2026-08-31T18:21:29.000Z</when>
<gx:coord>-122.78235449999998 45.94652316666667 6.3</gx:coord>

<when>2026-08-31T18:21:40.000Z</when>
<gx:coord>-122.77942016666665 45.94465016666666 6.6</gx:coord>

<when>2026-08-31T18:21:51.000Z</when>
<gx:coord>-122.77658600000001 45.94273683333333 5.8</gx:coord>

<when>2026-08-31T18:22:02.000Z</when>
<gx:coord>-122.77381933333332 45.94081516666667 4.4</gx:coord>

<when>2026-08-31T18:22:13.000Z</when>
<gx:coord>-122.77102866666668 45.938872666666676 2.9</gx:coord>

<when>2026-08-31T18:22:24.000Z</when>
<gx:coord>-122.76823383333334 45.93693066666666 1.5</gx:coord>

<when>2026-08-31T18:22:35.000Z</when>
<gx:coord>-122.76551016666666 45.93502883333334 1.2</gx:coord>

<when>2026-08-31T18:22:46.000Z</when>
<gx:coord>-122.76301533333331 45.93308216666666 3.0</gx:coord>

<when>2026-08-31T18:22:57.000Z</when>
<gx:coord>-122.76075266666666 45.931096833333335 9.0</gx:coord>

<when>2026-08-31T18:23:08.000Z</when>
<gx:coord>-122.75846600000001 45.92906016666667 15.1</gx:coord>

<when>2026-08-31T18:23:19.000Z</when>
<gx:coord>-122.75647666666667 45.92683733333333 17.8</gx:coord>

<when>2026-08-31T18:23:30.000Z</when>
<gx:coord>-122.75467216666667 45.92441816666666 10.9</gx:coord>

<when>2026-08-31T18:23:41.000Z</when>
<gx:coord>-122.75282366666667 45.921921000000005 5.6</gx:coord>

<when>2026-08-31T18:23:52.000Z</when>
<gx:coord>-122.75118750000001 45.91954333333333 5.1</gx:coord>

<when>2026-08-31T18:24:03.000Z</when>
<gx:coord>-122.7497455 45.917184666666664 6.3</gx:coord>

<when>2026-08-31T18:24:14.000Z</when>
<gx:coord>-122.74828366666667 45.91476933333333 6.7</gx:coord>

<when>2026-08-31T18:24:25.000Z</when>
<gx:coord>-122.74682533333335 45.912338166666665 7.7</gx:coord>

<when>2026-08-31T18:24:36.000Z</when>
<gx:coord>-122.74531800000001 45.90982566666666 8.3</gx:coord>

<when>2026-08-31T18:24:47.000Z</when>
<gx:coord>-122.74371616666667 45.9074105 10.5</gx:coord>

<when>2026-08-31T18:24:58.000Z</when>
<gx:coord>-122.74224166666666 45.905103499999996 12.1</gx:coord>

<when>2026-08-31T18:25:09.000Z</when>
<gx:coord>-122.741013 45.902716666666656 8.4</gx:coord>

<when>2026-08-31T18:25:20.000Z</when>
<gx:coord>-122.73969283333332 45.900391166666665 8.8</gx:coord>

<when>2026-08-31T18:25:31.000Z</when>
<gx:coord>-122.73824983333334 45.89799783333333 8.4</gx:coord>

<when>2026-08-31T18:25:42.000Z</when>
<gx:coord>-122.73680883333333 45.89558999999999 7.9</gx:coord>

<when>2026-08-31T18:25:53.000Z</when>
<gx:coord>-122.73533933333334 45.893129833333326 9.5</gx:coord>

<when>2026-08-31T18:26:04.000Z</when>
<gx:coord>-122.73388733333334 45.890710166666665 11.5</gx:coord>

<when>2026-08-31T18:26:15.000Z</when>
<gx:coord>-122.73245866666666 45.888346500000004 13.0</gx:coord>

<when>2026-08-31T18:26:26.000Z</when>
<gx:coord>-122.73092383333332 45.8859675 11.3</gx:coord>

<when>2026-08-31T18:26:37.000Z</when>
<gx:coord>-122.72843433333334 45.88415116666667 8.6</gx:coord>

<when>2026-08-31T18:26:48.000Z</when>
<gx:coord>-122.7257235 45.88251816666666 11.3</gx:coord>

<when>2026-08-31T18:26:59.000Z</when>
<gx:coord>-122.72302683333334 45.88090050000001 16.3</gx:coord>

<when>2026-08-31T18:27:10.000Z</when>
<gx:coord>-122.72034333333335 45.879286666666665 21.2</gx:coord>

<when>2026-08-31T18:27:21.000Z</when>
<gx:coord>-122.71762733333335 45.87765583333333 21.1</gx:coord>

<when>2026-08-31T18:27:32.000Z</when>
<gx:coord>-122.71503050000001 45.875915500000005 18.1</gx:coord>

<when>2026-08-31T18:27:43.000Z</when>
<gx:coord>-122.71294716666668 45.87401516666667 12.5</gx:coord>

<when>2026-08-31T18:27:54.000Z</when>
<gx:coord>-122.71110983333334 45.8720935 19.5</gx:coord>

<when>2026-08-31T18:28:05.000Z</when>
<gx:coord>-122.70944416666667 45.87023683333334 25.7</gx:coord>

<when>2026-08-31T18:28:16.000Z</when>
<gx:coord>-122.70816033333334 45.86826599999999 31.0</gx:coord>

<when>2026-08-31T18:28:27.000Z</when>
<gx:coord>-122.7072785 45.86617783333333 37.2</gx:coord>

<when>2026-08-31T18:28:38.000Z</when>
<gx:coord>-122.7067825 45.864037833333335 47.0</gx:coord>

<when>2026-08-31T18:28:49.000Z</when>
<gx:coord>-122.70640783333334 45.86191333333333 53.3</gx:coord>

<when>2026-08-31T18:29:00.000Z</when>
<gx:coord>-122.70604383333333 45.85978183333334 58.1</gx:coord>

<when>2026-08-31T18:29:11.000Z</when>
<gx:coord>-122.70554616666668 45.85759383333334 62.3</gx:coord>

<when>2026-08-31T18:29:22.000Z</when>
<gx:coord>-122.70465183333333 45.855409666666674 64.3</gx:coord>

<when>2026-08-31T18:29:33.000Z</when>
<gx:coord>-122.70363666666665 45.85324049999999 69.3</gx:coord>

<when>2026-08-31T18:29:44.000Z</when>
<gx:coord>-122.70262316666667 45.85109383333334 75.4</gx:coord>

<when>2026-08-31T18:29:55.000Z</when>
<gx:coord>-122.7016395 45.84897516666667 80.1</gx:coord>

<when>2026-08-31T18:30:06.000Z</when>
<gx:coord>-122.700637 45.846811499999994 80.8</gx:coord>

<when>2026-08-31T18:30:17.000Z</when>
<gx:coord>-122.69959183333334 45.84454683333333 79.2</gx:coord>

<when>2026-08-31T18:30:28.000Z</when>
<gx:coord>-122.69852999999999 45.84226366666667 78.1</gx:coord>

<when>2026-08-31T18:30:39.000Z</when>
<gx:coord>-122.69748483333333 45.840007833333324 78.3</gx:coord>

<when>2026-08-31T18:30:50.000Z</when>
<gx:coord>-122.69646133333332 45.837805166666676 79.9</gx:coord>

<when>2026-08-31T18:31:01.000Z</when>
<gx:coord>-122.695439 45.83560766666666 81.5</gx:coord>

<when>2026-08-31T18:31:12.000Z</when>
<gx:coord>-122.69441883333333 45.833416333333325 83.6</gx:coord>

<when>2026-08-31T18:31:23.000Z</when>
<gx:coord>-122.69339633333333 45.83121516666667 82.7</gx:coord>

<when>2026-08-31T18:31:34.000Z</when>
<gx:coord>-122.6923365 45.8289405 78.7</gx:coord>

<when>2026-08-31T18:31:45.000Z</when>
<gx:coord>-122.69122816666668 45.826576499999994 75.6</gx:coord>

<when>2026-08-31T18:31:56.000Z</when>
<gx:coord>-122.69011183333332 45.824167 76.6</gx:coord>

<when>2026-08-31T18:32:07.000Z</when>
<gx:coord>-122.68899916666666 45.82177883333334 78.6</gx:coord>

<when>2026-08-31T18:32:18.000Z</when>
<gx:coord>-122.687912 45.81943549999999 80.1</gx:coord>

<when>2026-08-31T18:32:29.000Z</when>
<gx:coord>-122.68685016666669 45.817156999999995 81.9</gx:coord>

<when>2026-08-31T18:32:40.000Z</when>
<gx:coord>-122.6857685 45.81484733333333 82.9</gx:coord>

<when>2026-08-31T18:32:51.000Z</when>
<gx:coord>-122.68464199999998 45.81241033333334 80.8</gx:coord>

<when>2026-08-31T18:33:02.000Z</when>
<gx:coord>-122.68351349999999 45.80997983333334 79.2</gx:coord>

<when>2026-08-31T18:33:13.000Z</when>
<gx:coord>-122.68238683333333 45.80755366666667 76.9</gx:coord>

<when>2026-08-31T18:33:24.000Z</when>
<gx:coord>-122.68124116666668 45.80507899999999 73.6</gx:coord>

<when>2026-08-31T18:33:35.000Z</when>
<gx:coord>-122.68009533333334 45.802603 71.7</gx:coord>

<when>2026-08-31T18:33:46.000Z</when>
<gx:coord>-122.67899466666668 45.80024766666667 73.3</gx:coord>

<when>2026-08-31T18:33:57.000Z</when>
<gx:coord>-122.67786783333334 45.797833000000004 71.9</gx:coord>

<when>2026-08-31T18:34:08.000Z</when>
<gx:coord>-122.67683600000001 45.79525283333334 69.0</gx:coord>

<when>2026-08-31T18:34:19.000Z</when>
<gx:coord>-122.6761015 45.792658333333335 65.4</gx:coord>

<when>2026-08-31T18:34:30.000Z</when>
<gx:coord>-122.67540616666665 45.790124 64.7</gx:coord>

<when>2026-08-31T18:34:41.000Z</when>
<gx:coord>-122.674875 45.78759133333333 62.0</gx:coord>

<when>2026-08-31T18:34:52.000Z</when>
<gx:coord>-122.6746555 45.78500583333333 64.2</gx:coord>

<when>2026-08-31T18:35:03.000Z</when>
<gx:coord>-122.67414949999998 45.78241983333334 68.9</gx:coord>

<when>2026-08-31T18:35:14.000Z</when>
<gx:coord>-122.67321416666667 45.77988116666667 70.7</gx:coord>

<when>2026-08-31T18:35:25.000Z</when>
<gx:coord>-122.67214366666667 45.77739083333333 72.3</gx:coord>

<when>2026-08-31T18:35:36.000Z</when>
<gx:coord>-122.671113 45.774983000000006 76.2</gx:coord>

<when>2026-08-31T18:35:47.000Z</when>
<gx:coord>-122.67008866666666 45.77260366666666 79.7</gx:coord>

<when>2026-08-31T18:35:58.000Z</when>
<gx:coord>-122.66911283333333 45.77024483333333 81.9</gx:coord>

<when>2026-08-31T18:36:09.000Z</when>
<gx:coord>-122.66825016666665 45.767832 83.5</gx:coord>

<when>2026-08-31T18:36:20.000Z</when>
<gx:coord>-122.66747016666667 45.76537066666666 86.0</gx:coord>

<when>2026-08-31T18:36:31.000Z</when>
<gx:coord>-122.66669933333333 45.762876166666665 84.4</gx:coord>

<when>2026-08-31T18:36:42.000Z</when>
<gx:coord>-122.66593133333332 45.76038366666667 83.2</gx:coord>

<when>2026-08-31T18:36:53.000Z</when>
<gx:coord>-122.665187 45.75797066666667 88.6</gx:coord>

<when>2026-08-31T18:37:04.000Z</when>
<gx:coord>-122.66446283333335 45.75563016666667 92.9</gx:coord>

<when>2026-08-31T18:37:15.000Z</when>
<gx:coord>-122.66371083333334 45.753204833333335 90.7</gx:coord>

<when>2026-08-31T18:37:26.000Z</when>
<gx:coord>-122.66292816666667 45.750674333333336 88.7</gx:coord>

<when>2026-08-31T18:37:37.000Z</when>
<gx:coord>-122.66212533333334 45.74810216666666 90.9</gx:coord>

<when>2026-08-31T18:37:48.000Z</when>
<gx:coord>-122.66128150000002 45.7455165 92.3</gx:coord>

<when>2026-08-31T18:37:59.000Z</when>
<gx:coord>-122.6604685 45.742870666666676 89.6</gx:coord>

<when>2026-08-31T18:38:10.000Z</when>
<gx:coord>-122.659644 45.74021066666666 82.4</gx:coord>

<when>2026-08-31T18:38:21.000Z</when>
<gx:coord>-122.65880250000001 45.737503 72.5</gx:coord>

<when>2026-08-31T18:38:32.000Z</when>
<gx:coord>-122.65798600000001 45.7348675 69.4</gx:coord>

<when>2026-08-31T18:38:43.000Z</when>
<gx:coord>-122.65719483333332 45.7322965 66.3</gx:coord>

<when>2026-08-31T18:38:54.000Z</when>
<gx:coord>-122.65645699999999 45.72979816666666 65.3</gx:coord>

<when>2026-08-31T18:39:05.000Z</when>
<gx:coord>-122.655943 45.727409 63.6</gx:coord>

<when>2026-08-31T18:39:16.000Z</when>
<gx:coord>-122.65612700000001 45.72500449999999 60.2</gx:coord>

<when>2026-08-31T18:39:27.000Z</when>
<gx:coord>-122.65532633333332 45.72261483333333 55.3</gx:coord>

<when>2026-08-31T18:39:38.000Z</when>
<gx:coord>-122.65309866666666 45.72055399999999 52.3</gx:coord>

<when>2026-08-31T18:39:49.000Z</when>
<gx:coord>-122.65051316666668 45.71868133333334 52.9</gx:coord>

<when>2026-08-31T18:40:00.000Z</when>
<gx:coord>-122.64791650000001 45.71682416666666 49.2</gx:coord>

<when>2026-08-31T18:40:11.000Z</when>
<gx:coord>-122.64519533333332 45.714906166666665 49.2</gx:coord>

<when>2026-08-31T18:40:22.000Z</when>
<gx:coord>-122.64230049999999 45.71303016666668 44.9</gx:coord>

<when>2026-08-31T18:40:33.000Z</when>
<gx:coord>-122.63926416666666 45.711307000000005 36.9</gx:coord>

<when>2026-08-31T18:40:44.000Z</when>
<gx:coord>-122.63628333333332 45.709621 39.4</gx:coord>

<when>2026-08-31T18:40:55.000Z</when>
<gx:coord>-122.63344783333332 45.708015499999995 48.6</gx:coord>

<when>2026-08-31T18:41:06.000Z</when>
<gx:coord>-122.63088533333332 45.7062625 53.5</gx:coord>

<when>2026-08-31T18:41:17.000Z</when>
<gx:coord>-122.6288055 45.704182666666675 57.5</gx:coord>

<when>2026-08-31T18:41:28.000Z</when>
<gx:coord>-122.62683549999998 45.70200383333334 60.0</gx:coord>

<when>2026-08-31T18:41:39.000Z</when>
<gx:coord>-122.62417783333333 45.70026416666666 61.5</gx:coord>

<when>2026-08-31T18:41:50.000Z</when>
<gx:coord>-122.6209785 45.69927316666667 69.1</gx:coord>

<when>2026-08-31T18:42:01.000Z</when>
<gx:coord>-122.6175715 45.69880033333334 76.9</gx:coord>

<when>2026-08-31T18:42:12.000Z</when>
<gx:coord>-122.61445483333334 45.697762833333336 82.0</gx:coord>

<when>2026-08-31T18:42:23.000Z</when>
<gx:coord>-122.61188233333333 45.696093166666664 84.5</gx:coord>

<when>2026-08-31T18:42:34.000Z</when>
<gx:coord>-122.60942216666666 45.69433716666667 86.9</gx:coord>

<when>2026-08-31T18:42:45.000Z</when>
<gx:coord>-122.60706083333335 45.69241183333334 86.7</gx:coord>

<when>2026-08-31T18:42:56.000Z</when>
<gx:coord>-122.60482099999999 45.6902895 80.3</gx:coord>

<when>2026-08-31T18:43:07.000Z</when>
<gx:coord>-122.60263366666668 45.688305166666666 80.2</gx:coord>

<when>2026-08-31T18:43:18.000Z</when>
<gx:coord>-122.60031116666666 45.68656266666667 79.6</gx:coord>

<when>2026-08-31T18:43:29.000Z</when>
<gx:coord>-122.59778416666668 45.68492716666666 77.5</gx:coord>

<when>2026-08-31T18:43:40.000Z</when>
<gx:coord>-122.59504266666666 45.683457 75.6</gx:coord>

<when>2026-08-31T18:43:51.000Z</when>
<gx:coord>-122.59215333333334 45.68207333333333 75.1</gx:coord>

<when>2026-08-31T18:44:02.000Z</when>
<gx:coord>-122.58951783333332 45.680608 76.0</gx:coord>

<when>2026-08-31T18:44:13.000Z</when>
<gx:coord>-122.5872495 45.67882983333334 77.2</gx:coord>

<when>2026-08-31T18:44:24.000Z</when>
<gx:coord>-122.5854765 45.676806500000005 74.5</gx:coord>

<when>2026-08-31T18:44:35.000Z</when>
<gx:coord>-122.58408866666666 45.67459350000001 73.6</gx:coord>

<when>2026-08-31T18:44:46.000Z</when>
<gx:coord>-122.58271066666666 45.672334666666664 73.6</gx:coord>

<when>2026-08-31T18:44:57.000Z</when>
<gx:coord>-122.58132533333334 45.67006083333334 73.8</gx:coord>

<when>2026-08-31T18:45:08.000Z</when>
<gx:coord>-122.5799465 45.66779199999999 71.9</gx:coord>

<when>2026-08-31T18:45:19.000Z</when>
<gx:coord>-122.57856766666667 45.66553583333333 71.2</gx:coord>

<when>2026-08-31T18:45:30.000Z</when>
<gx:coord>-122.57703283333333 45.66330433333333 70.0</gx:coord>

<when>2026-08-31T18:45:41.000Z</when>
<gx:coord>-122.57515550000001 45.6611895 67.8</gx:coord>

<when>2026-08-31T18:45:52.000Z</when>
<gx:coord>-122.57319100000001 45.65909466666667 64.5</gx:coord>

<when>2026-08-31T18:46:03.000Z</when>
<gx:coord>-122.571243 45.65698999999999 60.8</gx:coord>

<when>2026-08-31T18:46:14.000Z</when>
<gx:coord>-122.56936266666668 45.654875999999994 60.0</gx:coord>

<when>2026-08-31T18:46:25.000Z</when>
<gx:coord>-122.56812616666666 45.652532 60.2</gx:coord>

<when>2026-08-31T18:46:36.000Z</when>
<gx:coord>-122.56711516666668 45.6500865 60.2</gx:coord>

<when>2026-08-31T18:46:47.000Z</when>
<gx:coord>-122.56609449999999 45.647632666666674 62.1</gx:coord>

<when>2026-08-31T18:46:58.000Z</when>
<gx:coord>-122.56509533333335 45.645232666666665 63.9</gx:coord>

<when>2026-08-31T18:47:09.000Z</when>
<gx:coord>-122.56408266666668 45.64279066666666 67.8</gx:coord>

<when>2026-08-31T18:47:20.000Z</when>
<gx:coord>-122.5630565 45.64029016666667 71.0</gx:coord>

<when>2026-08-31T18:47:31.000Z</when>
<gx:coord>-122.5621145 45.63794066666666 77.3</gx:coord>

<when>2026-08-31T18:47:42.000Z</when>
<gx:coord>-122.56116949999999 45.635657333333334 83.4</gx:coord>

<when>2026-08-31T18:47:53.000Z</when>
<gx:coord>-122.56034100000001 45.63327283333333 87.0</gx:coord>

<when>2026-08-31T18:48:04.000Z</when>
<gx:coord>-122.559998 45.63082916666667 88.2</gx:coord>

<when>2026-08-31T18:48:15.000Z</when>
<gx:coord>-122.55987266666668 45.62842066666667 89.8</gx:coord>

<when>2026-08-31T18:48:26.000Z</when>
<gx:coord>-122.5597435 45.62602866666666 92.1</gx:coord>

<when>2026-08-31T18:48:37.000Z</when>
<gx:coord>-122.559646 45.62360233333334 95.0</gx:coord>

<when>2026-08-31T18:48:48.000Z</when>
<gx:coord>-122.55947133333332 45.62120916666666 92.9</gx:coord>

<when>2026-08-31T18:48:59.000Z</when>
<gx:coord>-122.5585935 45.61888316666667 90.6</gx:coord>

<when>2026-08-31T18:49:10.000Z</when>
<gx:coord>-122.55679183333332 45.61674033333334 89.4</gx:coord>

<when>2026-08-31T18:49:21.000Z</when>
<gx:coord>-122.55485266666668 45.614682666666674 86.6</gx:coord>

<when>2026-08-31T18:49:32.000Z</when>
<gx:coord>-122.55330199999999 45.61250683333333 86.9</gx:coord>

<when>2026-08-31T18:49:43.000Z</when>
<gx:coord>-122.55270200000001 45.61006999999999 81.7</gx:coord>

<when>2026-08-31T18:49:54.000Z</when>
<gx:coord>-122.55230216666665 45.607598666666675 72.3</gx:coord>

<when>2026-08-31T18:50:05.000Z</when>
<gx:coord>-122.5519175 45.605169333333336 64.0</gx:coord>

<when>2026-08-31T18:50:16.000Z</when>
<gx:coord>-122.55152733333334 45.602790500000005 60.9</gx:coord>

<when>2026-08-31T18:50:27.000Z</when>
<gx:coord>-122.55114683333335 45.60042583333334 60.6</gx:coord>

<when>2026-08-31T18:50:38.000Z</when>
<gx:coord>-122.550641 45.59805766666667 60.0</gx:coord>

<when>2026-08-31T18:50:49.000Z</when>
<gx:coord>-122.54986333333333 45.595667500000005 55.9</gx:coord>

<when>2026-08-31T18:51:00.000Z</when>
<gx:coord>-122.54878016666667 45.59327216666667 49.3</gx:coord>

<when>2026-08-31T18:51:11.000Z</when>
<gx:coord>-122.54744983333333 45.59095766666666 41.8</gx:coord>

<when>2026-08-31T18:51:22.000Z</when>
<gx:coord>-122.546132 45.58882583333334 33.3</gx:coord>

<when>2026-08-31T18:51:33.000Z</when>
<gx:coord>-122.54496533333334 45.58672433333333 25.5</gx:coord>

<when>2026-08-31T18:51:44.000Z</when>
<gx:coord>-122.54418583333333 45.584561833333325 18.3</gx:coord>

<when>2026-08-31T18:51:55.000Z</when>
<gx:coord>-122.543852 45.58230749999999 17.3</gx:coord>

<when>2026-08-31T18:52:06.000Z</when>
<gx:coord>-122.54398466666667 45.58003183333334 20.0</gx:coord>

<when>2026-08-31T18:52:17.000Z</when>
<gx:coord>-122.54456133333333 45.57789233333333 20.4</gx:coord>

<when>2026-08-31T18:52:28.000Z</when>
<gx:coord>-122.54558049999999 45.5758395 20.7</gx:coord>

<when>2026-08-31T18:52:39.000Z</when>
<gx:coord>-122.54699049999999 45.57402149999999 17.2</gx:coord>

<when>2026-08-31T18:52:50.000Z</when>
<gx:coord>-122.5491885 45.572919666666664 9.5</gx:coord>

<when>2026-08-31T18:53:01.000Z</when>
<gx:coord>-122.55086283333334 45.572325166666666 2.3</gx:coord>

<when>2026-08-31T18:53:12.000Z</when>
<gx:coord>-122.55096633333332 45.57222933333334 2.5</gx:coord>

<when>2026-08-31T18:53:34.000Z</when>
<gx:coord>-122.55129766666666 45.57192433333333 3.3</gx:coord>

<when>2026-08-31T18:53:45.000Z</when>
<gx:coord>-122.55065583333332 45.57137633333333 5.0</gx:coord>

<when>2026-08-31T18:53:56.000Z</when>
<gx:coord>-122.54920466666665 45.57057416666667 5.0</gx:coord>

<when>2026-08-31T18:54:07.000Z</when>
<gx:coord>-122.54745399999999 45.56961516666667 6.3</gx:coord>

<when>2026-08-31T18:54:18.000Z</when>
<gx:coord>-122.5463 45.56898816666667 6.8</gx:coord>

<when>2026-08-31T18:54:29.000Z</when>
<gx:coord>-122.54601333333333 45.56882683333333 6.3</gx:coord>

<when>2026-08-31T18:54:40.000Z</when>
<gx:coord>-122.54510666666665 45.56828083333333 3.0</gx:coord>

<when>2026-08-31T18:54:51.000Z</when>
<gx:coord>-122.54393033333332 45.567615833333335 4.0</gx:coord>

<when>2026-08-31T18:55:02.000Z</when>
<gx:coord>-122.54221066666666 45.566954 3.0</gx:coord>

<when>2026-08-31T18:55:13.000Z</when>
<gx:coord>-122.54018650000002 45.56698800000001 1.9</gx:coord>

<when>2026-08-31T18:55:24.000Z</when>
<gx:coord>-122.53845449999999 45.56727349999999 3.4</gx:coord>

<when>2026-08-31T18:55:35.000Z</when>
<gx:coord>-122.53672766666665 45.56715716666666 4.0</gx:coord>

<when>2026-08-31T18:55:46.000Z</when>
<gx:coord>-122.53529483333332 45.566429666666664 3.9</gx:coord>

<when>2026-08-31T18:55:57.000Z</when>
<gx:coord>-122.53422933333334 45.565708166666674 3.6</gx:coord>

<when>2026-08-31T18:56:08.000Z</when>
<gx:coord>-122.53273733333332 45.56516666666666 4.0</gx:coord>

<when>2026-08-31T18:56:19.000Z</when>
<gx:coord>-122.53114750000002 45.564617 3.7</gx:coord>

<when>2026-08-31T18:56:30.000Z</when>
<gx:coord>-122.5298925 45.5637255 4.7</gx:coord>

<when>2026-08-31T18:56:41.000Z</when>
<gx:coord>-122.52861366666666 45.562911 3.4</gx:coord>

<when>2026-08-31T18:56:52.000Z</when>
<gx:coord>-122.52691516666667 45.562542833333325 0.5</gx:coord>

<when>2026-08-31T18:57:03.000Z</when>
<gx:coord>-122.525192 45.562234999999994 1.1</gx:coord>

<when>2026-08-31T18:57:14.000Z</when>
<gx:coord>-122.52349116666667 45.56197583333333 1.0</gx:coord>

<when>2026-08-31T18:57:25.000Z</when>
<gx:coord>-122.52272916666668 45.56189800000001 1.8</gx:coord>

<when>2026-08-31T18:57:36.000Z</when>
<gx:coord>-122.52176499999999 45.56184766666667 1.5</gx:coord>

<when>2026-08-31T18:57:47.000Z</when>
<gx:coord>-122.5212665 45.561514 1.3</gx:coord>

<when>2026-08-31T18:57:58.000Z</when>
<gx:coord>-122.521262 45.56062 1.3</gx:coord>

<when>2026-08-31T18:58:09.000Z</when>
<gx:coord>-122.52126716666668 45.5596815 -2.2</gx:coord>

<when>2026-08-31T18:58:20.000Z</when>
<gx:coord>-122.52127016666667 45.558986166666664 -4.9</gx:coord>

<when>2026-08-31T18:58:31.000Z</when>
<gx:coord>-122.52127433333332 45.55837016666666 -6.9</gx:coord>

<when>2026-08-31T18:58:42.000Z</when>
<gx:coord>-122.52125733333332 45.55768016666666 -6.3</gx:coord>

<when>2026-08-31T18:58:53.000Z</when>
<gx:coord>-122.52145966666667 45.55756966666666 -3.0</gx:coord>

<when>2026-08-31T18:59:04.000Z</when>
<gx:coord>-122.52206533333334 45.55754 -3.1</gx:coord>

<when>2026-08-31T18:59:15.000Z</when>
<gx:coord>-122.522719 45.55753983333334 -3.6</gx:coord>

<when>2026-08-31T18:59:26.000Z</when>
<gx:coord>-122.52324316666666 45.55754383333333 -3.0</gx:coord>

<when>2026-08-31T18:59:37.000Z</when>
<gx:coord>-122.52341566666668 45.55755883333333 0.1</gx:coord>

<when>2026-08-31T18:59:59.000Z</when>
<gx:coord>-122.5235015 45.55755066666667 5.6</gx:coord>

<when>2026-08-31T19:04:34.000Z</when>
<gx:coord>-122.523566 45.55755666666667 8.0</gx:coord>

<when>2026-08-31T19:05:18.000Z</when>
<gx:coord>-122.52363366666665 45.557514499999996 8.4</gx:coord>

<when>2026-08-31T19:05:29.000Z</when>
<gx:coord>-122.52417516666668 45.5575395 5.5</gx:coord>

<when>2026-08-31T19:05:40.000Z</when>
<gx:coord>-122.52510349999999 45.5577135 3.2</gx:coord>

<when>2026-08-31T19:05:51.000Z</when>
<gx:coord>-122.52638783333332 45.557980666666666 4.4</gx:coord>

<when>2026-08-31T19:06:02.000Z</when>
<gx:coord>-122.52794183333332 45.55830116666666 3.1</gx:coord>

<when>2026-08-31T19:06:13.000Z</when>
<gx:coord>-122.52881283333333 45.55898233333334 3.3</gx:coord>

<when>2026-08-31T19:06:24.000Z</when>
<gx:coord>-122.52925466666666 45.559942 2.4</gx:coord>

<when>2026-08-31T19:06:35.000Z</when>
<gx:coord>-122.53059200000001 45.56055316666666 3.5</gx:coord>

<when>2026-08-31T19:06:46.000Z</when>
<gx:coord>-122.53218700000001 45.5609645 4.7</gx:coord>

<when>2026-08-31T19:06:57.000Z</when>
<gx:coord>-122.53369550000001 45.561360666666666 7.3</gx:coord>

<when>2026-08-31T19:07:08.000Z</when>
<gx:coord>-122.53513566666668 45.5617435 8.8</gx:coord>

<when>2026-08-31T19:07:19.000Z</when>
<gx:coord>-122.5357335 45.561943500000005 5.0</gx:coord>

<when>2026-08-31T19:07:30.000Z</when>
<gx:coord>-122.53584950000001 45.561985166666666 3.7</gx:coord>

<when>2026-08-31T19:07:41.000Z</when>
<gx:coord>-122.53590316666666 45.5621185 7.6</gx:coord>

<when>2026-08-31T19:07:52.000Z</when>
<gx:coord>-122.5352705 45.562959166666666 3.9</gx:coord>

<when>2026-08-31T19:08:03.000Z</when>
<gx:coord>-122.53447383333332 45.564061333333335 3.8</gx:coord>

<when>2026-08-31T19:08:14.000Z</when>
<gx:coord>-122.53375183333334 45.56502333333333 3.1</gx:coord>

<when>2026-08-31T19:08:25.000Z</when>
<gx:coord>-122.53328583333332 45.56533233333333 3.2</gx:coord>

<when>2026-08-31T19:08:36.000Z</when>
<gx:coord>-122.53198033333335 45.56490350000001 3.0</gx:coord>

<when>2026-08-31T19:08:47.000Z</when>
<gx:coord>-122.53017300000002 45.56405483333333 2.2</gx:coord>

<when>2026-08-31T19:08:58.000Z</when>
<gx:coord>-122.52870683333335 45.562965500000004 2.7</gx:coord>

<when>2026-08-31T19:09:09.000Z</when>
<gx:coord>-122.52654933333334 45.56246683333334 1.7</gx:coord>

<when>2026-08-31T19:09:20.000Z</when>
<gx:coord>-122.52420216666665 45.562069 1.1</gx:coord>

<when>2026-08-31T19:09:31.000Z</when>
<gx:coord>-122.52226866666666 45.56184766666667 -1.3</gx:coord>

<when>2026-08-31T19:09:42.000Z</when>
<gx:coord>-122.52182133333332 45.56184016666666 -1.6</gx:coord>

<when>2026-08-31T19:09:53.000Z</when>
<gx:coord>-122.52170916666667 45.561860666666675 -0.3</gx:coord>

<when>2026-08-31T19:10:04.000Z</when>
<gx:coord>-122.52167033333332 45.5618975 3.4</gx:coord>

<when>2026-08-31T19:10:37.000Z</when>
<gx:coord>-122.521252 45.56181616666666 6.2</gx:coord>

<when>2026-08-31T19:10:48.000Z</when>
<gx:coord>-122.5211875 45.56095633333333 5.2</gx:coord>

<when>2026-08-31T19:10:59.000Z</when>
<gx:coord>-122.52119400000001 45.56015083333333 1.3</gx:coord>

<when>2026-08-31T19:11:10.000Z</when>
<gx:coord>-122.52119333333333 45.55969033333334 -1.5</gx:coord>

<when>2026-08-31T19:11:21.000Z</when>
<gx:coord>-122.52118616666667 45.55893116666666 -4.3</gx:coord>

<when>2026-08-31T19:11:32.000Z</when>
<gx:coord>-122.52135416666667 45.558657666666676 -0.8</gx:coord>

<when>2026-08-31T19:11:43.000Z</when>
<gx:coord>-122.5215995 45.55869666666668 2.6</gx:coord>

<when>2026-08-31T19:11:54.000Z</when>
<gx:coord>-122.52150983333334 45.55881066666667 1.7</gx:coord>

<when>2026-08-31T19:12:05.000Z</when>
<gx:coord>-122.521474 45.55890966666666 2.8</gx:coord>

<when>2026-08-31T19:12:27.000Z</when>
<gx:coord>-122.52148133333334 45.5589555 8.1</gx:coord>

<when>2026-08-31T19:15:12.000Z</when>
<gx:coord>-122.52147250000002 45.55900216666667 12.3</gx:coord>

<when>2026-08-31T19:15:34.000Z</when>
<gx:coord>-122.52148600000001 45.55905233333333 10.7</gx:coord>

<when>2026-08-31T19:15:56.000Z</when>
<gx:coord>-122.52144583333332 45.55915083333333 4.6</gx:coord>

<when>2026-08-31T19:16:18.000Z</when>
<gx:coord>-122.52142383333333 45.55919566666667 -7.7</gx:coord>

<when>2026-08-31T19:16:40.000Z</when>
<gx:coord>-122.52138783333334 45.55923866666667 -14.0</gx:coord>

<when>2026-08-31T19:17:02.000Z</when>
<gx:coord>-122.52138699999999 45.559298999999996 -6.0</gx:coord>

<when>2026-08-31T19:17:24.000Z</when>
<gx:coord>-122.52141033333334 45.55934683333333 -4.6</gx:coord>

<when>2026-08-31T19:25:27.000Z</when>
<gx:coord>-122.52224433333335 45.559159666666666 5.8</gx:coord>

<when>2026-08-31T19:25:49.000Z</when>
<gx:coord>-122.52215883333335 45.55914866666667 5.2</gx:coord>

<when>2026-08-31T21:31:42.000Z</when>
<gx:coord>-122.522205 45.55923516666667 12.5</gx:coord>

<when>2026-08-31T21:31:53.000Z</when>
<gx:coord>-122.52215366666665 45.559306166666666 10.1</gx:coord>

<when>2026-08-31T21:32:04.000Z</when>
<gx:coord>-122.52207716666665 45.559341499999995 11.9</gx:coord>

<when>2026-08-31T21:32:15.000Z</when>
<gx:coord>-122.52199533333332 45.5594465 15.1</gx:coord>

<when>2026-08-31T21:32:26.000Z</when>
<gx:coord>-122.52190199999998 45.55951016666666 15.9</gx:coord>

<when>2026-08-31T21:32:37.000Z</when>
<gx:coord>-122.52154833333334 45.55941733333334 9.4</gx:coord>

<when>2026-08-31T21:32:48.000Z</when>
<gx:coord>-122.52137400000001 45.55939766666667 -1.5</gx:coord>

<when>2026-08-31T21:33:10.000Z</when>
<gx:coord>-122.52114233333332 45.55954716666667 -4.1</gx:coord>

<when>2026-08-31T21:33:21.000Z</when>
<gx:coord>-122.52108866666667 45.560189333333334 1.7</gx:coord>

<when>2026-08-31T21:33:32.000Z</when>
<gx:coord>-122.52106983333333 45.560941333333325 3.3</gx:coord>

<when>2026-08-31T21:33:43.000Z</when>
<gx:coord>-122.521054 45.56157516666667 0.8</gx:coord>

<when>2026-08-31T21:33:54.000Z</when>
<gx:coord>-122.52093383333334 45.561807833333326 1.6</gx:coord>

<when>2026-08-31T21:34:05.000Z</when>
<gx:coord>-122.52000500000001 45.561870666666664 -0.2</gx:coord>

<when>2026-08-31T21:34:16.000Z</when>
<gx:coord>-122.51880783333333 45.56174816666667 -2.9</gx:coord>

<when>2026-08-31T21:34:27.000Z</when>
<gx:coord>-122.51765716666665 45.56127316666666 -0.6</gx:coord>

<when>2026-08-31T21:34:38.000Z</when>
<gx:coord>-122.51648483333332 45.56067816666667 3.3</gx:coord>

<when>2026-08-31T21:34:49.000Z</when>
<gx:coord>-122.51518349999999 45.560031166666676 3.8</gx:coord>

<when>2026-08-31T21:35:00.000Z</when>
<gx:coord>-122.51344599999999 45.55949583333333 -2.4</gx:coord>

<when>2026-08-31T21:35:11.000Z</when>
<gx:coord>-122.51287116666666 45.55932433333334 -5.5</gx:coord>

<when>2026-08-31T21:35:22.000Z</when>
<gx:coord>-122.51250283333333 45.55906033333334 -5.9</gx:coord>

<when>2026-08-31T21:35:33.000Z</when>
<gx:coord>-122.51249549999999 45.55874000000001 -3.7</gx:coord>

<when>2026-08-31T21:35:44.000Z</when>
<gx:coord>-122.51271983333332 45.55880816666666 -3.3</gx:coord>

<when>2026-08-31T21:49:51.000Z</when>
<gx:coord>-122.51250350000001 45.558988666666664 65.0</gx:coord>

<when>2026-08-31T21:50:03.000Z</when>
<gx:coord>-122.51270716666667 45.55889066666667 7.0</gx:coord>

<when>2026-08-31T21:50:24.000Z</when>
<gx:coord>-122.5126045 45.55894633333334 17.4</gx:coord>

<when>2026-08-31T21:50:35.000Z</when>
<gx:coord>-122.51260400000001 45.55910633333333 14.6</gx:coord>

<when>2026-08-31T21:50:46.000Z</when>
<gx:coord>-122.51277733333333 45.55924516666667 11.0</gx:coord>

<when>2026-08-31T21:50:57.000Z</when>
<gx:coord>-122.512793 45.559445999999994 10.5</gx:coord>

<when>2026-08-31T21:51:19.000Z</when>
<gx:coord>-122.51270099999998 45.559523000000006 6.0</gx:coord>

<when>2026-08-31T21:51:30.000Z</when>
<gx:coord>-122.512344 45.559493499999995 5.2</gx:coord>

<when>2026-08-31T21:51:41.000Z</when>
<gx:coord>-122.511935 45.55948733333333 -0.9</gx:coord>

<when>2026-08-31T21:51:52.000Z</when>
<gx:coord>-122.5116515 45.559486 -6.8</gx:coord>

<when>2026-08-31T21:52:03.000Z</when>
<gx:coord>-122.51136550000001 45.559490000000004 -7.6</gx:coord>

<when>2026-08-31T21:52:14.000Z</when>
<gx:coord>-122.51108916666665 45.559493999999994 -6.5</gx:coord>

<when>2026-08-31T21:52:25.000Z</when>
<gx:coord>-122.510936 45.55950033333333 -2.4</gx:coord>

<when>2026-08-31T21:52:36.000Z</when>
<gx:coord>-122.5103535 45.5595135 0.4</gx:coord>

<when>2026-08-31T21:52:48.000Z</when>
<gx:coord>-122.50908766666667 45.55952516666666 4.7</gx:coord>

<when>2026-08-31T21:52:59.000Z</when>
<gx:coord>-122.50763516666666 45.5592815 5.0</gx:coord>

<when>2026-08-31T21:53:10.000Z</when>
<gx:coord>-122.50578366666666 45.558856500000005 6.9</gx:coord>

<when>2026-08-31T21:53:21.000Z</when>
<gx:coord>-122.50374766666667 45.5583825 8.2</gx:coord>

<when>2026-08-31T21:53:32.000Z</when>
<gx:coord>-122.50157683333333 45.557857 8.7</gx:coord>

<when>2026-08-31T21:53:43.000Z</when>
<gx:coord>-122.499393 45.55735383333334 3.5</gx:coord>

<when>2026-08-31T21:53:54.000Z</when>
<gx:coord>-122.49724316666668 45.55686966666667 -2.4</gx:coord>

<when>2026-08-31T21:54:05.000Z</when>
<gx:coord>-122.49507083333334 45.55639466666666 -2.6</gx:coord>

<when>2026-08-31T21:54:16.000Z</when>
<gx:coord>-122.49285300000001 45.55589883333334 -5.9</gx:coord>

<when>2026-08-31T21:54:27.000Z</when>
<gx:coord>-122.49110516666666 45.554958166666665 -4.7</gx:coord>

<when>2026-08-31T21:54:38.000Z</when>
<gx:coord>-122.48967766666668 45.5537435 -4.4</gx:coord>

<when>2026-08-31T21:54:49.000Z</when>
<gx:coord>-122.48754933333333 45.55316133333334 -4.8</gx:coord>

<when>2026-08-31T21:55:00.000Z</when>
<gx:coord>-122.48506700000002 45.55315949999999 -2.0</gx:coord>

<when>2026-08-31T21:55:11.000Z</when>
<gx:coord>-122.48257166666666 45.553141499999995 -0.8</gx:coord>

<when>2026-08-31T21:55:22.000Z</when>
<gx:coord>-122.48134583333334 45.553135999999995 0.0</gx:coord>

<when>2026-08-31T21:55:55.000Z</when>
<gx:coord>-122.48040233333334 45.55311966666667 -0.3</gx:coord>

<when>2026-08-31T21:56:06.000Z</when>
<gx:coord>-122.47877016666668 45.552679000000005 0.9</gx:coord>

<when>2026-08-31T21:56:17.000Z</when>
<gx:coord>-122.47756533333335 45.551621999999995 -0.8</gx:coord>

<when>2026-08-31T21:56:28.000Z</when>
<gx:coord>-122.47726466666667 45.550169999999994 5.1</gx:coord>

<when>2026-08-31T21:56:39.000Z</when>
<gx:coord>-122.47726650000001 45.5487045 10.2</gx:coord>

<when>2026-08-31T21:56:50.000Z</when>
<gx:coord>-122.47724683333333 45.547421666666665 14.1</gx:coord>

<when>2026-08-31T21:57:01.000Z</when>
<gx:coord>-122.47729533333334 45.546501000000006 13.2</gx:coord>

<when>2026-08-31T21:57:12.000Z</when>
<gx:coord>-122.47731366666667 45.546371666666666 13.6</gx:coord>

<when>2026-08-31T21:57:45.000Z</when>
<gx:coord>-122.47725416666665 45.54634266666667 19.6</gx:coord>

<when>2026-08-31T21:58:18.000Z</when>
<gx:coord>-122.47724799999999 45.54599266666667 22.2</gx:coord>

<when>2026-08-31T21:58:29.000Z</when>
<gx:coord>-122.47732650000002 45.54511583333333 25.1</gx:coord>

<when>2026-08-31T21:58:40.000Z</when>
<gx:coord>-122.477365 45.544456833333335 26.3</gx:coord>

<when>2026-08-31T21:58:51.000Z</when>
<gx:coord>-122.47738683333334 45.54345566666666 29.6</gx:coord>

<when>2026-08-31T21:59:02.000Z</when>
<gx:coord>-122.47740766666666 45.5422505 37.6</gx:coord>

<when>2026-08-31T21:59:13.000Z</when>
<gx:coord>-122.47739150000001 45.541215166666674 44.5</gx:coord>

<when>2026-08-31T21:59:24.000Z</when>
<gx:coord>-122.47739433333332 45.541018833333325 45.9</gx:coord>

<when>2026-08-31T22:01:04.000Z</when>
<gx:coord>-122.47730416666667 45.540758499999995 48.1</gx:coord>

<when>2026-08-31T22:01:15.000Z</when>
<gx:coord>-122.47617 45.540865000000004 48.0</gx:coord>

<when>2026-08-31T22:01:26.000Z</when>
<gx:coord>-122.47436700000002 45.5409815 52.6</gx:coord>

<when>2026-08-31T22:01:37.000Z</when>
<gx:coord>-122.47189616666668 45.54092433333334 53.0</gx:coord>

<when>2026-08-31T22:01:48.000Z</when>
<gx:coord>-122.46884033333332 45.54081533333333 50.6</gx:coord>

<when>2026-08-31T22:01:59.000Z</when>
<gx:coord>-122.46569316666667 45.54067116666667 45.8</gx:coord>

<when>2026-08-31T22:02:10.000Z</when>
<gx:coord>-122.4623395 45.540375499999996 39.5</gx:coord>

<when>2026-08-31T22:02:21.000Z</when>
<gx:coord>-122.45894283333334 45.539945833333334 36.3</gx:coord>

<when>2026-08-31T22:02:32.000Z</when>
<gx:coord>-122.45560883333334 45.53953033333334 36.7</gx:coord>

<when>2026-08-31T22:02:43.000Z</when>
<gx:coord>-122.45212633333334 45.53922183333334 33.8</gx:coord>

<when>2026-08-31T22:02:54.000Z</when>
<gx:coord>-122.44882383333334 45.539161 30.9</gx:coord>

<when>2026-08-31T22:03:05.000Z</when>
<gx:coord>-122.44712266666666 45.53921066666667 29.3</gx:coord>

<when>2026-08-31T22:03:16.000Z</when>
<gx:coord>-122.44701500000001 45.53922033333333 29.4</gx:coord>

<when>2026-08-31T22:04:55.000Z</when>
<gx:coord>-122.44614516666667 45.53928716666666 27.5</gx:coord>

<when>2026-08-31T22:05:06.000Z</when>
<gx:coord>-122.44392983333334 45.5395605 27.2</gx:coord>

<when>2026-08-31T22:05:17.000Z</when>
<gx:coord>-122.44102033333333 45.540104500000005 27.2</gx:coord>

<when>2026-08-31T22:05:28.000Z</when>
<gx:coord>-122.43776366666667 45.5410025 28.4</gx:coord>

<when>2026-08-31T22:05:39.000Z</when>
<gx:coord>-122.43428683333335 45.54176583333333 32.8</gx:coord>

<when>2026-08-31T22:05:50.000Z</when>
<gx:coord>-122.43072349999998 45.541616833333336 31.7</gx:coord>

<when>2026-08-31T22:06:01.000Z</when>
<gx:coord>-122.42723749999999 45.54077066666667 26.0</gx:coord>

<when>2026-08-31T22:06:12.000Z</when>
<gx:coord>-122.42375866666667 45.539928666666675 23.5</gx:coord>

<when>2026-08-31T22:06:23.000Z</when>
<gx:coord>-122.42012666666666 45.539621999999994 22.8</gx:coord>

<when>2026-08-31T22:06:34.000Z</when>
<gx:coord>-122.41643483333334 45.5401805 20.8</gx:coord>

<when>2026-08-31T22:06:45.000Z</when>
<gx:coord>-122.41305650000001 45.54136233333334 15.7</gx:coord>

<when>2026-08-31T22:06:56.000Z</when>
<gx:coord>-122.40967549999999 45.542629166666664 8.6</gx:coord>

<when>2026-08-31T22:07:07.000Z</when>
<gx:coord>-122.40635216666666 45.54381566666666 4.1</gx:coord>

<when>2026-08-31T22:07:18.000Z</when>
<gx:coord>-122.40287583333333 45.544462 8.1</gx:coord>

<when>2026-08-31T22:07:29.000Z</when>
<gx:coord>-122.3994625 45.54470783333333 12.4</gx:coord>

<when>2026-08-31T22:07:40.000Z</when>
<gx:coord>-122.39602816666665 45.54487583333333 9.7</gx:coord>

<when>2026-08-31T22:07:51.000Z</when>
<gx:coord>-122.39246183333334 45.54491933333334 9.2</gx:coord>

<when>2026-08-31T22:08:02.000Z</when>
<gx:coord>-122.38884733333335 45.54480683333333 7.9</gx:coord>

<when>2026-08-31T22:08:13.000Z</when>
<gx:coord>-122.38512199999998 45.54456283333334 7.9</gx:coord>

<when>2026-08-31T22:08:24.000Z</when>
<gx:coord>-122.38149016666667 45.544303166666666 7.0</gx:coord>

<when>2026-08-31T22:08:35.000Z</when>
<gx:coord>-122.37791700000001 45.54404966666666 5.2</gx:coord>

<when>2026-08-31T22:08:46.000Z</when>
<gx:coord>-122.37430283333333 45.54379766666666 6.2</gx:coord>

<when>2026-08-31T22:08:57.000Z</when>
<gx:coord>-122.37065066666668 45.54354316666666 6.2</gx:coord>

<when>2026-08-31T22:09:08.000Z</when>
<gx:coord>-122.36699216666666 45.54327966666666 5.2</gx:coord>

<when>2026-08-31T22:09:19.000Z</when>
<gx:coord>-122.36331833333334 45.54301699999999 5.3</gx:coord>

<when>2026-08-31T22:09:30.000Z</when>
<gx:coord>-122.35965416666667 45.54276316666666 5.4</gx:coord>

<when>2026-08-31T22:09:41.000Z</when>
<gx:coord>-122.35598900000001 45.542506 4.4</gx:coord>

<when>2026-08-31T22:09:52.000Z</when>
<gx:coord>-122.35227216666665 45.54224683333334 3.8</gx:coord>

<when>2026-08-31T22:10:03.000Z</when>
<gx:coord>-122.34854816666666 45.541994333333335 5.3</gx:coord>

<when>2026-08-31T22:10:14.000Z</when>
<gx:coord>-122.34479166666667 45.54171233333333 5.4</gx:coord>

<when>2026-08-31T22:10:26.000Z</when>
<gx:coord>-122.34083666666666 45.54095683333333 4.3</gx:coord>

<when>2026-08-31T22:10:37.000Z</when>
<gx:coord>-122.33725283333334 45.540105499999996 3.9</gx:coord>

<when>2026-08-31T22:10:48.000Z</when>
<gx:coord>-122.33363933333334 45.53931433333334 3.8</gx:coord>

<when>2026-08-31T22:10:59.000Z</when>
<gx:coord>-122.32994466666666 45.53871733333334 -0.1</gx:coord>

<when>2026-08-31T22:11:10.000Z</when>
<gx:coord>-122.32616633333333 45.53836983333334 -1.5</gx:coord>

<when>2026-08-31T22:11:21.000Z</when>
<gx:coord>-122.32234083333333 45.538281000000005 -1.2</gx:coord>

<when>2026-08-31T22:11:32.000Z</when>
<gx:coord>-122.31852883333335 45.5383995 -1.9</gx:coord>

<when>2026-08-31T22:11:43.000Z</when>
<gx:coord>-122.31474016666668 45.538646333333325 -0.5</gx:coord>

<when>2026-08-31T22:11:54.000Z</when>
<gx:coord>-122.31103966666666 45.538884666666675 -0.1</gx:coord>

<when>2026-08-31T22:12:05.000Z</when>
<gx:coord>-122.30733816666667 45.53914083333334 -1.6</gx:coord>

<when>2026-08-31T22:12:16.000Z</when>
<gx:coord>-122.30371133333334 45.5396415 -0.1</gx:coord>

<when>2026-08-31T22:12:27.000Z</when>
<gx:coord>-122.30016933333333 45.540393166666675 1.5</gx:coord>

<when>2026-08-31T22:12:38.000Z</when>
<gx:coord>-122.29655316666667 45.54116316666667 2.9</gx:coord>

<when>2026-08-31T22:12:49.000Z</when>
<gx:coord>-122.29282083333334 45.541608 4.6</gx:coord>

<when>2026-08-31T22:13:00.000Z</when>
<gx:coord>-122.28905283333333 45.54173066666667 5.5</gx:coord>

<when>2026-08-31T22:13:11.000Z</when>
<gx:coord>-122.28541650000001 45.54153533333333 5.8</gx:coord>

<when>2026-08-31T22:13:22.000Z</when>
<gx:coord>-122.28166066666667 45.5414785 5.1</gx:coord>

<when>2026-08-31T22:13:33.000Z</when>
<gx:coord>-122.27780533333335 45.541906166666664 4.5</gx:coord>

<when>2026-08-31T22:13:44.000Z</when>
<gx:coord>-122.27402383333335 45.542056833333326 6.2</gx:coord>

<when>2026-08-31T22:13:55.000Z</when>
<gx:coord>-122.27039250000001 45.54168816666667 7.9</gx:coord>

<when>2026-08-31T22:14:07.000Z</when>
<gx:coord>-122.26640883333333 45.54144233333333 7.8</gx:coord>

<when>2026-08-31T22:14:18.000Z</when>
<gx:coord>-122.26272166666668 45.54140233333332 7.9</gx:coord>

<when>2026-08-31T22:14:29.000Z</when>
<gx:coord>-122.25900066666667 45.54153633333333 8.0</gx:coord>

<when>2026-08-31T22:14:40.000Z</when>
<gx:coord>-122.25520283333331 45.541853833333334 7.8</gx:coord>

<when>2026-08-31T22:14:51.000Z</when>
<gx:coord>-122.25138566666668 45.54227816666666 8.7</gx:coord>

<when>2026-08-31T22:15:02.000Z</when>
<gx:coord>-122.24756350000001 45.54274 6.9</gx:coord>

<when>2026-08-31T22:15:13.000Z</when>
<gx:coord>-122.24372966666667 45.54325416666667 7.1</gx:coord>

<when>2026-08-31T22:15:24.000Z</when>
<gx:coord>-122.23987933333335 45.543820499999995 6.2</gx:coord>

<when>2026-08-31T22:15:35.000Z</when>
<gx:coord>-122.2360345 45.54443183333333 6.7</gx:coord>

<when>2026-08-31T22:15:46.000Z</when>
<gx:coord>-122.23221783333332 45.54507933333333 7.0</gx:coord>

<when>2026-08-31T22:15:57.000Z</when>
<gx:coord>-122.228389 45.54574666666667 7.4</gx:coord>

<when>2026-08-31T22:16:08.000Z</when>
<gx:coord>-122.22456166666667 45.546365 6.8</gx:coord>

<when>2026-08-31T22:16:19.000Z</when>
<gx:coord>-122.2207745 45.54688683333334 5.6</gx:coord>

<when>2026-08-31T22:16:30.000Z</when>
<gx:coord>-122.21715783333333 45.54730033333333 4.0</gx:coord>

<when>2026-08-31T22:16:41.000Z</when>
<gx:coord>-122.21367899999998 45.54763583333333 3.6</gx:coord>

<when>2026-08-31T22:16:52.000Z</when>
<gx:coord>-122.21008433333333 45.54791650000001 4.2</gx:coord>

<when>2026-08-31T22:17:03.000Z</when>
<gx:coord>-122.20635316666667 45.548211666666674 4.6</gx:coord>

<when>2026-08-31T22:17:14.000Z</when>
<gx:coord>-122.20263983333334 45.5485955 6.0</gx:coord>

<when>2026-08-31T22:17:25.000Z</when>
<gx:coord>-122.19905949999999 45.54924066666668 6.6</gx:coord>

<when>2026-08-31T22:17:36.000Z</when>
<gx:coord>-122.19564133333333 45.550169999999994 5.5</gx:coord>

<when>2026-08-31T22:17:47.000Z</when>
<gx:coord>-122.19241366666665 45.55135966666667 7.2</gx:coord>

<when>2026-08-31T22:17:58.000Z</when>
<gx:coord>-122.18941066666666 45.552739833333334 6.7</gx:coord>

<when>2026-08-31T22:18:09.000Z</when>
<gx:coord>-122.186524 45.5542185 4.9</gx:coord>

<when>2026-08-31T22:18:20.000Z</when>
<gx:coord>-122.18370316666666 45.555743 6.2</gx:coord>

<when>2026-08-31T22:18:31.000Z</when>
<gx:coord>-122.18092716666666 45.55728666666667 4.6</gx:coord>

<when>2026-08-31T22:18:42.000Z</when>
<gx:coord>-122.17820416666667 45.558891833333334 5.3</gx:coord>

<when>2026-08-31T22:18:53.000Z</when>
<gx:coord>-122.17559133333334 45.560542500000004 5.3</gx:coord>

<when>2026-08-31T22:19:04.000Z</when>
<gx:coord>-122.17299833333333 45.562228166666664 8.4</gx:coord>

<when>2026-08-31T22:19:15.000Z</when>
<gx:coord>-122.17037783333332 45.563923833333334 7.6</gx:coord>

<when>2026-08-31T22:19:26.000Z</when>
<gx:coord>-122.16767216666668 45.56567766666667 6.6</gx:coord>

<when>2026-08-31T22:19:37.000Z</when>
<gx:coord>-122.16486566666666 45.56748883333333 5.4</gx:coord>

<when>2026-08-31T22:19:48.000Z</when>
<gx:coord>-122.16200583333332 45.569267833333335 5.7</gx:coord>

<when>2026-08-31T22:19:59.000Z</when>
<gx:coord>-122.158954 45.5708905 5.5</gx:coord>

<when>2026-08-31T22:20:10.000Z</when>
<gx:coord>-122.15573049999999 45.57230616666667 6.1</gx:coord>

<when>2026-08-31T22:20:21.000Z</when>
<gx:coord>-122.15234566666668 45.57353683333334 5.9</gx:coord>

<when>2026-08-31T22:20:32.000Z</when>
<gx:coord>-122.14885066666666 45.57455483333333 6.9</gx:coord>

<when>2026-08-31T22:20:43.000Z</when>
<gx:coord>-122.145273 45.575379833333336 9.0</gx:coord>

<when>2026-08-31T22:20:54.000Z</when>
<gx:coord>-122.14169650000001 45.57609933333333 9.8</gx:coord>

<when>2026-08-31T22:21:05.000Z</when>
<gx:coord>-122.13810583333334 45.576782 9.4</gx:coord>

<when>2026-08-31T22:21:16.000Z</when>
<gx:coord>-122.13451549999999 45.57741899999999 11.0</gx:coord>

<when>2026-08-31T22:21:27.000Z</when>
<gx:coord>-122.13087816666666 45.578019 12.1</gx:coord>

<when>2026-08-31T22:21:38.000Z</when>
<gx:coord>-122.12716366666668 45.57857349999999 10.8</gx:coord>

<when>2026-08-31T22:21:49.000Z</when>
<gx:coord>-122.12341866666665 45.578989166666666 10.0</gx:coord>

<when>2026-08-31T22:22:00.000Z</when>
<gx:coord>-122.11981916666667 45.57872733333333 8.5</gx:coord>

<when>2026-08-31T22:22:11.000Z</when>
<gx:coord>-122.11629183333335 45.5784965 8.3</gx:coord>

<when>2026-08-31T22:22:22.000Z</when>
<gx:coord>-122.11283999999999 45.57921316666666 8.8</gx:coord>

<when>2026-08-31T22:22:33.000Z</when>
<gx:coord>-122.10941783333334 45.579965333333334 9.1</gx:coord>

<when>2026-08-31T22:22:44.000Z</when>
<gx:coord>-122.10600649999999 45.58070816666667 9.4</gx:coord>

<when>2026-08-31T22:22:55.000Z</when>
<gx:coord>-122.102653 45.581554833333335 10.4</gx:coord>

<when>2026-08-31T22:23:06.000Z</when>
<gx:coord>-122.09948316666666 45.5827535 9.6</gx:coord>

<when>2026-08-31T22:23:17.000Z</when>
<gx:coord>-122.096251 45.583861999999996 9.0</gx:coord>

<when>2026-08-31T22:23:28.000Z</when>
<gx:coord>-122.09287950000001 45.58470333333333 6.5</gx:coord>

<when>2026-08-31T22:23:39.000Z</when>
<gx:coord>-122.08975616666666 45.585913 7.3</gx:coord>

<when>2026-08-31T22:23:50.000Z</when>
<gx:coord>-122.086662 45.58717216666667 6.5</gx:coord>

<when>2026-08-31T22:24:01.000Z</when>
<gx:coord>-122.08355366666667 45.588458833333334 6.1</gx:coord>

<when>2026-08-31T22:24:12.000Z</when>
<gx:coord>-122.08047450000001 45.58973866666667 6.7</gx:coord>

<when>2026-08-31T22:24:23.000Z</when>
<gx:coord>-122.0774205 45.59099916666667 4.7</gx:coord>

<when>2026-08-31T22:24:34.000Z</when>
<gx:coord>-122.07433216666668 45.5922745 5.7</gx:coord>

<when>2026-08-31T22:24:45.000Z</when>
<gx:coord>-122.07119149999998 45.59354 6.1</gx:coord>

<when>2026-08-31T22:24:56.000Z</when>
<gx:coord>-122.06793316666666 45.594772666666664 6.6</gx:coord>

<when>2026-08-31T22:25:07.000Z</when>
<gx:coord>-122.06460549999998 45.595928333333326 7.2</gx:coord>

<when>2026-08-31T22:25:18.000Z</when>
<gx:coord>-122.06126316666665 45.59699183333334 8.4</gx:coord>

<when>2026-08-31T22:25:29.000Z</when>
<gx:coord>-122.05789349999999 45.59798466666666 7.6</gx:coord>

<when>2026-08-31T22:25:40.000Z</when>
<gx:coord>-122.05445633333332 45.598900500000006 7.7</gx:coord>

<when>2026-08-31T22:25:51.000Z</when>
<gx:coord>-122.05100949999999 45.59973483333333 9.9</gx:coord>

<when>2026-08-31T22:26:02.000Z</when>
<gx:coord>-122.04770083333332 45.600516166666665 16.2</gx:coord>

<when>2026-08-31T22:26:13.000Z</when>
<gx:coord>-122.04443733333333 45.60145283333333 17.6</gx:coord>

<when>2026-08-31T22:26:24.000Z</when>
<gx:coord>-122.04151566666665 45.60294316666667 17.4</gx:coord>

<when>2026-08-31T22:26:35.000Z</when>
<gx:coord>-122.03882433333335 45.6047 16.8</gx:coord>

<when>2026-08-31T22:26:46.000Z</when>
<gx:coord>-122.0359555 45.606390499999996 16.6</gx:coord>

<when>2026-08-31T22:26:57.000Z</when>
<gx:coord>-122.03286116666668 45.60793066666667 15.8</gx:coord>

<when>2026-08-31T22:27:08.000Z</when>
<gx:coord>-122.02964083333333 45.60926783333333 16.4</gx:coord>

<when>2026-08-31T22:27:19.000Z</when>
<gx:coord>-122.02626233333334 45.610375999999995 15.9</gx:coord>

<when>2026-08-31T22:27:30.000Z</when>
<gx:coord>-122.02274283333333 45.611109166666665 14.2</gx:coord>

<when>2026-08-31T22:27:41.000Z</when>
<gx:coord>-122.01920933333334 45.61167350000001 13.1</gx:coord>

<when>2026-08-31T22:27:52.000Z</when>
<gx:coord>-122.01582866666668 45.61223199999999 12.1</gx:coord>

<when>2026-08-31T22:28:03.000Z</when>
<gx:coord>-122.01264083333332 45.612705999999996 21.7</gx:coord>

<when>2026-08-31T22:28:14.000Z</when>
<gx:coord>-122.00949833333334 45.612795166666665 30.1</gx:coord>

<when>2026-08-31T22:28:25.000Z</when>
<gx:coord>-122.0063615 45.612784 31.2</gx:coord>

<when>2026-08-31T22:28:36.000Z</when>
<gx:coord>-122.00337266666665 45.61278033333333 29.0</gx:coord>

<when>2026-08-31T22:28:47.000Z</when>
<gx:coord>-122.00053299999999 45.61314133333334 23.2</gx:coord>

<when>2026-08-31T22:28:58.000Z</when>
<gx:coord>-121.99804350000001 45.614295999999996 21.7</gx:coord>

<when>2026-08-31T22:29:09.000Z</when>
<gx:coord>-121.99586333333333 45.615594333333334 26.8</gx:coord>

<when>2026-08-31T22:29:20.000Z</when>
<gx:coord>-121.99362383333333 45.616735333333324 28.3</gx:coord>

<when>2026-08-31T22:29:31.000Z</when>
<gx:coord>-121.99108383333332 45.6178615 29.1</gx:coord>

<when>2026-08-31T22:29:42.000Z</when>
<gx:coord>-121.98837116666667 45.6188845 31.8</gx:coord>

<when>2026-08-31T22:29:53.000Z</when>
<gx:coord>-121.98547016666667 45.61981216666666 34.9</gx:coord>

<when>2026-08-31T22:30:04.000Z</when>
<gx:coord>-121.98243616666666 45.620839499999995 38.3</gx:coord>

<when>2026-08-31T22:30:15.000Z</when>
<gx:coord>-121.97946750000001 45.622136166666664 40.7</gx:coord>

<when>2026-08-31T22:30:26.000Z</when>
<gx:coord>-121.976558 45.62347499999999 41.8</gx:coord>

<when>2026-08-31T22:30:37.000Z</when>
<gx:coord>-121.97356233333333 45.624875 42.6</gx:coord>

<when>2026-08-31T22:30:48.000Z</when>
<gx:coord>-121.97059883333334 45.62637683333334 42.9</gx:coord>

<when>2026-08-31T22:30:59.000Z</when>
<gx:coord>-121.96760983333334 45.627833833333334 43.6</gx:coord>

<when>2026-08-31T22:31:10.000Z</when>
<gx:coord>-121.96466233333334 45.629249333333334 43.1</gx:coord>

<when>2026-08-31T22:31:21.000Z</when>
<gx:coord>-121.96161383333335 45.630619833333334 36.9</gx:coord>

<when>2026-08-31T22:31:32.000Z</when>
<gx:coord>-121.95808866666667 45.63131083333333 26.2</gx:coord>

<when>2026-08-31T22:31:43.000Z</when>
<gx:coord>-121.95450583333334 45.63190766666666 17.3</gx:coord>

<when>2026-08-31T22:31:54.000Z</when>
<gx:coord>-121.95178200000001 45.633502833333324 24.4</gx:coord>

<when>2026-08-31T22:32:05.000Z</when>
<gx:coord>-121.94912366666668 45.634825166666666 37.7</gx:coord>

<when>2026-08-31T22:32:16.000Z</when>
<gx:coord>-121.94633999999999 45.63560466666666 46.9</gx:coord>

<when>2026-08-31T22:32:27.000Z</when>
<gx:coord>-121.94341449999999 45.6363185 49.5</gx:coord>

<when>2026-08-31T22:32:38.000Z</when>
<gx:coord>-121.94031316666666 45.63707850000001 50.3</gx:coord>

<when>2026-08-31T22:32:49.000Z</when>
<gx:coord>-121.93720183333335 45.63782533333333 44.4</gx:coord>

<when>2026-08-31T22:33:02.000Z</when>
<gx:coord>-121.93348116666667 45.63886000000001 29.5</gx:coord>

<when>2026-08-31T22:33:13.000Z</when>
<gx:coord>-121.93057583333332 45.64045516666667 25.1</gx:coord>

<when>2026-08-31T22:33:24.000Z</when>
<gx:coord>-121.92775316666666 45.642247 21.9</gx:coord>

<when>2026-08-31T22:33:35.000Z</when>
<gx:coord>-121.92473883333332 45.643926166666674 24.5</gx:coord>

<when>2026-08-31T22:33:46.000Z</when>
<gx:coord>-121.92157016666667 45.64527916666666 35.5</gx:coord>

<when>2026-08-31T22:33:57.000Z</when>
<gx:coord>-121.91858816666667 45.64654266666666 48.6</gx:coord>

<when>2026-08-31T22:34:08.000Z</when>
<gx:coord>-121.91578483333333 45.647705166666675 56.5</gx:coord>

<when>2026-08-31T22:34:19.000Z</when>
<gx:coord>-121.91293816666666 45.64894283333333 58.2</gx:coord>

<when>2026-08-31T22:34:30.000Z</when>
<gx:coord>-121.90984816666666 45.65033916666666 51.6</gx:coord>

<when>2026-08-31T22:34:41.000Z</when>
<gx:coord>-121.90681283333333 45.651732833333334 45.1</gx:coord>

<when>2026-08-31T22:34:52.000Z</when>
<gx:coord>-121.90394283333332 45.65335366666667 45.9</gx:coord>

<when>2026-08-31T22:35:03.000Z</when>
<gx:coord>-121.901459 45.65536266666666 44.1</gx:coord>

<when>2026-08-31T22:35:14.000Z</when>
<gx:coord>-121.89941166666668 45.657734 45.0</gx:coord>

<when>2026-08-31T22:35:25.000Z</when>
<gx:coord>-121.89754999999998 45.6601305 52.9</gx:coord>

<when>2026-08-31T22:35:36.000Z</when>
<gx:coord>-121.89527933333332 45.66211716666667 60.9</gx:coord>

<when>2026-08-31T22:35:47.000Z</when>
<gx:coord>-121.89282649999998 45.664019666666675 61.5</gx:coord>

<when>2026-08-31T22:35:58.000Z</when>
<gx:coord>-121.89026516666667 45.66603283333334 58.3</gx:coord>

<when>2026-08-31T22:36:09.000Z</when>
<gx:coord>-121.8873915 45.66792333333333 53.4</gx:coord>

<when>2026-08-31T22:36:20.000Z</when>
<gx:coord>-121.88400683333333 45.66932366666666 54.6</gx:coord>

<when>2026-08-31T22:36:31.000Z</when>
<gx:coord>-121.8806665 45.670652999999994 56.5</gx:coord>

<when>2026-08-31T22:36:42.000Z</when>
<gx:coord>-121.87732366666665 45.67197133333334 57.6</gx:coord>

<when>2026-08-31T22:36:53.000Z</when>
<gx:coord>-121.87393283333334 45.67333083333333 57.3</gx:coord>

<when>2026-08-31T22:37:04.000Z</when>
<gx:coord>-121.870258 45.674358 56.2</gx:coord>

<when>2026-08-31T22:37:15.000Z</when>
<gx:coord>-121.86645916666666 45.67509 58.5</gx:coord>

<when>2026-08-31T22:37:26.000Z</when>
<gx:coord>-121.86263966666665 45.6758005 55.4</gx:coord>

<when>2026-08-31T22:37:37.000Z</when>
<gx:coord>-121.85875800000001 45.676578166666665 47.2</gx:coord>

<when>2026-08-31T22:37:48.000Z</when>
<gx:coord>-121.85524433333333 45.67782366666667 36.7</gx:coord>

<when>2026-08-31T22:37:59.000Z</when>
<gx:coord>-121.8521135 45.67939200000001 30.6</gx:coord>

<when>2026-08-31T22:38:10.000Z</when>
<gx:coord>-121.84912316666666 45.68086916666666 27.7</gx:coord>

<when>2026-08-31T22:38:21.000Z</when>
<gx:coord>-121.84617416666667 45.682325000000006 25.8</gx:coord>

<when>2026-08-31T22:38:32.000Z</when>
<gx:coord>-121.84330366666667 45.683935999999996 25.3</gx:coord>

<when>2026-08-31T22:38:43.000Z</when>
<gx:coord>-121.84112166666667 45.686028333333326 24.0</gx:coord>

<when>2026-08-31T22:38:54.000Z</when>
<gx:coord>-121.83939516666666 45.688287833333334 26.1</gx:coord>

<when>2026-08-31T22:39:05.000Z</when>
<gx:coord>-121.83791449999998 45.69052283333334 33.0</gx:coord>

<when>2026-08-31T22:39:16.000Z</when>
<gx:coord>-121.83591733333333 45.69244483333333 40.4</gx:coord>

<when>2026-08-31T22:39:27.000Z</when>
<gx:coord>-121.83369499999999 45.694328 43.4</gx:coord>

<when>2026-08-31T22:39:38.000Z</when>
<gx:coord>-121.831072 45.69589933333334 41.3</gx:coord>

<when>2026-08-31T22:39:49.000Z</when>
<gx:coord>-121.82758583333334 45.69641549999999 39.8</gx:coord>

<when>2026-08-31T22:40:00.000Z</when>
<gx:coord>-121.82391533333333 45.696736166666675 40.1</gx:coord>

<when>2026-08-31T22:40:11.000Z</when>
<gx:coord>-121.82039133333335 45.69704633333334 39.3</gx:coord>

<when>2026-08-31T22:40:22.000Z</when>
<gx:coord>-121.81679799999999 45.697117666666664 36.9</gx:coord>

<when>2026-08-31T22:40:33.000Z</when>
<gx:coord>-121.81293416666668 45.696954000000005 34.5</gx:coord>

<when>2026-08-31T22:40:44.000Z</when>
<gx:coord>-121.80914400000002 45.69699633333333 42.4</gx:coord>

<when>2026-08-31T22:40:55.000Z</when>
<gx:coord>-121.80544016666666 45.696807500000006 40.2</gx:coord>

<when>2026-08-31T22:41:06.000Z</when>
<gx:coord>-121.80166249999999 45.69656633333334 38.9</gx:coord>

<when>2026-08-31T22:41:17.000Z</when>
<gx:coord>-121.79805783333335 45.69553116666666 37.7</gx:coord>

<when>2026-08-31T22:41:28.000Z</when>
<gx:coord>-121.79465049999999 45.6942905 36.0</gx:coord>

<when>2026-08-31T22:41:39.000Z</when>
<gx:coord>-121.791033 45.69341716666666 32.8</gx:coord>

<when>2026-08-31T22:41:50.000Z</when>
<gx:coord>-121.78728883333333 45.69273416666667 32.7</gx:coord>

<when>2026-08-31T22:42:01.000Z</when>
<gx:coord>-121.78370583333331 45.69183683333334 34.9</gx:coord>

<when>2026-08-31T22:42:12.000Z</when>
<gx:coord>-121.78043033333333 45.69058933333334 38.1</gx:coord>

<when>2026-08-31T22:42:23.000Z</when>
<gx:coord>-121.776822 45.690591833333336 36.4</gx:coord>

<when>2026-08-31T22:42:34.000Z</when>
<gx:coord>-121.77312633333334 45.69085933333334 39.1</gx:coord>

<when>2026-08-31T22:42:45.000Z</when>
<gx:coord>-121.76936666666667 45.691115999999994 36.3</gx:coord>

<when>2026-08-31T22:42:56.000Z</when>
<gx:coord>-121.76549000000001 45.69126583333333 34.0</gx:coord>

<when>2026-08-31T22:43:07.000Z</when>
<gx:coord>-121.76161716666665 45.690968000000005 30.4</gx:coord>

<when>2026-08-31T22:43:18.000Z</when>
<gx:coord>-121.757762 45.69043833333333 29.5</gx:coord>

<when>2026-08-31T22:43:29.000Z</when>
<gx:coord>-121.75382566666667 45.69055916666666 26.4</gx:coord>

<when>2026-08-31T22:43:40.000Z</when>
<gx:coord>-121.74994983333333 45.691123333333344 25.2</gx:coord>

<when>2026-08-31T22:43:51.000Z</when>
<gx:coord>-121.74616883333334 45.69168333333334 26.1</gx:coord>

<when>2026-08-31T22:44:02.000Z</when>
<gx:coord>-121.74244866666668 45.69218533333333 25.3</gx:coord>

<when>2026-08-31T22:44:13.000Z</when>
<gx:coord>-121.738734 45.692262666666664 24.0</gx:coord>

<when>2026-08-31T22:44:24.000Z</when>
<gx:coord>-121.73529566666666 45.69150849999999 24.2</gx:coord>

<when>2026-08-31T22:44:35.000Z</when>
<gx:coord>-121.73188383333333 45.690646666666666 25.7</gx:coord>

<when>2026-08-31T22:44:46.000Z</when>
<gx:coord>-121.72817883333333 45.690422166666664 24.7</gx:coord>

<when>2026-08-31T22:44:57.000Z</when>
<gx:coord>-121.72455433333334 45.690332999999995 25.1</gx:coord>

<when>2026-08-31T22:45:08.000Z</when>
<gx:coord>-121.72093833333332 45.690416500000005 25.0</gx:coord>

<when>2026-08-31T22:45:19.000Z</when>
<gx:coord>-121.71773083333333 45.6896125 23.7</gx:coord>

<when>2026-08-31T22:45:30.000Z</when>
<gx:coord>-121.71507199999999 45.68791516666667 22.0</gx:coord>

<when>2026-08-31T22:45:41.000Z</when>
<gx:coord>-121.71149433333333 45.687098500000005 20.2</gx:coord>

<when>2026-08-31T22:45:52.000Z</when>
<gx:coord>-121.7076615 45.686920166666674 18.1</gx:coord>

<when>2026-08-31T22:46:03.000Z</when>
<gx:coord>-121.70378516666666 45.687311666666666 19.3</gx:coord>

<when>2026-08-31T22:46:14.000Z</when>
<gx:coord>-121.69992416666668 45.687677 20.7</gx:coord>

<when>2026-08-31T22:46:25.000Z</when>
<gx:coord>-121.69601416666667 45.68765616666666 25.9</gx:coord>

<when>2026-08-31T22:46:36.000Z</when>
<gx:coord>-121.69224066666666 45.68835616666667 28.2</gx:coord>

<when>2026-08-31T22:46:47.000Z</when>
<gx:coord>-121.68907499999999 45.68983333333334 30.2</gx:coord>

<when>2026-08-31T22:46:58.000Z</when>
<gx:coord>-121.68656899999999 45.69178316666667 29.0</gx:coord>

<when>2026-08-31T22:47:09.000Z</when>
<gx:coord>-121.68354283333335 45.693436000000005 29.9</gx:coord>

<when>2026-08-31T22:47:20.000Z</when>
<gx:coord>-121.67990999999999 45.69431916666667 32.3</gx:coord>

<when>2026-08-31T22:47:31.000Z</when>
<gx:coord>-121.67603616666665 45.69469283333333 30.0</gx:coord>

<when>2026-08-31T22:47:42.000Z</when>
<gx:coord>-121.67211916666665 45.69519033333333 29.2</gx:coord>

<when>2026-08-31T22:47:53.000Z</when>
<gx:coord>-121.66875950000001 45.696489166666666 34.2</gx:coord>

<when>2026-08-31T22:48:04.000Z</when>
<gx:coord>-121.66522316666666 45.697391 39.0</gx:coord>

<when>2026-08-31T22:48:15.000Z</when>
<gx:coord>-121.66139883333332 45.69780316666667 38.0</gx:coord>

<when>2026-08-31T22:48:26.000Z</when>
<gx:coord>-121.65754383333334 45.69817150000001 34.9</gx:coord>

<when>2026-08-31T22:48:37.000Z</when>
<gx:coord>-121.65364583333333 45.698543666666666 30.9</gx:coord>

<when>2026-08-31T22:48:48.000Z</when>
<gx:coord>-121.6496975 45.69892166666667 30.0</gx:coord>

<when>2026-08-31T22:48:59.000Z</when>
<gx:coord>-121.64578583333332 45.699301 32.1</gx:coord>

<when>2026-08-31T22:49:10.000Z</when>
<gx:coord>-121.6418635 45.69967233333333 32.1</gx:coord>

<when>2026-08-31T22:49:21.000Z</when>
<gx:coord>-121.63800116666668 45.699552 25.5</gx:coord>

<when>2026-08-31T22:49:32.000Z</when>
<gx:coord>-121.63409433333332 45.699256500000004 24.7</gx:coord>

<when>2026-08-31T22:49:43.000Z</when>
<gx:coord>-121.63029399999999 45.69963116666666 26.5</gx:coord>

<when>2026-08-31T22:49:54.000Z</when>
<gx:coord>-121.62686149999999 45.70071433333332 28.0</gx:coord>

<when>2026-08-31T22:50:05.000Z</when>
<gx:coord>-121.62363849999998 45.702154 27.2</gx:coord>

<when>2026-08-31T22:50:16.000Z</when>
<gx:coord>-121.62035599999999 45.70360349999999 26.0</gx:coord>

<when>2026-08-31T22:50:27.000Z</when>
<gx:coord>-121.61685966666667 45.70440716666667 26.0</gx:coord>

<when>2026-08-31T22:50:38.000Z</when>
<gx:coord>-121.61318183333333 45.70441266666667 25.8</gx:coord>

<when>2026-08-31T22:50:49.000Z</when>
<gx:coord>-121.60938066666668 45.704361500000005 27.4</gx:coord>

<when>2026-08-31T22:51:00.000Z</when>
<gx:coord>-121.60548083333333 45.704403500000005 28.5</gx:coord>

<when>2026-08-31T22:51:11.000Z</when>
<gx:coord>-121.60167000000001 45.70452950000001 33.7</gx:coord>

<when>2026-08-31T22:51:22.000Z</when>
<gx:coord>-121.59798533333333 45.7046665 42.7</gx:coord>

<when>2026-08-31T22:51:33.000Z</when>
<gx:coord>-121.59441083333334 45.704811500000005 54.8</gx:coord>

<when>2026-08-31T22:51:44.000Z</when>
<gx:coord>-121.59097449999999 45.704950666666676 65.4</gx:coord>

<when>2026-08-31T22:51:55.000Z</when>
<gx:coord>-121.58767916666666 45.705229333333335 72.5</gx:coord>

<when>2026-08-31T22:52:06.000Z</when>
<gx:coord>-121.58452199999998 45.70575316666667 80.1</gx:coord>

<when>2026-08-31T22:52:17.000Z</when>
<gx:coord>-121.58151099999999 45.70648716666666 85.2</gx:coord>

<when>2026-08-31T22:52:28.000Z</when>
<gx:coord>-121.57833633333333 45.707007499999996 88.7</gx:coord>

<when>2026-08-31T22:52:39.000Z</when>
<gx:coord>-121.57497133333332 45.7067485 92.4</gx:coord>

<when>2026-08-31T22:52:50.000Z</when>
<gx:coord>-121.57150883333334 45.70686066666667 98.4</gx:coord>

<when>2026-08-31T22:53:01.000Z</when>
<gx:coord>-121.56817433333332 45.70743883333333 104.6</gx:coord>

<when>2026-08-31T22:53:12.000Z</when>
<gx:coord>-121.56481133333334 45.708094333333335 107.0</gx:coord>

<when>2026-08-31T22:53:23.000Z</when>
<gx:coord>-121.56119599999998 45.708828499999996 103.6</gx:coord>

<when>2026-08-31T22:53:34.000Z</when>
<gx:coord>-121.55747850000002 45.70963749999999 97.1</gx:coord>

<when>2026-08-31T22:53:45.000Z</when>
<gx:coord>-121.55367483333333 45.71045183333334 90.7</gx:coord>

<when>2026-08-31T22:53:56.000Z</when>
<gx:coord>-121.54995866666668 45.71125283333334 87.3</gx:coord>

<when>2026-08-31T22:54:07.000Z</when>
<gx:coord>-121.54626699999999 45.71198583333333 83.1</gx:coord>

<when>2026-08-31T22:54:18.000Z</when>
<gx:coord>-121.54245333333334 45.712396999999996 78.6</gx:coord>

<when>2026-08-31T22:54:29.000Z</when>
<gx:coord>-121.53862483333333 45.71251766666666 71.8</gx:coord>

<when>2026-08-31T22:54:40.000Z</when>
<gx:coord>-121.53489183333335 45.71259333333334 63.6</gx:coord>

<when>2026-08-31T22:54:51.000Z</when>
<gx:coord>-121.53117933333333 45.712659 55.4</gx:coord>

<when>2026-08-31T22:55:02.000Z</when>
<gx:coord>-121.52742066666666 45.712732499999994 46.9</gx:coord>

<when>2026-08-31T22:55:13.000Z</when>
<gx:coord>-121.523572 45.712807833333336 39.0</gx:coord>

<when>2026-08-31T22:55:24.000Z</when>
<gx:coord>-121.51978833333332 45.71269116666667 31.2</gx:coord>

<when>2026-08-31T22:55:35.000Z</when>
<gx:coord>-121.51627116666666 45.71187566666667 25.4</gx:coord>

<when>2026-08-31T22:55:46.000Z</when>
<gx:coord>-121.51346533333331 45.710987333333335 30.2</gx:coord>

<when>2026-08-31T22:55:57.000Z</when>
<gx:coord>-121.51259416666666 45.71072933333333 33.7</gx:coord>

<when>2026-08-31T22:56:08.000Z</when>
<gx:coord>-121.51223716666667 45.71077716666667 31.6</gx:coord>

<when>2026-08-31T22:56:19.000Z</when>
<gx:coord>-121.51221 45.71149233333334 29.0</gx:coord>

<when>2026-08-31T22:56:30.000Z</when>
<gx:coord>-121.51262283333332 45.71238916666666 21.7</gx:coord>

<when>2026-08-31T22:56:41.000Z</when>
<gx:coord>-121.51289200000001 45.71263916666667 22.3</gx:coord>

<when>2026-08-31T22:56:52.000Z</when>
<gx:coord>-121.51217316666667 45.71276366666666 22.0</gx:coord>

<when>2026-08-31T22:57:03.000Z</when>
<gx:coord>-121.51180666666666 45.71274766666667 20.1</gx:coord>

<when>2026-08-31T22:57:14.000Z</when>
<gx:coord>-121.51161750000001 45.7129805 12.4</gx:coord>

<when>2026-08-31T22:57:25.000Z</when>
<gx:coord>-121.51158533333334 45.713282 15.4</gx:coord>

<when>2026-08-31T22:57:36.000Z</when>
<gx:coord>-121.5115985 45.71362583333333 17.6</gx:coord>

<when>2026-08-31T22:57:47.000Z</when>
<gx:coord>-121.51157649999999 45.714042166666665 17.6</gx:coord>

<when>2026-08-31T22:57:58.000Z</when>
<gx:coord>-121.51156966666667 45.71449500000001 17.5</gx:coord>

<when>2026-08-31T22:58:09.000Z</when>
<gx:coord>-121.51177766666666 45.714791166666664 18.5</gx:coord>

<when>2026-08-31T22:58:20.000Z</when>
<gx:coord>-121.51180033333334 45.71503616666667 19.8</gx:coord>

<when>2026-08-31T22:58:31.000Z</when>
<gx:coord>-121.51177116666668 45.71539366666666 19.9</gx:coord>

<when>2026-08-31T22:58:42.000Z</when>
<gx:coord>-121.5118375 45.71552666666666 21.5</gx:coord>

<when>2026-08-31T22:58:53.000Z</when>
<gx:coord>-121.51217300000002 45.71553966666667 22.1</gx:coord>

<when>2026-08-31T22:59:04.000Z</when>
<gx:coord>-121.51237766666667 45.71554166666667 23.0</gx:coord>

<when>2026-08-31T22:59:26.000Z</when>
<gx:coord>-121.512446 45.71553533333334 22.6</gx:coord>

<when>2026-08-31T22:59:37.000Z</when>
<gx:coord>-121.51262899999999 45.71552799999999 22.7</gx:coord>

<when>2026-08-31T22:59:48.000Z</when>
<gx:coord>-121.51281949999999 45.71552633333334 22.4</gx:coord>

<when>2026-08-31T22:59:59.000Z</when>
<gx:coord>-121.513046 45.715366499999995 18.9</gx:coord>

<when>2026-09-01T00:24:33.000Z</when>
<gx:coord>-121.51314683333334 45.71535050000001 30.6</gx:coord>

<when>2026-09-01T01:23:26.000Z</when>
<gx:coord>-121.51354383333334 45.71497850000001 31.9</gx:coord>

<when>2026-09-01T01:23:37.000Z</when>
<gx:coord>-121.51379816666667 45.71493283333333 32.6</gx:coord>

<when>2026-09-01T01:23:48.000Z</when>
<gx:coord>-121.513783 45.714818 28.5</gx:coord>

<when>2026-09-01T01:23:59.000Z</when>
<gx:coord>-121.51378066666666 45.71451483333333 28.2</gx:coord>

<when>2026-09-01T01:24:10.000Z</when>
<gx:coord>-121.51382166666666 45.713943500000006 29.2</gx:coord>

<when>2026-09-01T01:24:21.000Z</when>
<gx:coord>-121.51376816666668 45.713026000000006 38.3</gx:coord>

<when>2026-09-01T01:24:32.000Z</when>
<gx:coord>-121.51322433333334 45.712622333333336 31.9</gx:coord>

<when>2026-09-01T01:24:43.000Z</when>
<gx:coord>-121.51277266666666 45.71238433333333 31.9</gx:coord>

<when>2026-09-01T01:24:54.000Z</when>
<gx:coord>-121.5123535 45.711488666666675 38.3</gx:coord>

<when>2026-09-01T01:25:05.000Z</when>
<gx:coord>-121.51236416666667 45.71068333333333 43.6</gx:coord>

<when>2026-09-01T01:25:16.000Z</when>
<gx:coord>-121.5123295 45.709907333333334 45.1</gx:coord>

<when>2026-09-01T01:25:27.000Z</when>
<gx:coord>-121.51233583333332 45.70937683333333 42.9</gx:coord>

<when>2026-09-01T01:25:38.000Z</when>
<gx:coord>-121.51237566666666 45.70904433333333 46.0</gx:coord>

<when>2026-09-01T01:25:49.000Z</when>
<gx:coord>-121.512364 45.70899533333333 46.0</gx:coord>

<when>2026-09-01T01:26:33.000Z</when>
<gx:coord>-121.51274416666665 45.708908666666666 47.4</gx:coord>

<when>2026-09-01T01:26:44.000Z</when>
<gx:coord>-121.51317416666667 45.70890899999999 51.0</gx:coord>

<when>2026-09-01T01:26:55.000Z</when>
<gx:coord>-121.51384283333333 45.70889833333334 55.4</gx:coord>

<when>2026-09-01T01:27:06.000Z</when>
<gx:coord>-121.51482366666666 45.70889166666666 63.0</gx:coord>

<when>2026-09-01T01:27:17.000Z</when>
<gx:coord>-121.51573983333334 45.70889233333334 69.2</gx:coord>

<when>2026-09-01T01:27:28.000Z</when>
<gx:coord>-121.51673466666668 45.708874833333326 76.1</gx:coord>

<when>2026-09-01T01:27:39.000Z</when>
<gx:coord>-121.5179385 45.708834666666675 82.4</gx:coord>

<when>2026-09-01T01:27:50.000Z</when>
<gx:coord>-121.51959333333335 45.708780833333336 89.6</gx:coord>

<when>2026-09-01T01:28:01.000Z</when>
<gx:coord>-121.52076433333335 45.708747499999994 88.6</gx:coord>

<when>2026-09-01T01:28:12.000Z</when>
<gx:coord>-121.5221255 45.70871 87.5</gx:coord>

<when>2026-09-01T01:28:23.000Z</when>
<gx:coord>-121.52375216666665 45.70881316666667 90.7</gx:coord>

<when>2026-09-01T01:28:34.000Z</when>
<gx:coord>-121.52488483333333 45.708772333333336 94.3</gx:coord>

<when>2026-09-01T01:28:56.000Z</when>
<gx:coord>-121.52526449999999 45.70845783333333 95.4</gx:coord>

<when>2026-09-01T01:29:07.000Z</when>
<gx:coord>-121.52525583333333 45.707474500000004 106.8</gx:coord>

<when>2026-09-01T01:29:18.000Z</when>
<gx:coord>-121.52524066666668 45.70652566666666 118.6</gx:coord>

<when>2026-09-01T01:29:29.000Z</when>
<gx:coord>-121.525236 45.70550766666667 127.5</gx:coord>

<when>2026-09-01T01:29:40.000Z</when>
<gx:coord>-121.52521566666668 45.704292 136.8</gx:coord>

<when>2026-09-01T01:29:51.000Z</when>
<gx:coord>-121.524839 45.70299333333334 147.8</gx:coord>

<when>2026-09-01T01:30:02.000Z</when>
<gx:coord>-121.52476999999999 45.70190716666666 150.7</gx:coord>

<when>2026-09-01T01:30:13.000Z</when>
<gx:coord>-121.524749 45.700884333333335 153.7</gx:coord>

<when>2026-09-01T01:30:24.000Z</when>
<gx:coord>-121.52473649999999 45.69998966666667 155.4</gx:coord>

<when>2026-09-01T01:30:35.000Z</when>
<gx:coord>-121.52493366666667 45.699597833333335 157.9</gx:coord>

<when>2026-09-01T01:30:46.000Z</when>
<gx:coord>-121.52612566666667 45.69961166666667 158.8</gx:coord>

<when>2026-09-01T01:30:57.000Z</when>
<gx:coord>-121.5278775 45.699645 159.2</gx:coord>

<when>2026-09-01T01:31:08.000Z</when>
<gx:coord>-121.52981083333334 45.699693499999995 161.2</gx:coord>

<when>2026-09-01T01:31:19.000Z</when>
<gx:coord>-121.53171433333334 45.69972683333334 162.5</gx:coord>

<when>2026-09-01T01:31:30.000Z</when>
<gx:coord>-121.53341616666667 45.69976533333333 165.7</gx:coord>

<when>2026-09-01T01:31:41.000Z</when>
<gx:coord>-121.53400183333333 45.69953416666667 167.1</gx:coord>

<when>2026-09-01T01:31:52.000Z</when>
<gx:coord>-121.53389250000001 45.69893950000001 167.4</gx:coord>

<when>2026-09-01T01:32:03.000Z</when>
<gx:coord>-121.53342766666668 45.6987475 165.6</gx:coord>

<when>2026-09-01T01:32:14.000Z</when>
<gx:coord>-121.53279883333335 45.69875516666666 163.4</gx:coord>

<when>2026-09-01T01:32:25.000Z</when>
<gx:coord>-121.532461 45.69875166666667 161.7</gx:coord>

<when>2026-09-01T01:32:36.000Z</when>
<gx:coord>-121.53218700000001 45.69874216666667 161.3</gx:coord>

<when>2026-09-01T01:32:47.000Z</when>
<gx:coord>-121.53193866666668 45.69870966666667 160.8</gx:coord>

<when>2026-09-01T01:32:58.000Z</when>
<gx:coord>-121.53178666666666 45.698789000000005 162.0</gx:coord>

<when>2026-09-01T01:33:42.000Z</when>
<gx:coord>-121.53177416666668 45.698863333333335 165.1</gx:coord>

<when>2026-09-01T01:34:15.000Z</when>
<gx:coord>-121.53180249999998 45.69878883333334 164.3</gx:coord>

<when>2026-09-01T01:34:59.000Z</when>
<gx:coord>-121.53180300000001 45.69874033333334 163.1</gx:coord>
</gx:Track>
</Placemark></Document></kml>
