<?xml version="1.0" encoding="UTF-8"?><kml xmlns="http://www.opengis.net/kml/2.2" xmlns:gx="http://www.google.com/kml/ext/2.2" xmlns:kml="http://www.opengis.net/kml/2.2" xmlns:atom="http://www.w3.org/2005/Atom"><Document><name>2026-01-03T18:30:03.000Z</name>
<Placemark>
<gx:Track>

<when>2026-01-03T18:30:03.000Z</when>
<gx:coord>-109.98918383333333 24.05401 26.7</gx:coord>

<when>2026-01-03T18:31:19.000Z</when>
<gx:coord>-109.98913149999998 24.054026833333335 11.5</gx:coord>

<when>2026-01-03T18:34:04.000Z</when>
<gx:coord>-109.98919983333332 24.054043666666665 11.2</gx:coord>

<when>2026-01-03T18:35:21.000Z</when>
<gx:coord>-109.98918433333334 24.054086666666663 12.2</gx:coord>

<when>2026-01-03T18:39:12.000Z</when>
<gx:coord>-109.98913499999999 24.054074 6.6</gx:coord>

<when>2026-01-03T18:41:02.000Z</when>
<gx:coord>-109.98917333333333 24.054043833333335 11.3</gx:coord>

<when>2026-01-03T18:45:59.000Z</when>
<gx:coord>-109.98912883333333 24.054021499999998 -5.4</gx:coord>

<when>2026-01-03T18:47:05.000Z</when>
<gx:coord>-109.98917916666666 24.053999999999995 -3.8</gx:coord>

<when>2026-01-03T18:49:50.000Z</when>
<gx:coord>-109.98916083333333 24.054048833333333 -3.6</gx:coord>

<when>2026-01-03T19:00:39.000Z</when>
<gx:coord>-109.98913116666667 24.054087166666665 -5.8</gx:coord>

<when>2026-01-03T19:03:02.000Z</when>
<gx:coord>-109.98914966666668 24.054040166666663 0.4</gx:coord>

<when>2026-01-03T19:04:19.000Z</when>
<gx:coord>-109.9891905 24.054004833333337 4.7</gx:coord>

<when>2026-01-03T19:06:20.000Z</when>
<gx:coord>-109.98913900000001 24.054012333333336 6.0</gx:coord>

<when>2026-01-03T19:16:25.000Z</when>
<gx:coord>-109.98912666666665 24.054061333333333 3.5</gx:coord>

<when>2026-01-03T19:20:38.000Z</when>
<gx:coord>-109.98917683333333 24.054046333333336 8.3</gx:coord>

<when>2026-01-03T19:35:29.000Z</when>
<gx:coord>-109.98920783333332 24.054010499999997 13.9</gx:coord>

<when>2026-01-03T19:49:14.000Z</when>
<gx:coord>-109.98916033333334 24.054029500000002 8.9</gx:coord>

<when>2026-01-03T19:52:32.000Z</when>
<gx:coord>-109.98917566666665 24.053983166666665 10.4</gx:coord>
</gx:Track>
</Placemark></Document></kml>
