<?xml version="1.0" encoding="UTF-8" ?><gpx version="1.1" creator="GPSLogger 135 - http://gpslogger.mendhak.com/" xmlns:xsi="http://www.w3.org/2001/XMLSchema-instance" xmlns="http://www.topografix.com/GPX/1/1" xmlns:gpxtpx="http://www.garmin.com/xmlschemas/TrackPointExtension/v2" xsi:schemaLocation="http://www.topografix.com/GPX/1/1 http://www.topografix.com/GPX/1/1/gpx.xsd http://www.garmin.com/xmlschemas/TrackPointExtension/v2 https://www8.garmin.com/xmlschemas/TrackPointExtensionv2.xsd "><metadata><time>2026-01-14T23:56:01.000Z</time></metadata><trk><name>20260114</name><trkseg><trkpt lat="24.053895333333337" lon="-109.98903666666665"><time>2026-01-14T23:56:01.000Z</time><extensions><gpxtpx:TrackPointExtension><gpxtpx:speed>0.22338945</gpxtpx:speed></gpxtpx:TrackPointExtension></extensions><src>gps</src><hdop>2.31</hdop><vdop>5.71</vdop><pdop>6.16</pdop></trkpt>
<trkpt lat="24.053935499999998" lon="-109.98906216666667"><ele>1.9</ele><time>2026-01-14T23:56:46.000Z</time><extensions><gpxtpx:TrackPointExtension><gpxtpx:speed>0.09007639</gpxtpx:speed></gpxtpx:TrackPointExtension></extensions><geoidheight>-32.4</geoidheight><src>gps</src><sat>10</sat><hdop>1.17</hdop><vdop>1.29</vdop><pdop>1.75</pdop></trkpt>
<trkpt lat="24.053937333333337" lon="-109.98911533333333"><ele>8.9</ele><time>2026-01-14T23:57:19.000Z</time><extensions><gpxtpx:TrackPointExtension><gpxtpx:speed>0.008235555</gpxtpx:speed></gpxtpx:TrackPointExtension></extensions><geoidheight>-32.4</geoidheight><src>gps</src><sat>12</sat><hdop>0.79</hdop><vdop>1.08</vdop><pdop>1.34</pdop><dgpsid>0000</dgpsid></trkpt>
<trkpt lat="24.053975999999995" lon="-109.98914616666667"><ele>7.6</ele><time>2026-01-15T00:02:06.000Z</time><extensions><gpxtpx:TrackPointExtension><gpxtpx:speed>0.014926945</gpxtpx:speed></gpxtpx:TrackPointExtension></extensions><geoidheight>-32.4</geoidheight><src>gps</src><sat>14</sat><hdop>0.71</hdop><vdop>1.04</vdop><pdop>1.26</pdop><dgpsid>0000</dgpsid></trkpt>
<trkpt lat="24.053956166666662" lon="-109.98919366666665"><ele>15.9</ele><time>2026-01-15T00:06:01.000Z</time><extensions><gpxtpx:TrackPointExtension><gpxtpx:speed>0.030368611</gpxtpx:speed></gpxtpx:TrackPointExtension></extensions><geoidheight>-32.4</geoidheight><src>gps</src><sat>16</sat><hdop>0.66</hdop><vdop>1.05</vdop><pdop>1.24</pdop><dgpsid>0000</dgpsid></trkpt>
<trkpt lat="24.053970333333336" lon="-109.98914199999999"><ele>4.2</ele><time>2026-01-15T00:09:19.000Z</time><extensions><gpxtpx:TrackPointExtension><gpxtpx:speed>0.036030557</gpxtpx:speed></gpxtpx:TrackPointExtension></extensions><geoidheight>-32.4</geoidheight><src>gps</src><sat>16</sat><hdop>0.63</hdop><vdop>0.92</vdop><pdop>1.11</pdop><dgpsid>0000</dgpsid></trkpt>
<trkpt lat="24.0540175" lon="-109.98914816666665"><ele>3.0</ele><time>2026-01-15T00:14:38.000Z</time><extensions><gpxtpx:TrackPointExtension><gpxtpx:speed>0.0324275</gpxtpx:speed></gpxtpx:TrackPointExtension></extensions><geoidheight>-32.4</geoidheight><src>gps</src><sat>16</sat><hdop>0.63</hdop><vdop>0.92</vdop><pdop>1.12</pdop><dgpsid>0000</dgpsid></trkpt>
<trkpt lat="24.053989" lon="-109.98918683333335"><ele>7.6</ele><time>2026-01-15T00:31:39.000Z</time><extensions><gpxtpx:TrackPointExtension><gpxtpx:speed>0.015441666</gpxtpx:speed></gpxtpx:TrackPointExtension></extensions><geoidheight>-32.4</geoidheight><src>gps</src><sat>17</sat><hdop>0.62</hdop><vdop>0.90</vdop><pdop>1.09</pdop><dgpsid>0000</dgpsid></trkpt>
<trkpt lat="24.05396766666667" lon="-109.98913433333334"><ele>4.1</ele><time>2026-01-15T00:42:28.000Z</time><extensions><gpxtpx:TrackPointExtension><gpxtpx:speed>0.028824445</gpxtpx:speed></gpxtpx:TrackPointExtension></extensions><geoidheight>-32.4</geoidheight><src>gps</src><sat>18</sat><hdop>0.74</hdop><vdop>0.94</vdop><pdop>1.19</pdop><dgpsid>0000</dgpsid></trkpt>
<trkpt lat="24.05399" lon="-109.98917883333334"><ele>10.1</ele><time>2026-01-15T00:49:59.000Z</time><extensions><gpxtpx:TrackPointExtension><gpxtpx:speed>0.007720833</gpxtpx:speed></gpxtpx:TrackPointExtension></extensions><geoidheight>-32.4</geoidheight><src>gps</src><sat>18</sat><hdop>0.62</hdop><vdop>0.88</vdop><pdop>1.07</pdop><dgpsid>0000</dgpsid></trkpt>
</trkseg></trk></gpx>