<?xml version="1.0" encoding="UTF-8" ?><gpx version="1.1" creator="GPSLogger 135 - http://gpslogger.mendhak.com/" xmlns:xsi="http://www.w3.org/2001/XMLSchema-instance" xmlns="http://www.topografix.com/GPX/1/1" xmlns:gpxtpx="http://www.garmin.com/xmlschemas/TrackPointExtension/v2" xsi:schemaLocation="http://www.topografix.com/GPX/1/1 http://www.topografix.com/GPX/1/1/gpx.xsd http://www.garmin.com/xmlschemas/TrackPointExtension/v2 https://www8.garmin.com/xmlschemas/TrackPointExtensionv2.xsd "><metadata><time>2026-01-07T18:23:12.000Z</time></metadata><trk><name>20260107</name><trkseg><trkpt lat="24.054003833333333" lon="-109.98914600000002"><ele>16.1</ele><time>2026-01-07T18:23:12.000Z</time><extensions><gpxtpx:TrackPointExtension><gpxtpx:speed>0.061766665</gpxtpx:speed></gpxtpx:TrackPointExtension></extensions><geoidheight>-32.4</geoidheight><src>gps</src><sat>5</sat><hdop>1.95</hdop><vdop>3.25</vdop><pdop>3.80</pdop></trkpt>
<trkpt lat="24.05399166666667" lon="-109.98919983333332"><ele>23.1</ele><time>2026-01-07T18:24:08.000Z</time><extensions><gpxtpx:TrackPointExtension><gpxtpx:speed>0.024191944</gpxtpx:speed></gpxtpx:TrackPointExtension></extensions><geoidheight>-32.4</geoidheight><src>gps</src><sat>13</sat><hdop>0.79</hdop><vdop>1.33</vdop><pdop>1.54</pdop></trkpt>
<trkpt lat="24.05403066666667" lon="-109.98916883333335"><ele>17.2</ele><time>2026-01-07T18:25:47.000Z</time><extensions><gpxtpx:TrackPointExtension><gpxtpx:speed>0.045295555</gpxtpx:speed></gpxtpx:TrackPointExtension></extensions><geoidheight>-32.4</geoidheight><src>gps</src><sat>17</sat><hdop>0.62</hdop><vdop>1.09</vdop><pdop>1.25</pdop><dgpsid>0000</dgpsid></trkpt>
<trkpt lat="24.054065833333333" lon="-109.989134"><ele>2.6</ele><time>2026-01-07T18:29:18.000Z</time><extensions><gpxtpx:TrackPointExtension><gpxtpx:speed>0.009265</gpxtpx:speed></gpxtpx:TrackPointExtension></extensions><geoidheight>-32.4</geoidheight><src>gps</src><sat>18</sat><hdop>0.56</hdop><vdop>0.99</vdop><pdop>1.14</pdop><dgpsid>0000</dgpsid></trkpt>
<trkpt lat="24.05401733333333" lon="-109.98912666666665"><ele>3.7</ele><time>2026-01-07T18:45:26.000Z</time><extensions><gpxtpx:TrackPointExtension><gpxtpx:speed>0.072061114</gpxtpx:speed></gpxtpx:TrackPointExtension></extensions><geoidheight>-32.4</geoidheight><src>gps</src><sat>18</sat><hdop>0.64</hdop><vdop>1.03</vdop><pdop>1.21</pdop><dgpsid>0000</dgpsid></trkpt>
<trkpt lat="24.05400966666667" lon="-109.98907516666668"><ele>-0.2</ele><time>2026-01-07T18:54:03.000Z</time><extensions><gpxtpx:TrackPointExtension><gpxtpx:speed>0.025221389</gpxtpx:speed></gpxtpx:TrackPointExtension></extensions><geoidheight>-32.4</geoidheight><src>gps</src><sat>19</sat><hdop>0.57</hdop><vdop>0.94</vdop><pdop>1.10</pdop><dgpsid>0000</dgpsid></trkpt>
<trkpt lat="24.054018666666668" lon="-109.98912800000001"><ele>4.1</ele><time>2026-01-07T18:56:26.000Z</time><extensions><gpxtpx:TrackPointExtension><gpxtpx:speed>0.012868055</gpxtpx:speed></gpxtpx:TrackPointExtension></extensions><geoidheight>-32.4</geoidheight><src>gps</src><sat>19</sat><hdop>0.56</hdop><vdop>0.95</vdop><pdop>1.10</pdop><dgpsid>0000</dgpsid></trkpt>
<trkpt lat="24.05404283333333" lon="-109.98908483333335"><ele>-4.3</ele><time>2026-01-07T19:00:50.000Z</time><extensions><gpxtpx:TrackPointExtension><gpxtpx:speed>0.011838611</gpxtpx:speed></gpxtpx:TrackPointExtension></extensions><geoidheight>-32.4</geoidheight><src>gps</src><sat>18</sat><hdop>0.62</hdop><vdop>1.05</vdop><pdop>1.22</pdop><dgpsid>0000</dgpsid></trkpt>
<trkpt lat="24.054024833333333" lon="-109.98913233333333"><ele>3.2</ele><time>2026-01-07T19:03:24.000Z</time><extensions><gpxtpx:TrackPointExtension><gpxtpx:speed>0.035515834</gpxtpx:speed></gpxtpx:TrackPointExtension></extensions><geoidheight>-32.4</geoidheight><src>gps</src><sat>18</sat><hdop>0.54</hdop><vdop>0.94</vdop><pdop>1.08</pdop><dgpsid>0000</dgpsid></trkpt>
<trkpt lat="24.054001666666668" lon="-109.98918266666666"><ele>9.1</ele><time>2026-01-07T19:17:09.000Z</time><extensions><gpxtpx:TrackPointExtension><gpxtpx:speed>0.0030883334</gpxtpx:speed></gpxtpx:TrackPointExtension></extensions><geoidheight>-32.4</geoidheight><src>gps</src><sat>18</sat><hdop>0.62</hdop><vdop>1.06</vdop><pdop>1.23</pdop><dgpsid>0000</dgpsid></trkpt>
<trkpt lat="24.053987666666664" lon="-109.98913516666668"><ele>11.1</ele><time>2026-01-07T19:19:10.000Z</time><extensions><gpxtpx:TrackPointExtension><gpxtpx:speed>0.0036030556</gpxtpx:speed></gpxtpx:TrackPointExtension></extensions><geoidheight>-32.4</geoidheight><src>gps</src><sat>18</sat><hdop>0.53</hdop><vdop>0.91</vdop><pdop>1.05</pdop><dgpsid>0000</dgpsid></trkpt>
<trkpt lat="24.054019333333333" lon="-109.98917733333334"><ele>12.0</ele><time>2026-01-07T19:22:28.000Z</time><extensions><gpxtpx:TrackPointExtension><gpxtpx:speed>0.007206111</gpxtpx:speed></gpxtpx:TrackPointExtension></extensions><geoidheight>-32.4</geoidheight><src>gps</src><sat>18</sat><hdop>0.60</hdop><vdop>1.13</vdop><pdop>1.28</pdop><dgpsid>0000</dgpsid></trkpt>
<trkpt lat="24.054005999999998" lon="-109.98912766666666"><ele>3.5</ele><time>2026-01-07T19:28:53.000Z</time><extensions><gpxtpx:TrackPointExtension><gpxtpx:speed>0.027280279</gpxtpx:speed></gpxtpx:TrackPointExtension></extensions><geoidheight>-32.4</geoidheight><src>gps</src><sat>17</sat><hdop>0.60</hdop><vdop>1.13</vdop><pdop>1.28</pdop><dgpsid>0000</dgpsid></trkpt>
<trkpt lat="24.05401416666667" lon="-109.98917750000001"><ele>12.2</ele><time>2026-01-07T19:48:52.000Z</time><extensions><gpxtpx:TrackPointExtension><gpxtpx:speed>0.008750278</gpxtpx:speed></gpxtpx:TrackPointExtension></extensions><geoidheight>-32.4</geoidheight><src>gps</src><sat>18</sat><hdop>0.64</hdop><vdop>1.04</vdop><pdop>1.22</pdop><dgpsid>0000</dgpsid></trkpt>
<trkpt lat="24.05397233333333" lon="-109.9891475"><ele>16.2</ele><time>2026-01-07T20:00:14.000Z</time><extensions><gpxtpx:TrackPointExtension><gpxtpx:speed>0.010294445</gpxtpx:speed></gpxtpx:TrackPointExtension></extensions><geoidheight>-32.4</geoidheight><src>gps</src><sat>18</sat><hdop>0.67</hdop><vdop>1.00</vdop><pdop>1.20</pdop><dgpsid>0000</dgpsid></trkpt>
<trkpt lat="24.05401433333333" lon="-109.989168"><ele>16.0</ele><time>2026-01-07T20:01:09.000Z</time><extensions><gpxtpx:TrackPointExtension><gpxtpx:speed>0.027280279</gpxtpx:speed></gpxtpx:TrackPointExtension></extensions><geoidheight>-32.4</geoidheight><src>gps</src><sat>18</sat><hdop>0.60</hdop><vdop>0.92</vdop><pdop>1.09</pdop><dgpsid>0000</dgpsid></trkpt>
<trkpt lat="24.053982833333333" lon="-109.98912383333332"><ele>6.8</ele><time>2026-01-07T20:04:27.000Z</time><extensions><gpxtpx:TrackPointExtension><gpxtpx:speed>0.008235555</gpxtpx:speed></gpxtpx:TrackPointExtension></extensions><geoidheight>-32.4</geoidheight><src>gps</src><sat>18</sat><hdop>0.72</hdop><vdop>1.12</vdop><pdop>1.33</pdop><dgpsid>0000</dgpsid></trkpt>
<trkpt lat="24.054009166666667" lon="-109.98917133333335"><ele>15.0</ele><time>2026-01-07T20:06:17.000Z</time><extensions><gpxtpx:TrackPointExtension><gpxtpx:speed>0.012868055</gpxtpx:speed></gpxtpx:TrackPointExtension></extensions><geoidheight>-32.4</geoidheight><src>gps</src><sat>18</sat><hdop>0.76</hdop><vdop>1.24</vdop><pdop>1.46</pdop><dgpsid>0000</dgpsid></trkpt>
<trkpt lat="24.053963" lon="-109.98917283333334"><ele>9.8</ele><time>2026-01-07T20:08:51.000Z</time><extensions><gpxtpx:TrackPointExtension><gpxtpx:speed>0.014926945</gpxtpx:speed></gpxtpx:TrackPointExtension></extensions><geoidheight>-32.4</geoidheight><src>gps</src><sat>18</sat><hdop>0.71</hdop><vdop>1.13</vdop><pdop>1.33</pdop><dgpsid>0000</dgpsid></trkpt>
<trkpt lat="24.053980666666668" lon="-109.98912383333332"><ele>5.9</ele><time>2026-01-07T20:11:03.000Z</time><extensions><gpxtpx:TrackPointExtension><gpxtpx:speed>0.019044721</gpxtpx:speed></gpxtpx:TrackPointExtension></extensions><geoidheight>-32.4</geoidheight><src>gps</src><sat>18</sat><hdop>0.64</hdop><vdop>0.81</vdop><pdop>1.04</pdop><dgpsid>0000</dgpsid></trkpt>
<trkpt lat="24.054014666666664" lon="-109.98916133333333"><ele>9.4</ele><time>2026-01-07T20:19:17.000Z</time><extensions><gpxtpx:TrackPointExtension><gpxtpx:speed>0.025221389</gpxtpx:speed></gpxtpx:TrackPointExtension></extensions><geoidheight>-32.4</geoidheight><src>gps</src><sat>17</sat><hdop>0.63</hdop><vdop>0.88</vdop><pdop>1.08</pdop><dgpsid>0000</dgpsid></trkpt>
<trkpt lat="24.0539855" lon="-109.98919933333333"><ele>14.7</ele><time>2026-01-07T20:24:03.000Z</time><extensions><gpxtpx:TrackPointExtension><gpxtpx:speed>0.010809166</gpxtpx:speed></gpxtpx:TrackPointExtension></extensions><geoidheight>-32.4</geoidheight><src>gps</src><sat>17</sat><hdop>0.61</hdop><vdop>0.85</vdop><pdop>1.04</pdop><dgpsid>0000</dgpsid></trkpt>
<trkpt lat="24.053998" lon="-109.98914966666668"><ele>15.1</ele><time>2026-01-07T20:28:16.000Z</time><extensions><gpxtpx:TrackPointExtension><gpxtpx:speed>0.0041177776</gpxtpx:speed></gpxtpx:TrackPointExtension></extensions><geoidheight>-32.4</geoidheight><src>gps</src><sat>17</sat><hdop>0.64</hdop><vdop>0.90</vdop><pdop>1.10</pdop><dgpsid>0000</dgpsid></trkpt>
</trkseg></trk></gpx>