<?xml version="1.0" encoding="UTF-8"?><kml xmlns="http://www.opengis.net/kml/2.2" xmlns:gx="http://www.google.com/kml/ext/2.2" xmlns:kml="http://www.opengis.net/kml/2.2" xmlns:atom="http://www.w3.org/2005/Atom"><Document><name>2026-09-22T00:38:20.000Z</name>
<Placemark>
<gx:Track>

<when>2026-09-22T00:38:20.000Z</when>
<gx:coord>-121.53184283333333 45.69870183333334 166.6</gx:coord>

<when>2026-09-22T00:38:31.000Z</when>
<gx:coord>-121.53179916666667 45.69866233333334 159.7</gx:coord>

<when>2026-09-22T00:38:53.000Z</when>
<gx:coord>-121.53179583333333 45.69872216666666 162.7</gx:coord>

<when>2026-09-22T00:52:38.000Z</when>
<gx:coord>-121.53182183333332 45.69876783333334 167.7</gx:coord>

<when>2026-09-22T00:55:23.000Z</when>
<gx:coord>-121.53184033333334 45.69872183333334 165.2</gx:coord>

<when>2026-09-22T01:54:04.000Z</when>
<gx:coord>-121.5317855 45.698738000000006 173.7</gx:coord>

<when>2026-09-22T01:54:59.000Z</when>
<gx:coord>-121.53203550000002 45.69877316666666 166.9</gx:coord>

<when>2026-09-22T01:55:10.000Z</when>
<gx:coord>-121.532208 45.69876533333333 165.9</gx:coord>

<when>2026-09-22T01:55:21.000Z</when>
<gx:coord>-121.53240416666668 45.69876233333333 164.3</gx:coord>

<when>2026-09-22T01:55:32.000Z</when>
<gx:coord>-121.53254733333333 45.69875699999999 163.3</gx:coord>

<when>2026-09-22T01:55:43.000Z</when>
<gx:coord>-121.53277866666667 45.698767333333336 161.4</gx:coord>

<when>2026-09-22T01:55:54.000Z</when>
<gx:coord>-121.533038 45.69877383333334 161.7</gx:coord>

<when>2026-09-22T01:56:05.000Z</when>
<gx:coord>-121.53341700000001 45.69871816666667 161.5</gx:coord>

<when>2026-09-22T01:56:16.000Z</when>
<gx:coord>-121.53364716666668 45.69879433333334 160.9</gx:coord>

<when>2026-09-22T01:56:27.000Z</when>
<gx:coord>-121.53377616666667 45.699083 158.9</gx:coord>

<when>2026-09-22T01:56:38.000Z</when>
<gx:coord>-121.53377833333334 45.699433666666664 157.3</gx:coord>

<when>2026-09-22T01:56:49.000Z</when>
<gx:coord>-121.5337785 45.699644500000005 155.9</gx:coord>

<when>2026-09-22T01:57:00.000Z</when>
<gx:coord>-121.53394783333333 45.699772 153.0</gx:coord>

<when>2026-09-22T01:57:11.000Z</when>
<gx:coord>-121.53419749999999 45.699873499999995 152.4</gx:coord>

<when>2026-09-22T01:57:22.000Z</when>
<gx:coord>-121.534189 45.700200166666676 152.0</gx:coord>

<when>2026-09-22T01:57:33.000Z</when>
<gx:coord>-121.53419533333333 45.70062333333333 150.4</gx:coord>

<when>2026-09-22T01:57:44.000Z</when>
<gx:coord>-121.534189 45.701239333333326 147.1</gx:coord>

<when>2026-09-22T01:57:55.000Z</when>
<gx:coord>-121.53417666666668 45.701951333333334 141.1</gx:coord>

<when>2026-09-22T01:58:06.000Z</when>
<gx:coord>-121.53416033333333 45.70263866666666 136.2</gx:coord>

<when>2026-09-22T01:58:17.000Z</when>
<gx:coord>-121.53418366666668 45.70328666666666 130.8</gx:coord>

<when>2026-09-22T01:58:28.000Z</when>
<gx:coord>-121.53417183333335 45.703644000000004 129.2</gx:coord>

<when>2026-09-22T01:58:39.000Z</when>
<gx:coord>-121.53414 45.70393933333333 127.5</gx:coord>

<when>2026-09-22T01:58:50.000Z</when>
<gx:coord>-121.533721 45.70435116666666 121.2</gx:coord>

<when>2026-09-22T01:59:01.000Z</when>
<gx:coord>-121.533605 45.70509383333333 116.4</gx:coord>

<when>2026-09-22T01:59:12.000Z</when>
<gx:coord>-121.53358099999998 45.70576716666666 113.2</gx:coord>

<when>2026-09-22T01:59:23.000Z</when>
<gx:coord>-121.53358666666666 45.706456333333335 110.5</gx:coord>

<when>2026-09-22T01:59:34.000Z</when>
<gx:coord>-121.5335805 45.707080833333336 107.3</gx:coord>

<when>2026-09-22T01:59:45.000Z</when>
<gx:coord>-121.53362200000001 45.70726716666666 106.0</gx:coord>

<when>2026-09-22T01:59:56.000Z</when>
<gx:coord>-121.53406516666668 45.70733233333333 107.3</gx:coord>

<when>2026-09-22T02:00:07.000Z</when>
<gx:coord>-121.53479666666665 45.70731966666667 105.2</gx:coord>

<when>2026-09-22T02:00:18.000Z</when>
<gx:coord>-121.5360225 45.707324 105.3</gx:coord>

<when>2026-09-22T02:00:29.000Z</when>
<gx:coord>-121.53744766666665 45.7073355 109.2</gx:coord>

<when>2026-09-22T02:00:40.000Z</when>
<gx:coord>-121.53861950000001 45.70734733333334 107.9</gx:coord>

<when>2026-09-22T02:00:52.000Z</when>
<gx:coord>-121.53882016666667 45.70747183333333 105.1</gx:coord>

<when>2026-09-22T02:01:03.000Z</when>
<gx:coord>-121.53882116666666 45.70808166666667 97.2</gx:coord>

<when>2026-09-22T02:01:14.000Z</when>
<gx:coord>-121.5388045 45.70903866666666 83.6</gx:coord>

<when>2026-09-22T02:01:25.000Z</when>
<gx:coord>-121.5387985 45.709925999999996 73.9</gx:coord>

<when>2026-09-22T02:01:36.000Z</when>
<gx:coord>-121.53885883333332 45.71035683333333 70.5</gx:coord>

<when>2026-09-22T02:01:47.000Z</when>
<gx:coord>-121.53906283333332 45.7105935 70.5</gx:coord>

<when>2026-09-22T02:02:00.000Z</when>
<gx:coord>-121.54078216666667 45.71086066666667 68.3</gx:coord>

<when>2026-09-22T02:02:11.000Z</when>
<gx:coord>-121.54259466666666 45.710826166666656 70.6</gx:coord>

<when>2026-09-22T02:02:22.000Z</when>
<gx:coord>-121.54450116666666 45.71075166666666 76.5</gx:coord>

<when>2026-09-22T02:02:33.000Z</when>
<gx:coord>-121.54608433333333 45.7105935 81.4</gx:coord>

<when>2026-09-22T02:02:44.000Z</when>
<gx:coord>-121.54767716666666 45.71054966666667 85.2</gx:coord>

<when>2026-09-22T02:02:55.000Z</when>
<gx:coord>-121.54939533333332 45.71090733333334 93.2</gx:coord>

<when>2026-09-22T02:03:06.000Z</when>
<gx:coord>-121.55051200000001 45.71152 97.1</gx:coord>

<when>2026-09-22T02:03:17.000Z</when>
<gx:coord>-121.55131733333334 45.71141783333334 96.4</gx:coord>

<when>2026-09-22T02:03:28.000Z</when>
<gx:coord>-121.55310216666666 45.71083283333334 95.2</gx:coord>

<when>2026-09-22T02:03:39.000Z</when>
<gx:coord>-121.55539683333333 45.71027766666666 97.1</gx:coord>

<when>2026-09-22T02:03:50.000Z</when>
<gx:coord>-121.55790033333332 45.7097205 102.5</gx:coord>

<when>2026-09-22T02:04:01.000Z</when>
<gx:coord>-121.56050750000001 45.70916583333333 106.8</gx:coord>

<when>2026-09-22T02:04:12.000Z</when>
<gx:coord>-121.5631805 45.708593666666665 111.3</gx:coord>

<when>2026-09-22T02:04:23.000Z</when>
<gx:coord>-121.56606433333333 45.708013 111.1</gx:coord>

<when>2026-09-22T02:04:34.000Z</when>
<gx:coord>-121.56920999999998 45.707385499999994 106.3</gx:coord>

<when>2026-09-22T02:04:45.000Z</when>
<gx:coord>-121.57262283333333 45.706913500000006 96.0</gx:coord>

<when>2026-09-22T02:04:56.000Z</when>
<gx:coord>-121.57623083333334 45.70700283333334 90.5</gx:coord>

<when>2026-09-22T02:05:07.000Z</when>
<gx:coord>-121.57974399999999 45.707051666666665 88.6</gx:coord>

<when>2026-09-22T02:05:18.000Z</when>
<gx:coord>-121.5830645 45.70623783333334 84.5</gx:coord>

<when>2026-09-22T02:05:29.000Z</when>
<gx:coord>-121.58657033333333 45.70553816666667 75.2</gx:coord>

<when>2026-09-22T02:05:40.000Z</when>
<gx:coord>-121.59032366666666 45.705149 62.7</gx:coord>

<when>2026-09-22T02:05:51.000Z</when>
<gx:coord>-121.59416733333335 45.704998666666675 54.2</gx:coord>

<when>2026-09-22T02:06:02.000Z</when>
<gx:coord>-121.5979585 45.70485733333333 44.0</gx:coord>

<when>2026-09-22T02:06:13.000Z</when>
<gx:coord>-121.601642 45.704710999999996 37.0</gx:coord>

<when>2026-09-22T02:06:24.000Z</when>
<gx:coord>-121.60541666666668 45.70457316666666 30.9</gx:coord>

<when>2026-09-22T02:06:35.000Z</when>
<gx:coord>-121.60915316666666 45.704500833333334 27.3</gx:coord>

<when>2026-09-22T02:06:46.000Z</when>
<gx:coord>-121.61286333333334 45.704558666666664 25.0</gx:coord>

<when>2026-09-22T02:06:57.000Z</when>
<gx:coord>-121.61647716666667 45.704586500000005 25.5</gx:coord>

<when>2026-09-22T02:07:08.000Z</when>
<gx:coord>-121.61981983333332 45.70396433333334 25.0</gx:coord>

<when>2026-09-22T02:07:19.000Z</when>
<gx:coord>-121.62284233333334 45.702679833333335 28.2</gx:coord>

<when>2026-09-22T02:07:30.000Z</when>
<gx:coord>-121.62580766666666 45.70134233333333 30.4</gx:coord>

<when>2026-09-22T02:07:41.000Z</when>
<gx:coord>-121.62894633333332 45.70011216666667 31.0</gx:coord>

<when>2026-09-22T02:07:52.000Z</when>
<gx:coord>-121.63250850000001 45.6994755 30.1</gx:coord>

<when>2026-09-22T02:08:03.000Z</when>
<gx:coord>-121.63618566666668 45.69954333333333 28.7</gx:coord>

<when>2026-09-22T02:08:14.000Z</when>
<gx:coord>-121.63969266666666 45.699901 33.9</gx:coord>

<when>2026-09-22T02:08:25.000Z</when>
<gx:coord>-121.64314283333333 45.699737166666665 35.6</gx:coord>

<when>2026-09-22T02:08:36.000Z</when>
<gx:coord>-121.646749 45.69938966666667 32.1</gx:coord>

<when>2026-09-22T02:08:47.000Z</when>
<gx:coord>-121.650402 45.699041 25.3</gx:coord>

<when>2026-09-22T02:08:58.000Z</when>
<gx:coord>-121.65405783333333 45.698691666666676 25.5</gx:coord>

<when>2026-09-22T02:09:09.000Z</when>
<gx:coord>-121.65770416666668 45.69833700000001 31.2</gx:coord>

<when>2026-09-22T02:09:20.000Z</when>
<gx:coord>-121.66132983333334 45.69799266666667 35.1</gx:coord>

<when>2026-09-22T02:09:31.000Z</when>
<gx:coord>-121.66498466666665 45.69760633333333 36.8</gx:coord>

<when>2026-09-22T02:09:42.000Z</when>
<gx:coord>-121.66853983333334 45.69675083333333 35.1</gx:coord>

<when>2026-09-22T02:09:54.000Z</when>
<gx:coord>-121.67213733333334 45.695371666666674 29.1</gx:coord>

<when>2026-09-22T02:10:05.000Z</when>
<gx:coord>-121.67584766666666 45.69489416666667 31.2</gx:coord>

<when>2026-09-22T02:10:16.000Z</when>
<gx:coord>-121.67956616666667 45.69455183333333 35.3</gx:coord>

<when>2026-09-22T02:10:27.000Z</when>
<gx:coord>-121.6831435 45.693766000000004 34.2</gx:coord>

<when>2026-09-22T02:10:38.000Z</when>
<gx:coord>-121.68618433333334 45.692277 32.7</gx:coord>

<when>2026-09-22T02:10:49.000Z</when>
<gx:coord>-121.68864133333334 45.690331833333325 30.6</gx:coord>

<when>2026-09-22T02:11:00.000Z</when>
<gx:coord>-121.69160866666668 45.688742000000005 32.7</gx:coord>

<when>2026-09-22T02:11:11.000Z</when>
<gx:coord>-121.69522583333334 45.68789166666667 35.1</gx:coord>

<when>2026-09-22T02:11:22.000Z</when>
<gx:coord>-121.69906916666666 45.68784433333334 34.0</gx:coord>

<when>2026-09-22T02:11:33.000Z</when>
<gx:coord>-121.70283616666666 45.68762533333334 31.3</gx:coord>

<when>2026-09-22T02:11:44.000Z</when>
<gx:coord>-121.70664366666666 45.687159 30.7</gx:coord>

<when>2026-09-22T02:11:55.000Z</when>
<gx:coord>-121.71048416666666 45.68719983333334 27.7</gx:coord>

<when>2026-09-22T02:12:06.000Z</when>
<gx:coord>-121.71421883333332 45.68778433333333 25.2</gx:coord>

<when>2026-09-22T02:12:17.000Z</when>
<gx:coord>-121.71708233333332 45.689459500000005 27.0</gx:coord>

<when>2026-09-22T02:12:28.000Z</when>
<gx:coord>-121.72041333333333 45.690552333333336 29.3</gx:coord>

<when>2026-09-22T02:12:39.000Z</when>
<gx:coord>-121.72424000000001 45.69050216666666 25.4</gx:coord>

<when>2026-09-22T02:12:50.000Z</when>
<gx:coord>-121.72814833333332 45.69058683333333 28.3</gx:coord>

<when>2026-09-22T02:13:01.000Z</when>
<gx:coord>-121.73214166666666 45.69085449999999 29.7</gx:coord>

<when>2026-09-22T02:13:12.000Z</when>
<gx:coord>-121.73592949999998 45.691894166666664 30.1</gx:coord>

<when>2026-09-22T02:13:23.000Z</when>
<gx:coord>-121.73987200000002 45.69248416666666 31.7</gx:coord>

<when>2026-09-22T02:13:34.000Z</when>
<gx:coord>-121.74390083333334 45.69217533333334 31.3</gx:coord>

<when>2026-09-22T02:13:45.000Z</when>
<gx:coord>-121.74797566666666 45.691577833333334 31.4</gx:coord>

<when>2026-09-22T02:13:56.000Z</when>
<gx:coord>-121.75209683333333 45.690964 32.3</gx:coord>

<when>2026-09-22T02:14:07.000Z</when>
<gx:coord>-121.75625516666666 45.690513333333335 34.1</gx:coord>

<when>2026-09-22T02:14:18.000Z</when>
<gx:coord>-121.76035233333332 45.69093233333333 34.2</gx:coord>

<when>2026-09-22T02:14:29.000Z</when>
<gx:coord>-121.76442533333332 45.691378666666665 36.7</gx:coord>

<when>2026-09-22T02:14:40.000Z</when>
<gx:coord>-121.76853183333333 45.691322166666666 36.6</gx:coord>

<when>2026-09-22T02:14:51.000Z</when>
<gx:coord>-121.772667 45.69103233333333 40.7</gx:coord>

<when>2026-09-22T02:15:02.000Z</when>
<gx:coord>-121.77670266666668 45.69075216666667 42.9</gx:coord>

<when>2026-09-22T02:15:13.000Z</when>
<gx:coord>-121.78061799999999 45.69079033333334 41.7</gx:coord>

<when>2026-09-22T02:15:24.000Z</when>
<gx:coord>-121.78396916666667 45.69215366666667 42.0</gx:coord>

<when>2026-09-22T02:15:35.000Z</when>
<gx:coord>-121.7876955 45.69295833333334 38.7</gx:coord>

<when>2026-09-22T02:15:46.000Z</when>
<gx:coord>-121.79154316666667 45.69372750000001 37.8</gx:coord>

<when>2026-09-22T02:15:57.000Z</when>
<gx:coord>-121.7952765 45.69467366666666 39.1</gx:coord>

<when>2026-09-22T02:16:08.000Z</when>
<gx:coord>-121.79882366666668 45.695995499999995 39.3</gx:coord>

<when>2026-09-22T02:16:19.000Z</when>
<gx:coord>-121.80256366666666 45.69686216666667 43.4</gx:coord>

<when>2026-09-22T02:16:30.000Z</when>
<gx:coord>-121.80641966666666 45.697035166666666 47.4</gx:coord>

<when>2026-09-22T02:16:41.000Z</when>
<gx:coord>-121.81026283333334 45.697202333333344 48.7</gx:coord>

<when>2026-09-22T02:16:52.000Z</when>
<gx:coord>-121.81428400000001 45.697098000000004 39.0</gx:coord>

<when>2026-09-22T02:17:03.000Z</when>
<gx:coord>-121.81817833333335 45.697318166666676 42.2</gx:coord>

<when>2026-09-22T02:17:14.000Z</when>
<gx:coord>-121.82202799999999 45.697053000000004 44.3</gx:coord>

<when>2026-09-22T02:17:25.000Z</when>
<gx:coord>-121.82582033333334 45.69674166666667 43.8</gx:coord>

<when>2026-09-22T02:17:36.000Z</when>
<gx:coord>-121.82970466666666 45.69637766666666 44.8</gx:coord>

<when>2026-09-22T02:17:47.000Z</when>
<gx:coord>-121.83302033333332 45.69509183333333 45.1</gx:coord>

<when>2026-09-22T02:17:58.000Z</when>
<gx:coord>-121.835477 45.693034999999995 45.0</gx:coord>

<when>2026-09-22T02:18:09.000Z</when>
<gx:coord>-121.8378455 45.69086983333333 37.4</gx:coord>

<when>2026-09-22T02:18:20.000Z</when>
<gx:coord>-121.8395555 45.688318333333335 29.5</gx:coord>

<when>2026-09-22T02:18:31.000Z</when>
<gx:coord>-121.84153083333334 45.685819333333335 26.6</gx:coord>

<when>2026-09-22T02:18:42.000Z</when>
<gx:coord>-121.84411216666668 45.683610833333326 27.8</gx:coord>

<when>2026-09-22T02:18:53.000Z</when>
<gx:coord>-121.84742033333332 45.681936166666674 30.0</gx:coord>

<when>2026-09-22T02:19:04.000Z</when>
<gx:coord>-121.85071983333334 45.68030099999999 31.5</gx:coord>

<when>2026-09-22T02:19:15.000Z</when>
<gx:coord>-121.85388933333334 45.678717000000006 35.5</gx:coord>

<when>2026-09-22T02:19:26.000Z</when>
<gx:coord>-121.85705833333334 45.67729316666667 40.9</gx:coord>

<when>2026-09-22T02:19:37.000Z</when>
<gx:coord>-121.8603915 45.67649316666666 51.5</gx:coord>

<when>2026-09-22T02:19:48.000Z</when>
<gx:coord>-121.86359733333332 45.67587100000001 59.0</gx:coord>

<when>2026-09-22T02:19:59.000Z</when>
<gx:coord>-121.86686966666666 45.675240833333326 61.2</gx:coord>

<when>2026-09-22T02:20:10.000Z</when>
<gx:coord>-121.87038866666666 45.67455666666667 59.9</gx:coord>

<when>2026-09-22T02:20:21.000Z</when>
<gx:coord>-121.87383383333332 45.67361266666667 62.8</gx:coord>

<when>2026-09-22T02:20:32.000Z</when>
<gx:coord>-121.87703666666667 45.672343166666664 63.6</gx:coord>

<when>2026-09-22T02:20:43.000Z</when>
<gx:coord>-121.88030533333334 45.67103 63.3</gx:coord>

<when>2026-09-22T02:20:54.000Z</when>
<gx:coord>-121.8835815 45.66972016666667 59.4</gx:coord>

<when>2026-09-22T02:21:05.000Z</when>
<gx:coord>-121.88684933333334 45.66840533333334 55.8</gx:coord>

<when>2026-09-22T02:21:16.000Z</when>
<gx:coord>-121.88967733333332 45.666703999999996 58.7</gx:coord>

<when>2026-09-22T02:21:27.000Z</when>
<gx:coord>-121.89210616666666 45.66481950000001 64.9</gx:coord>

<when>2026-09-22T02:21:38.000Z</when>
<gx:coord>-121.894488 45.66296366666667 66.4</gx:coord>

<when>2026-09-22T02:21:49.000Z</when>
<gx:coord>-121.89693283333332 45.66097549999999 60.8</gx:coord>

<when>2026-09-22T02:22:00.000Z</when>
<gx:coord>-121.89897100000002 45.65859666666667 50.5</gx:coord>

<when>2026-09-22T02:22:11.000Z</when>
<gx:coord>-121.90089233333335 45.65619016666666 46.4</gx:coord>

<when>2026-09-22T02:22:22.000Z</when>
<gx:coord>-121.903297 45.65402966666667 46.2</gx:coord>

<when>2026-09-22T02:22:33.000Z</when>
<gx:coord>-121.906221 45.652267 44.2</gx:coord>

<when>2026-09-22T02:22:44.000Z</when>
<gx:coord>-121.90932883333335 45.650813500000005 40.6</gx:coord>

<when>2026-09-22T02:22:55.000Z</when>
<gx:coord>-121.91237983333333 45.6494115 49.3</gx:coord>

<when>2026-09-22T02:23:06.000Z</when>
<gx:coord>-121.91553983333333 45.64802916666666 52.7</gx:coord>

<when>2026-09-22T02:23:17.000Z</when>
<gx:coord>-121.91877766666667 45.64666950000001 44.5</gx:coord>

<when>2026-09-22T02:23:28.000Z</when>
<gx:coord>-121.92223483333333 45.64536966666666 39.2</gx:coord>

<when>2026-09-22T02:23:39.000Z</when>
<gx:coord>-121.925697 45.64406399999999 36.4</gx:coord>

<when>2026-09-22T02:23:50.000Z</when>
<gx:coord>-121.92882233333333 45.64227233333333 32.4</gx:coord>

<when>2026-09-22T02:24:01.000Z</when>
<gx:coord>-121.93182933333334 45.640493500000005 37.2</gx:coord>

<when>2026-09-22T02:24:12.000Z</when>
<gx:coord>-121.93490216666666 45.63907566666667 46.2</gx:coord>

<when>2026-09-22T02:24:23.000Z</when>
<gx:coord>-121.93809916666666 45.638057333333336 53.1</gx:coord>

<when>2026-09-22T02:24:34.000Z</when>
<gx:coord>-121.94127933333333 45.63699266666666 57.5</gx:coord>

<when>2026-09-22T02:24:45.000Z</when>
<gx:coord>-121.94481583333332 45.636121 57.8</gx:coord>

<when>2026-09-22T02:24:56.000Z</when>
<gx:coord>-121.94854466666666 45.63517066666667 53.2</gx:coord>

<when>2026-09-22T02:25:07.000Z</when>
<gx:coord>-121.95192083333335 45.633604 38.6</gx:coord>

<when>2026-09-22T02:25:18.000Z</when>
<gx:coord>-121.95512983333334 45.6318585 31.4</gx:coord>

<when>2026-09-22T02:25:29.000Z</when>
<gx:coord>-121.95867733333334 45.63139683333334 41.6</gx:coord>

<when>2026-09-22T02:25:40.000Z</when>
<gx:coord>-121.96180166666666 45.6307145 48.4</gx:coord>

<when>2026-09-22T02:25:51.000Z</when>
<gx:coord>-121.96456349999998 45.62951233333333 52.6</gx:coord>

<when>2026-09-22T02:26:02.000Z</when>
<gx:coord>-121.96752566666667 45.62816533333333 50.5</gx:coord>

<when>2026-09-22T02:26:13.000Z</when>
<gx:coord>-121.97068716666666 45.62672016666667 42.5</gx:coord>

<when>2026-09-22T02:26:24.000Z</when>
<gx:coord>-121.97384400000001 45.62528016666667 37.7</gx:coord>

<when>2026-09-22T02:26:35.000Z</when>
<gx:coord>-121.97707166666666 45.62382416666666 34.3</gx:coord>

<when>2026-09-22T02:26:46.000Z</when>
<gx:coord>-121.98026683333335 45.6223485 32.6</gx:coord>

<when>2026-09-22T02:26:57.000Z</when>
<gx:coord>-121.98358416666666 45.62091633333333 32.4</gx:coord>

<when>2026-09-22T02:27:08.000Z</when>
<gx:coord>-121.98718933333333 45.61972983333333 30.4</gx:coord>

<when>2026-09-22T02:27:19.000Z</when>
<gx:coord>-121.99072550000001 45.61838116666666 27.9</gx:coord>

<when>2026-09-22T02:27:30.000Z</when>
<gx:coord>-121.99393049999999 45.61680283333333 31.1</gx:coord>

<when>2026-09-22T02:27:41.000Z</when>
<gx:coord>-121.99685749999999 45.615093666666674 30.6</gx:coord>

<when>2026-09-22T02:27:52.000Z</when>
<gx:coord>-121.99984916666666 45.61347850000001 26.9</gx:coord>

<when>2026-09-22T02:28:03.000Z</when>
<gx:coord>-122.003322 45.61290283333333 34.2</gx:coord>

<when>2026-09-22T02:28:14.000Z</when>
<gx:coord>-122.00684516666666 45.612902 36.6</gx:coord>

<when>2026-09-22T02:28:25.000Z</when>
<gx:coord>-122.01040083333334 45.61290366666667 35.3</gx:coord>

<when>2026-09-22T02:28:36.000Z</when>
<gx:coord>-122.01407433333334 45.61262083333333 27.7</gx:coord>

<when>2026-09-22T02:28:47.000Z</when>
<gx:coord>-122.017855 45.6120175 25.6</gx:coord>

<when>2026-09-22T02:28:58.000Z</when>
<gx:coord>-122.02145033333333 45.611453166666664 27.1</gx:coord>

<when>2026-09-22T02:29:09.000Z</when>
<gx:coord>-122.02495333333333 45.61083716666667 28.0</gx:coord>

<when>2026-09-22T02:29:20.000Z</when>
<gx:coord>-122.02840650000002 45.60985616666667 27.0</gx:coord>

<when>2026-09-22T02:29:31.000Z</when>
<gx:coord>-122.03184000000002 45.60853316666667 27.7</gx:coord>

<when>2026-09-22T02:29:42.000Z</when>
<gx:coord>-122.0352055 45.606956833333335 27.8</gx:coord>

<when>2026-09-22T02:29:53.000Z</when>
<gx:coord>-122.03828916666667 45.6052095 29.9</gx:coord>

<when>2026-09-22T02:30:04.000Z</when>
<gx:coord>-122.0411995 45.60332516666667 29.5</gx:coord>

<when>2026-09-22T02:30:15.000Z</when>
<gx:coord>-122.04440733333334 45.601602 31.2</gx:coord>

<when>2026-09-22T02:30:26.000Z</when>
<gx:coord>-122.04825133333334 45.600522500000004 29.5</gx:coord>

<when>2026-09-22T02:30:37.000Z</when>
<gx:coord>-122.052232 45.59958466666667 20.8</gx:coord>

<when>2026-09-22T02:30:48.000Z</when>
<gx:coord>-122.05628866666666 45.59857050000001 17.4</gx:coord>

<when>2026-09-22T02:30:59.000Z</when>
<gx:coord>-122.06017583333332 45.59747816666666 15.1</gx:coord>

<when>2026-09-22T02:31:10.000Z</when>
<gx:coord>-122.06395833333333 45.59629499999999 16.6</gx:coord>

<when>2026-09-22T02:31:21.000Z</when>
<gx:coord>-122.06762750000001 45.59503500000001 16.4</gx:coord>

<when>2026-09-22T02:31:32.000Z</when>
<gx:coord>-122.07122483333333 45.59368500000001 16.1</gx:coord>

<when>2026-09-22T02:31:43.000Z</when>
<gx:coord>-122.07474316666666 45.592246333333335 17.5</gx:coord>

<when>2026-09-22T02:31:54.000Z</when>
<gx:coord>-122.07826250000001 45.59080216666666 17.2</gx:coord>

<when>2026-09-22T02:32:05.000Z</when>
<gx:coord>-122.08174466666667 45.589372166666664 16.9</gx:coord>

<when>2026-09-22T02:32:16.000Z</when>
<gx:coord>-122.08521850000001 45.58794133333334 15.3</gx:coord>

<when>2026-09-22T02:32:27.000Z</when>
<gx:coord>-122.08872833333335 45.58650083333334 15.4</gx:coord>

<when>2026-09-22T02:32:38.000Z</when>
<gx:coord>-122.09224433333333 45.585070166666675 15.3</gx:coord>

<when>2026-09-22T02:32:49.000Z</when>
<gx:coord>-122.09601716666666 45.58408183333333 15.1</gx:coord>

<when>2026-09-22T02:33:00.000Z</when>
<gx:coord>-122.09964033333333 45.582854 13.1</gx:coord>

<when>2026-09-22T02:33:11.000Z</when>
<gx:coord>-122.10324483333333 45.5815225 12.0</gx:coord>

<when>2026-09-22T02:33:22.000Z</when>
<gx:coord>-122.10718016666667 45.580607166666674 13.2</gx:coord>

<when>2026-09-22T02:33:33.000Z</when>
<gx:coord>-122.11116633333334 45.57975133333333 11.4</gx:coord>

<when>2026-09-22T02:33:44.000Z</when>
<gx:coord>-122.115295 45.579224999999994 10.6</gx:coord>

<when>2026-09-22T02:33:55.000Z</when>
<gx:coord>-122.11936933333332 45.57942383333334 10.2</gx:coord>

<when>2026-09-22T02:34:06.000Z</when>
<gx:coord>-122.12333033333334 45.57922516666666 11.2</gx:coord>

<when>2026-09-22T02:34:17.000Z</when>
<gx:coord>-122.12725483333334 45.578732666666674 10.7</gx:coord>

<when>2026-09-22T02:34:28.000Z</when>
<gx:coord>-122.13126483333332 45.57812833333334 11.9</gx:coord>

<when>2026-09-22T02:34:39.000Z</when>
<gx:coord>-122.13530533333332 45.5774555 12.0</gx:coord>

<when>2026-09-22T02:34:50.000Z</when>
<gx:coord>-122.13931533333334 45.57673666666666 9.0</gx:coord>

<when>2026-09-22T02:35:01.000Z</when>
<gx:coord>-122.14328116666665 45.57596366666667 9.9</gx:coord>

<when>2026-09-22T02:35:12.000Z</when>
<gx:coord>-122.147259 45.57513466666666 10.7</gx:coord>

<when>2026-09-22T02:35:23.000Z</when>
<gx:coord>-122.15104216666666 45.574145833333326 9.6</gx:coord>

<when>2026-09-22T02:35:34.000Z</when>
<gx:coord>-122.15464383333334 45.57293249999999 11.1</gx:coord>

<when>2026-09-22T02:35:45.000Z</when>
<gx:coord>-122.15808666666665 45.57148366666667 12.3</gx:coord>

<when>2026-09-22T02:35:56.000Z</when>
<gx:coord>-122.16136983333332 45.569824000000004 12.7</gx:coord>

<when>2026-09-22T02:36:07.000Z</when>
<gx:coord>-122.16443316666667 45.56798966666667 13.7</gx:coord>

<when>2026-09-22T02:36:18.000Z</when>
<gx:coord>-122.16729566666666 45.56614583333333 12.9</gx:coord>

<when>2026-09-22T02:36:29.000Z</when>
<gx:coord>-122.17011 45.564327999999996 12.6</gx:coord>

<when>2026-09-22T02:36:40.000Z</when>
<gx:coord>-122.17292133333333 45.562506 12.2</gx:coord>

<when>2026-09-22T02:36:51.000Z</when>
<gx:coord>-122.1757465 45.56062816666666 14.2</gx:coord>

<when>2026-09-22T02:37:02.000Z</when>
<gx:coord>-122.17865150000002 45.55879483333333 16.3</gx:coord>

<when>2026-09-22T02:37:13.000Z</when>
<gx:coord>-122.18168133333332 45.55703366666667 18.2</gx:coord>

<when>2026-09-22T02:37:24.000Z</when>
<gx:coord>-122.18484333333332 45.55533533333334 17.6</gx:coord>

<when>2026-09-22T02:37:35.000Z</when>
<gx:coord>-122.18802716666666 45.553639499999996 17.5</gx:coord>

<when>2026-09-22T02:37:46.000Z</when>
<gx:coord>-122.19123650000002 45.552073333333325 18.2</gx:coord>

<when>2026-09-22T02:37:57.000Z</when>
<gx:coord>-122.1946175 45.55069316666666 14.6</gx:coord>

<when>2026-09-22T02:38:08.000Z</when>
<gx:coord>-122.19829133333333 45.549613666666666 13.6</gx:coord>

<when>2026-09-22T02:38:19.000Z</when>
<gx:coord>-122.20213333333335 45.548843166666664 13.2</gx:coord>

<when>2026-09-22T02:38:30.000Z</when>
<gx:coord>-122.20602983333335 45.548417 13.9</gx:coord>

<when>2026-09-22T02:38:41.000Z</when>
<gx:coord>-122.20989516666666 45.548119 12.2</gx:coord>

<when>2026-09-22T02:38:52.000Z</when>
<gx:coord>-122.213715 45.54781 12.1</gx:coord>

<when>2026-09-22T02:39:03.000Z</when>
<gx:coord>-122.21753400000001 45.54742966666666 12.6</gx:coord>

<when>2026-09-22T02:39:14.000Z</when>
<gx:coord>-122.22132233333332 45.54697766666666 13.5</gx:coord>

<when>2026-09-22T02:39:25.000Z</when>
<gx:coord>-122.22506783333334 45.54644383333333 13.6</gx:coord>

<when>2026-09-22T02:39:36.000Z</when>
<gx:coord>-122.22877933333332 45.54583983333334 11.4</gx:coord>

<when>2026-09-22T02:39:47.000Z</when>
<gx:coord>-122.23253616666668 45.54517583333333 11.1</gx:coord>

<when>2026-09-22T02:39:58.000Z</when>
<gx:coord>-122.2363805 45.544518000000004 10.4</gx:coord>

<when>2026-09-22T02:40:09.000Z</when>
<gx:coord>-122.24014800000002 45.54391183333334 8.5</gx:coord>

<when>2026-09-22T02:40:20.000Z</when>
<gx:coord>-122.24389466666668 45.543366 8.1</gx:coord>

<when>2026-09-22T02:40:31.000Z</when>
<gx:coord>-122.24774533333333 45.54284766666667 9.6</gx:coord>

<when>2026-09-22T02:40:42.000Z</when>
<gx:coord>-122.25159983333333 45.542383 10.6</gx:coord>

<when>2026-09-22T02:40:53.000Z</when>
<gx:coord>-122.25544550000001 45.54197283333333 10.4</gx:coord>

<when>2026-09-22T02:41:04.000Z</when>
<gx:coord>-122.25934766666666 45.5416595 12.9</gx:coord>

<when>2026-09-22T02:41:15.000Z</when>
<gx:coord>-122.26318250000001 45.5415495 12.4</gx:coord>

<when>2026-09-22T02:41:26.000Z</when>
<gx:coord>-122.26700483333335 45.541618 11.9</gx:coord>

<when>2026-09-22T02:41:37.000Z</when>
<gx:coord>-122.27082933333334 45.54187216666666 10.9</gx:coord>

<when>2026-09-22T02:41:48.000Z</when>
<gx:coord>-122.27453799999999 45.54225516666667 13.4</gx:coord>

<when>2026-09-22T02:41:59.000Z</when>
<gx:coord>-122.27812999999999 45.54201116666666 12.7</gx:coord>

<when>2026-09-22T02:42:10.000Z</when>
<gx:coord>-122.28174533333335 45.541617333333335 11.2</gx:coord>

<when>2026-09-22T02:42:21.000Z</when>
<gx:coord>-122.28543116666667 45.54168416666666 12.8</gx:coord>

<when>2026-09-22T02:42:32.000Z</when>
<gx:coord>-122.28910233333333 45.54188183333334 14.1</gx:coord>

<when>2026-09-22T02:42:43.000Z</when>
<gx:coord>-122.2927685 45.541763833333334 14.9</gx:coord>

<when>2026-09-22T02:42:54.000Z</when>
<gx:coord>-122.29647750000001 45.541342500000006 14.4</gx:coord>

<when>2026-09-22T02:43:05.000Z</when>
<gx:coord>-122.30008649999999 45.540572999999995 12.0</gx:coord>

<when>2026-09-22T02:43:16.000Z</when>
<gx:coord>-122.30366516666666 45.53981716666667 11.4</gx:coord>

<when>2026-09-22T02:43:27.000Z</when>
<gx:coord>-122.30730183333331 45.53931933333333 10.2</gx:coord>

<when>2026-09-22T02:43:38.000Z</when>
<gx:coord>-122.3109445 45.53908166666667 11.7</gx:coord>

<when>2026-09-22T02:43:49.000Z</when>
<gx:coord>-122.31464766666667 45.53883466666666 12.2</gx:coord>

<when>2026-09-22T02:44:00.000Z</when>
<gx:coord>-122.31833533333332 45.53858449999999 15.5</gx:coord>

<when>2026-09-22T02:44:11.000Z</when>
<gx:coord>-122.32203483333333 45.53845516666667 13.5</gx:coord>

<when>2026-09-22T02:44:22.000Z</when>
<gx:coord>-122.32576633333335 45.53853516666666 12.6</gx:coord>

<when>2026-09-22T02:44:33.000Z</when>
<gx:coord>-122.32951933333334 45.53886033333333 13.0</gx:coord>

<when>2026-09-22T02:44:44.000Z</when>
<gx:coord>-122.33320833333333 45.539502999999996 13.9</gx:coord>

<when>2026-09-22T02:44:55.000Z</when>
<gx:coord>-122.33681649999998 45.54036033333333 16.6</gx:coord>

<when>2026-09-22T02:45:06.000Z</when>
<gx:coord>-122.34041783333332 45.541217833333334 17.7</gx:coord>

<when>2026-09-22T02:45:17.000Z</when>
<gx:coord>-122.34397533333335 45.54196966666667 15.5</gx:coord>

<when>2026-09-22T02:45:28.000Z</when>
<gx:coord>-122.34765933333334 45.542277 13.6</gx:coord>

<when>2026-09-22T02:45:39.000Z</when>
<gx:coord>-122.3514405 45.542545000000004 12.9</gx:coord>

<when>2026-09-22T02:45:50.000Z</when>
<gx:coord>-122.355177 45.542812999999995 12.4</gx:coord>

<when>2026-09-22T02:46:01.000Z</when>
<gx:coord>-122.35895683333335 45.54308433333334 11.5</gx:coord>

<when>2026-09-22T02:46:12.000Z</when>
<gx:coord>-122.3627215 45.543343166666666 12.1</gx:coord>

<when>2026-09-22T02:46:23.000Z</when>
<gx:coord>-122.36650633333332 45.54360516666667 12.6</gx:coord>

<when>2026-09-22T02:46:34.000Z</when>
<gx:coord>-122.37027316666666 45.54387233333333 12.9</gx:coord>

<when>2026-09-22T02:46:45.000Z</when>
<gx:coord>-122.37398 45.54413433333334 12.9</gx:coord>

<when>2026-09-22T02:46:56.000Z</when>
<gx:coord>-122.37770933333334 45.54439766666666 12.8</gx:coord>

<when>2026-09-22T02:47:07.000Z</when>
<gx:coord>-122.38146683333335 45.5446655 12.4</gx:coord>

<when>2026-09-22T02:47:18.000Z</when>
<gx:coord>-122.38523400000001 45.54492749999999 14.5</gx:coord>

<when>2026-09-22T02:47:29.000Z</when>
<gx:coord>-122.38903049999999 45.54517333333333 14.1</gx:coord>

<when>2026-09-22T02:47:40.000Z</when>
<gx:coord>-122.39272666666666 45.545224833333336 15.2</gx:coord>

<when>2026-09-22T02:47:51.000Z</when>
<gx:coord>-122.3964335 45.545077000000006 13.4</gx:coord>

<when>2026-09-22T02:48:02.000Z</when>
<gx:coord>-122.40015366666667 45.544869500000004 15.3</gx:coord>

<when>2026-09-22T02:48:13.000Z</when>
<gx:coord>-122.403942 45.5445865 11.3</gx:coord>

<when>2026-09-22T02:48:24.000Z</when>
<gx:coord>-122.40753366666668 45.54366016666666 7.2</gx:coord>

<when>2026-09-22T02:48:35.000Z</when>
<gx:coord>-122.41087999999999 45.54240583333333 12.1</gx:coord>

<when>2026-09-22T02:48:46.000Z</when>
<gx:coord>-122.41414233333334 45.5411835 18.4</gx:coord>

<when>2026-09-22T02:48:57.000Z</when>
<gx:coord>-122.41762066666666 45.540133166666664 19.7</gx:coord>

<when>2026-09-22T02:49:08.000Z</when>
<gx:coord>-122.42145299999999 45.539876500000005 21.1</gx:coord>

<when>2026-09-22T02:49:19.000Z</when>
<gx:coord>-122.42511366666668 45.54048983333334 22.7</gx:coord>

<when>2026-09-22T02:49:30.000Z</when>
<gx:coord>-122.42859016666668 45.54137683333333 26.5</gx:coord>

<when>2026-09-22T02:49:41.000Z</when>
<gx:coord>-122.43211500000001 45.5420075 31.7</gx:coord>

<when>2026-09-22T02:49:52.000Z</when>
<gx:coord>-122.43585783333334 45.541715 30.7</gx:coord>

<when>2026-09-22T02:50:03.000Z</when>
<gx:coord>-122.43950449999998 45.540721500000004 25.8</gx:coord>

<when>2026-09-22T02:50:14.000Z</when>
<gx:coord>-122.443168 45.53990883333333 27.0</gx:coord>

<when>2026-09-22T02:50:25.000Z</when>
<gx:coord>-122.44689516666668 45.53949483333334 29.3</gx:coord>

<when>2026-09-22T02:50:36.000Z</when>
<gx:coord>-122.45078716666667 45.53941233333333 32.5</gx:coord>

<when>2026-09-22T02:50:47.000Z</when>
<gx:coord>-122.45471100000002 45.539668 37.3</gx:coord>

<when>2026-09-22T02:50:58.000Z</when>
<gx:coord>-122.45859483333334 45.54015266666667 38.7</gx:coord>

<when>2026-09-22T02:51:09.000Z</when>
<gx:coord>-122.46259566666667 45.54064566666666 41.2</gx:coord>

<when>2026-09-22T02:51:20.000Z</when>
<gx:coord>-122.4665735 45.54095966666667 49.0</gx:coord>

<when>2026-09-22T02:51:31.000Z</when>
<gx:coord>-122.47043966666666 45.541132333333344 51.5</gx:coord>

<when>2026-09-22T02:51:42.000Z</when>
<gx:coord>-122.47419516666666 45.54129249999999 52.3</gx:coord>

<when>2026-09-22T02:51:53.000Z</when>
<gx:coord>-122.47788683333334 45.541656333333336 52.2</gx:coord>

<when>2026-09-22T02:52:04.000Z</when>
<gx:coord>-122.48160266666667 45.54223666666667 51.8</gx:coord>

<when>2026-09-22T02:52:15.000Z</when>
<gx:coord>-122.485473 45.54252799999999 52.8</gx:coord>

<when>2026-09-22T02:52:26.000Z</when>
<gx:coord>-122.48944483333335 45.54250483333333 52.7</gx:coord>

<when>2026-09-22T02:52:37.000Z</when>
<gx:coord>-122.49346766666667 45.542455999999994 53.4</gx:coord>

<when>2026-09-22T02:52:48.000Z</when>
<gx:coord>-122.49753416666665 45.54240433333333 54.7</gx:coord>

<when>2026-09-22T02:52:59.000Z</when>
<gx:coord>-122.50162683333335 45.54235416666667 53.8</gx:coord>

<when>2026-09-22T02:53:10.000Z</when>
<gx:coord>-122.5055645 45.542354333333336 54.6</gx:coord>

<when>2026-09-22T02:53:21.000Z</when>
<gx:coord>-122.50945566666665 45.54271683333333 57.0</gx:coord>

<when>2026-09-22T02:53:32.000Z</when>
<gx:coord>-122.51328266666665 45.54315383333333 58.3</gx:coord>

<when>2026-09-22T02:53:43.000Z</when>
<gx:coord>-122.51703283333333 45.543588666666665 58.2</gx:coord>

<when>2026-09-22T02:53:54.000Z</when>
<gx:coord>-122.52079649999999 45.544025833333336 59.8</gx:coord>

<when>2026-09-22T02:54:05.000Z</when>
<gx:coord>-122.524615 45.544470000000004 62.2</gx:coord>

<when>2026-09-22T02:54:16.000Z</when>
<gx:coord>-122.52840450000001 45.54494216666667 64.2</gx:coord>

<when>2026-09-22T02:54:27.000Z</when>
<gx:coord>-122.53208666666666 45.54562183333334 66.6</gx:coord>

<when>2026-09-22T02:54:38.000Z</when>
<gx:coord>-122.53568433333334 45.54631299999999 69.1</gx:coord>

<when>2026-09-22T02:54:49.000Z</when>
<gx:coord>-122.53933116666667 45.546874499999994 70.0</gx:coord>

<when>2026-09-22T02:55:00.000Z</when>
<gx:coord>-122.54283933333333 45.54721766666667 69.8</gx:coord>

<when>2026-09-22T02:55:11.000Z</when>
<gx:coord>-122.54638516666667 45.54751983333334 69.4</gx:coord>

<when>2026-09-22T02:55:22.000Z</when>
<gx:coord>-122.55001599999999 45.54760966666666 66.9</gx:coord>

<when>2026-09-22T02:55:33.000Z</when>
<gx:coord>-122.55335183333334 45.547603166666676 61.4</gx:coord>

<when>2026-09-22T02:55:44.000Z</when>
<gx:coord>-122.55669966666667 45.54759550000001 53.7</gx:coord>

<when>2026-09-22T02:55:55.000Z</when>
<gx:coord>-122.56023633333334 45.547408 43.2</gx:coord>

<when>2026-09-22T02:56:06.000Z</when>
<gx:coord>-122.56188233333333 45.545564 48.2</gx:coord>

<when>2026-09-22T02:56:17.000Z</when>
<gx:coord>-122.562254 45.54338883333333 55.2</gx:coord>

<when>2026-09-22T02:56:28.000Z</when>
<gx:coord>-122.562825 45.54107033333333 56.6</gx:coord>

<when>2026-09-22T02:56:39.000Z</when>
<gx:coord>-122.56351366666668 45.53867449999999 60.6</gx:coord>

<when>2026-09-22T02:56:50.000Z</when>
<gx:coord>-122.56411166666666 45.53637966666667 66.7</gx:coord>

<when>2026-09-22T02:57:01.000Z</when>
<gx:coord>-122.56467149999999 45.534129666666665 73.4</gx:coord>

<when>2026-09-22T02:57:12.000Z</when>
<gx:coord>-122.56513583333331 45.53185799999999 77.8</gx:coord>

<when>2026-09-22T02:57:23.000Z</when>
<gx:coord>-122.56542983333333 45.52942483333333 79.0</gx:coord>

<when>2026-09-22T02:57:34.000Z</when>
<gx:coord>-122.56551516666666 45.52689883333334 78.8</gx:coord>

<when>2026-09-22T02:57:45.000Z</when>
<gx:coord>-122.56554416666668 45.524425 77.8</gx:coord>

<when>2026-09-22T02:57:56.000Z</when>
<gx:coord>-122.565564 45.52196333333333 74.1</gx:coord>

<when>2026-09-22T02:58:07.000Z</when>
<gx:coord>-122.56559866666666 45.51935366666667 71.8</gx:coord>

<when>2026-09-22T02:58:18.000Z</when>
<gx:coord>-122.56562416666665 45.516779 70.3</gx:coord>

<when>2026-09-22T02:58:29.000Z</when>
<gx:coord>-122.56566616666666 45.51417333333334 69.6</gx:coord>

<when>2026-09-22T02:58:40.000Z</when>
<gx:coord>-122.56570616666667 45.5116995 68.9</gx:coord>

<when>2026-09-22T02:58:51.000Z</when>
<gx:coord>-122.56567083333333 45.50924133333333 70.2</gx:coord>

<when>2026-09-22T02:59:02.000Z</when>
<gx:coord>-122.56550966666667 45.50681816666667 75.9</gx:coord>

<when>2026-09-22T02:59:13.000Z</when>
<gx:coord>-122.56550916666666 45.504444666666664 82.0</gx:coord>

<when>2026-09-22T02:59:24.000Z</when>
<gx:coord>-122.56554216666667 45.50207999999999 88.9</gx:coord>

<when>2026-09-22T02:59:35.000Z</when>
<gx:coord>-122.56557233333334 45.499632999999996 89.6</gx:coord>

<when>2026-09-22T02:59:46.000Z</when>
<gx:coord>-122.56560833333333 45.49713566666666 85.6</gx:coord>

<when>2026-09-22T02:59:57.000Z</when>
<gx:coord>-122.56567683333333 45.49460166666666 79.0</gx:coord>

<when>2026-09-22T03:00:08.000Z</when>
<gx:coord>-122.56590966666666 45.492147333333335 73.4</gx:coord>

<when>2026-09-22T03:00:19.000Z</when>
<gx:coord>-122.5661855 45.48961116666666 68.7</gx:coord>

<when>2026-09-22T03:00:30.000Z</when>
<gx:coord>-122.56634733333334 45.487135 68.0</gx:coord>

<when>2026-09-22T03:00:41.000Z</when>
<gx:coord>-122.56629133333333 45.48466983333333 66.6</gx:coord>

<when>2026-09-22T03:00:52.000Z</when>
<gx:coord>-122.56614783333335 45.482139499999995 66.5</gx:coord>

<when>2026-09-22T03:01:03.000Z</when>
<gx:coord>-122.56605433333334 45.479523333333326 66.1</gx:coord>

<when>2026-09-22T03:01:14.000Z</when>
<gx:coord>-122.56597333333333 45.47694016666666 66.3</gx:coord>

<when>2026-09-22T03:01:25.000Z</when>
<gx:coord>-122.56583216666668 45.47428466666667 66.9</gx:coord>

<when>2026-09-22T03:01:36.000Z</when>
<gx:coord>-122.56569533333335 45.471562999999996 66.1</gx:coord>

<when>2026-09-22T03:01:47.000Z</when>
<gx:coord>-122.56592316666665 45.46878133333333 63.9</gx:coord>

<when>2026-09-22T03:01:58.000Z</when>
<gx:coord>-122.56730816666668 45.46620483333333 68.2</gx:coord>

<when>2026-09-22T03:02:09.000Z</when>
<gx:coord>-122.56939983333332 45.46395300000001 71.3</gx:coord>

<when>2026-09-22T03:02:20.000Z</when>
<gx:coord>-122.57117583333333 45.46175816666667 69.1</gx:coord>

<when>2026-09-22T03:02:31.000Z</when>
<gx:coord>-122.57246866666668 45.45936466666667 66.1</gx:coord>

<when>2026-09-22T03:02:42.000Z</when>
<gx:coord>-122.57322216666668 45.456779000000004 63.4</gx:coord>

<when>2026-09-22T03:02:53.000Z</when>
<gx:coord>-122.57333500000001 45.454081333333335 63.1</gx:coord>

<when>2026-09-22T03:03:04.000Z</when>
<gx:coord>-122.57278983333332 45.45136266666667 63.9</gx:coord>

<when>2026-09-22T03:03:15.000Z</when>
<gx:coord>-122.5718895 45.448747000000004 67.5</gx:coord>

<when>2026-09-22T03:03:26.000Z</when>
<gx:coord>-122.57098300000001 45.446145166666675 70.8</gx:coord>

<when>2026-09-22T03:03:37.000Z</when>
<gx:coord>-122.57006699999998 45.44351033333334 72.0</gx:coord>

<when>2026-09-22T03:03:48.000Z</when>
<gx:coord>-122.56914983333333 45.440866166666666 70.8</gx:coord>

<when>2026-09-22T03:03:59.000Z</when>
<gx:coord>-122.56826583333334 45.438353000000006 67.7</gx:coord>

<when>2026-09-22T03:04:10.000Z</when>
<gx:coord>-122.5673975 45.4358565 60.4</gx:coord>

<when>2026-09-22T03:04:21.000Z</when>
<gx:coord>-122.566519 45.433287333333325 54.4</gx:coord>

<when>2026-09-22T03:04:32.000Z</when>
<gx:coord>-122.56603433333333 45.43058016666667 46.6</gx:coord>

<when>2026-09-22T03:04:43.000Z</when>
<gx:coord>-122.56689566666667 45.427856166666665 45.7</gx:coord>

<when>2026-09-22T03:04:54.000Z</when>
<gx:coord>-122.5687005 45.4255335 45.4</gx:coord>

<when>2026-09-22T03:05:05.000Z</when>
<gx:coord>-122.57041566666666 45.42350133333333 42.4</gx:coord>

<when>2026-09-22T03:05:16.000Z</when>
<gx:coord>-122.57223033333334 45.42135383333333 37.3</gx:coord>

<when>2026-09-22T03:05:27.000Z</when>
<gx:coord>-122.57397783333333 45.41911866666666 34.3</gx:coord>

<when>2026-09-22T03:05:38.000Z</when>
<gx:coord>-122.57448433333333 45.41670916666667 40.9</gx:coord>

<when>2026-09-22T03:05:49.000Z</when>
<gx:coord>-122.5738205 45.41432616666666 44.4</gx:coord>

<when>2026-09-22T03:06:00.000Z</when>
<gx:coord>-122.57294766666668 45.411849 44.3</gx:coord>

<when>2026-09-22T03:06:11.000Z</when>
<gx:coord>-122.57201533333334 45.40920200000001 41.9</gx:coord>

<when>2026-09-22T03:06:22.000Z</when>
<gx:coord>-122.57138366666668 45.40652566666666 40.0</gx:coord>

<when>2026-09-22T03:06:33.000Z</when>
<gx:coord>-122.57172200000001 45.403830500000005 39.3</gx:coord>

<when>2026-09-22T03:06:44.000Z</when>
<gx:coord>-122.57270883333334 45.40132983333333 35.3</gx:coord>

<when>2026-09-22T03:06:55.000Z</when>
<gx:coord>-122.57360433333334 45.39914050000001 34.1</gx:coord>

<when>2026-09-22T03:07:06.000Z</when>
<gx:coord>-122.57441083333333 45.397157 33.4</gx:coord>

<when>2026-09-22T03:07:17.000Z</when>
<gx:coord>-122.57526566666665 45.3950785 33.3</gx:coord>

<when>2026-09-22T03:07:28.000Z</when>
<gx:coord>-122.57612566666667 45.39297799999999 35.9</gx:coord>

<when>2026-09-22T03:07:39.000Z</when>
<gx:coord>-122.57687200000001 45.391067166666666 35.3</gx:coord>

<when>2026-09-22T03:07:50.000Z</when>
<gx:coord>-122.57771383333332 45.38883283333333 29.7</gx:coord>

<when>2026-09-22T03:08:01.000Z</when>
<gx:coord>-122.578595 45.38648933333334 24.4</gx:coord>

<when>2026-09-22T03:08:12.000Z</when>
<gx:coord>-122.57947933333335 45.38417566666667 22.4</gx:coord>

<when>2026-09-22T03:08:23.000Z</when>
<gx:coord>-122.58030833333332 45.381955500000004 20.2</gx:coord>

<when>2026-09-22T03:08:34.000Z</when>
<gx:coord>-122.58133583333334 45.379835666666665 18.4</gx:coord>

<when>2026-09-22T03:08:45.000Z</when>
<gx:coord>-122.5830425 45.37803483333334 16.7</gx:coord>

<when>2026-09-22T03:08:56.000Z</when>
<gx:coord>-122.58519733333333 45.376461 15.5</gx:coord>

<when>2026-09-22T03:09:07.000Z</when>
<gx:coord>-122.5874505 45.37486166666666 14.0</gx:coord>

<when>2026-09-22T03:09:18.000Z</when>
<gx:coord>-122.58981333333334 45.37317816666667 15.5</gx:coord>

<when>2026-09-22T03:09:29.000Z</when>
<gx:coord>-122.59182799999999 45.371491666666664 17.8</gx:coord>

<when>2026-09-22T03:09:40.000Z</when>
<gx:coord>-122.59351683333334 45.36957866666667 17.1</gx:coord>

<when>2026-09-22T03:09:51.000Z</when>
<gx:coord>-122.59537549999999 45.36770183333333 19.1</gx:coord>

<when>2026-09-22T03:10:02.000Z</when>
<gx:coord>-122.59789266666667 45.36635716666667 22.0</gx:coord>

<when>2026-09-22T03:10:13.000Z</when>
<gx:coord>-122.600492 45.365581166666665 22.2</gx:coord>

<when>2026-09-22T03:10:24.000Z</when>
<gx:coord>-122.60293766666668 45.3648935 28.0</gx:coord>

<when>2026-09-22T03:10:35.000Z</when>
<gx:coord>-122.60548050000001 45.364185 35.2</gx:coord>

<when>2026-09-22T03:10:46.000Z</when>
<gx:coord>-122.6080955 45.36345500000001 43.1</gx:coord>

<when>2026-09-22T03:10:57.000Z</when>
<gx:coord>-122.610734 45.36261266666667 45.6</gx:coord>

<when>2026-09-22T03:11:08.000Z</when>
<gx:coord>-122.61316783333332 45.36126733333334 47.2</gx:coord>

<when>2026-09-22T03:11:19.000Z</when>
<gx:coord>-122.61527300000002 45.35951166666667 52.6</gx:coord>

<when>2026-09-22T03:11:30.000Z</when>
<gx:coord>-122.61743866666666 45.35779233333333 57.8</gx:coord>

<when>2026-09-22T03:11:41.000Z</when>
<gx:coord>-122.61990433333334 45.35631733333333 64.4</gx:coord>

<when>2026-09-22T03:11:52.000Z</when>
<gx:coord>-122.62237266666668 45.35488416666667 71.8</gx:coord>

<when>2026-09-22T03:12:03.000Z</when>
<gx:coord>-122.62479450000001 45.353470833333326 79.0</gx:coord>

<when>2026-09-22T03:12:14.000Z</when>
<gx:coord>-122.627279 45.35202433333334 83.8</gx:coord>

<when>2026-09-22T03:12:25.000Z</when>
<gx:coord>-122.63013766666667 45.35066583333334 83.3</gx:coord>

<when>2026-09-22T03:12:36.000Z</when>
<gx:coord>-122.63354383333332 45.349677166666666 78.6</gx:coord>

<when>2026-09-22T03:12:47.000Z</when>
<gx:coord>-122.63722683333332 45.349197999999994 74.3</gx:coord>

<when>2026-09-22T03:12:58.000Z</when>
<gx:coord>-122.64084333333334 45.34898750000001 70.6</gx:coord>

<when>2026-09-22T03:13:09.000Z</when>
<gx:coord>-122.64432233333333 45.348624666666666 64.3</gx:coord>

<when>2026-09-22T03:13:20.000Z</when>
<gx:coord>-122.647554 45.34815483333333 59.9</gx:coord>

<when>2026-09-22T03:13:31.000Z</when>
<gx:coord>-122.65026383333334 45.3481525 53.3</gx:coord>

<when>2026-09-22T03:13:42.000Z</when>
<gx:coord>-122.6513345 45.348276000000006 49.4</gx:coord>

<when>2026-09-22T03:14:04.000Z</when>
<gx:coord>-122.65178033333335 45.348276500000004 49.6</gx:coord>

<when>2026-09-22T03:14:15.000Z</when>
<gx:coord>-122.65192016666667 45.347440999999996 45.8</gx:coord>

<when>2026-09-22T03:14:26.000Z</when>
<gx:coord>-122.65190733333333 45.3462635 44.0</gx:coord>

<when>2026-09-22T03:14:37.000Z</when>
<gx:coord>-122.65202966666666 45.34597966666667 46.1</gx:coord>

<when>2026-09-22T03:14:48.000Z</when>
<gx:coord>-122.6523545 45.3459175 44.3</gx:coord>

<when>2026-09-22T03:14:59.000Z</when>
<gx:coord>-122.65283 45.34577233333333 45.1</gx:coord>

<when>2026-09-22T03:15:10.000Z</when>
<gx:coord>-122.65333583333334 45.345623833333335 48.2</gx:coord>

<when>2026-09-22T03:15:21.000Z</when>
<gx:coord>-122.65385366666666 45.34546516666666 53.1</gx:coord>

<when>2026-09-22T03:15:32.000Z</when>
<gx:coord>-122.65435416666666 45.345315 57.1</gx:coord>

<when>2026-09-22T03:15:43.000Z</when>
<gx:coord>-122.65464116666665 45.3452405 59.1</gx:coord>

<when>2026-09-22T03:15:54.000Z</when>
<gx:coord>-122.655094 45.34510166666667 59.5</gx:coord>

<when>2026-09-22T03:16:05.000Z</when>
<gx:coord>-122.65537449999998 45.345026000000004 60.2</gx:coord>

<when>2026-09-22T03:16:16.000Z</when>
<gx:coord>-122.65557249999999 45.34501866666666 63.9</gx:coord>

<when>2026-09-22T03:16:27.000Z</when>
<gx:coord>-122.655609 45.34509316666666 63.1</gx:coord>

<when>2026-09-22T03:16:38.000Z</when>
<gx:coord>-122.65562533333332 45.34529033333333 57.1</gx:coord>

<when>2026-09-22T03:16:49.000Z</when>
<gx:coord>-122.65560233333332 45.34546 63.8</gx:coord>

<when>2026-09-22T03:17:00.000Z</when>
<gx:coord>-122.65563416666667 45.34551316666666 68.8</gx:coord>

<when>2026-09-22T03:17:11.000Z</when>
<gx:coord>-122.65563466666666 45.34556966666667 71.4</gx:coord>

<when>2026-09-22T03:17:22.000Z</when>
<gx:coord>-122.65563849999998 45.34563166666667 71.3</gx:coord>

<when>2026-09-22T03:20:29.000Z</when>
<gx:coord>-122.65562550000001 45.345685 73.3</gx:coord>

<when>2026-09-22T03:26:10.000Z</when>
<gx:coord>-122.655643 45.345641166666674 71.6</gx:coord>

<when>2026-09-22T03:26:32.000Z</when>
<gx:coord>-122.655646 45.345521999999995 71.1</gx:coord>

<when>2026-09-22T03:26:43.000Z</when>
<gx:coord>-122.65565133333332 45.345446833333334 72.4</gx:coord>

<when>2026-09-22T03:26:54.000Z</when>
<gx:coord>-122.65563716666665 45.34539766666667 69.7</gx:coord>

<when>2026-09-22T03:27:16.000Z</when>
<gx:coord>-122.65562049999998 45.3453325 66.1</gx:coord>

<when>2026-09-22T03:27:49.000Z</when>
<gx:coord>-122.65558899999999 45.34527883333333 68.1</gx:coord>

<when>2026-09-22T03:28:11.000Z</when>
<gx:coord>-122.65564033333334 45.345305833333335 68.9</gx:coord>

<when>2026-09-22T03:29:50.000Z</when>
<gx:coord>-122.65570766666666 45.345293000000005 65.3</gx:coord>
</gx:Track>
</Placemark></Document></kml>
