<?xml version="1.0" encoding="UTF-8" ?><gpx version="1.1" creator="GPSLogger 135 - http://gpslogger.mendhak.com/" xmlns:xsi="http://www.w3.org/2001/XMLSchema-instance" xmlns="http://www.topografix.com/GPX/1/1" xmlns:gpxtpx="http://www.garmin.com/xmlschemas/TrackPointExtension/v2" xsi:schemaLocation="http://www.topografix.com/GPX/1/1 http://www.topografix.com/GPX/1/1/gpx.xsd http://www.garmin.com/xmlschemas/TrackPointExtension/v2 https://www8.garmin.com/xmlschemas/TrackPointExtensionv2.xsd "><metadata><time>2026-01-12T22:50:50.000Z</time></metadata><trk><name>20260112</name><trkseg><trkpt lat="24.054097000000002" lon="-109.98943733333333"><ele>43.9</ele><time>2026-01-12T22:50:50.000Z</time><extensions><gpxtpx:TrackPointExtension><gpxtpx:speed>0.16985834</gpxtpx:speed></gpxtpx:TrackPointExtension></extensions><geoidheight>-32.4</geoidheight><src>gps</src><hdop>2.38</hdop><vdop>2.61</vdop><pdop>3.53</pdop></trkpt>
<trkpt lat="24.054085" lon="-109.98934650000001"><ele>40.0</ele><time>2026-01-12T22:51:01.000Z</time><extensions><gpxtpx:TrackPointExtension><gpxtpx:speed>0.06331083</gpxtpx:speed></gpxtpx:TrackPointExtension></extensions><geoidheight>-32.4</geoidheight><src>gps</src><sat>5</sat><hdop>2.37</hdop><vdop>2.59</vdop><pdop>3.51</pdop></trkpt>
<trkpt lat="24.054076666666667" lon="-109.9892375"><ele>30.7</ele><time>2026-01-12T22:51:12.000Z</time><extensions><gpxtpx:TrackPointExtension><gpxtpx:speed>0.07978194</gpxtpx:speed></gpxtpx:TrackPointExtension></extensions><geoidheight>-32.4</geoidheight><src>gps</src><sat>8</sat><hdop>1.41</hdop><vdop>1.74</vdop><pdop>2.24</pdop></trkpt>
<trkpt lat="24.054074833333335" lon="-109.98916149999998"><ele>27.4</ele><time>2026-01-12T22:51:34.000Z</time><extensions><gpxtpx:TrackPointExtension><gpxtpx:speed>0.010809166</gpxtpx:speed></gpxtpx:TrackPointExtension></extensions><geoidheight>-32.4</geoidheight><src>gps</src><sat>10</sat><hdop>0.90</hdop><vdop>1.42</vdop><pdop>1.68</pdop></trkpt>
<trkpt lat="24.054022333333332" lon="-109.98918083333335"><ele>39.1</ele><time>2026-01-12T22:53:13.000Z</time><extensions><gpxtpx:TrackPointExtension><gpxtpx:speed>0.054045834</gpxtpx:speed></gpxtpx:TrackPointExtension></extensions><geoidheight>-32.4</geoidheight><src>gps</src><sat>14</sat><hdop>0.68</hdop><vdop>0.88</vdop><pdop>1.11</pdop><dgpsid>0000</dgpsid></trkpt>
<trkpt lat="24.054050666666665" lon="-109.98914116666668"><ele>28.1</ele><time>2026-01-12T22:57:48.000Z</time><extensions><gpxtpx:TrackPointExtension><gpxtpx:speed>0.0046325</gpxtpx:speed></gpxtpx:TrackPointExtension></extensions><geoidheight>-32.4</geoidheight><src>gps</src><sat>15</sat><hdop>0.64</hdop><vdop>0.88</vdop><pdop>1.09</pdop><dgpsid>0000</dgpsid></trkpt>
<trkpt lat="24.054004166666665" lon="-109.98917166666666"><ele>18.0</ele><time>2026-01-12T23:08:04.000Z</time><extensions><gpxtpx:TrackPointExtension><gpxtpx:speed>0.01647111</gpxtpx:speed></gpxtpx:TrackPointExtension></extensions><geoidheight>-32.4</geoidheight><src>gps</src><sat>16</sat><hdop>0.70</hdop><vdop>0.97</vdop><pdop>1.19</pdop><dgpsid>0000</dgpsid></trkpt>
<trkpt lat="24.054034333333334" lon="-109.98913266666665"><ele>19.2</ele><time>2026-01-12T23:11:11.000Z</time><extensions><gpxtpx:TrackPointExtension><gpxtpx:speed>0.024191944</gpxtpx:speed></gpxtpx:TrackPointExtension></extensions><geoidheight>-32.4</geoidheight><src>gps</src><sat>15</sat><hdop>0.76</hdop><vdop>1.03</vdop><pdop>1.28</pdop><dgpsid>0000</dgpsid></trkpt>
<trkpt lat="24.054010666666667" lon="-109.98907933333334"><ele>14.1</ele><time>2026-01-12T23:14:07.000Z</time><extensions><gpxtpx:TrackPointExtension><gpxtpx:speed>0.028824445</gpxtpx:speed></gpxtpx:TrackPointExtension></extensions><geoidheight>-32.4</geoidheight><src>gps</src><sat>14</sat><hdop>0.75</hdop><vdop>1.06</vdop><pdop>1.30</pdop><dgpsid>0000</dgpsid></trkpt>
<trkpt lat="24.0540485" lon="-109.98911600000001"><ele>18.0</ele><time>2026-01-12T23:14:51.000Z</time><extensions><gpxtpx:TrackPointExtension><gpxtpx:speed>0.042207222</gpxtpx:speed></gpxtpx:TrackPointExtension></extensions><geoidheight>-32.4</geoidheight><src>gps</src><sat>13</sat><hdop>0.79</hdop><vdop>1.38</vdop><pdop>1.59</pdop><dgpsid>0000</dgpsid></trkpt>
<trkpt lat="24.054001333333336" lon="-109.98911000000001"><ele>7.0</ele><time>2026-01-12T23:17:14.000Z</time><extensions><gpxtpx:TrackPointExtension><gpxtpx:speed>0.006176667</gpxtpx:speed></gpxtpx:TrackPointExtension></extensions><geoidheight>-32.4</geoidheight><src>gps</src><sat>13</sat><hdop>0.75</hdop><vdop>1.22</vdop><pdop>1.44</pdop><dgpsid>0000</dgpsid></trkpt>
<trkpt lat="24.05403833333333" lon="-109.98914183333333"><ele>19.1</ele><time>2026-01-12T23:22:11.000Z</time><extensions><gpxtpx:TrackPointExtension><gpxtpx:speed>0.01853</gpxtpx:speed></gpxtpx:TrackPointExtension></extensions><geoidheight>-32.4</geoidheight><src>gps</src><sat>15</sat><hdop>0.71</hdop><vdop>1.10</vdop><pdop>1.31</pdop><dgpsid>0000</dgpsid></trkpt>
<trkpt lat="24.05402616666667" lon="-109.98909316666668"><ele>18.7</ele><time>2026-01-12T23:23:17.000Z</time><extensions><gpxtpx:TrackPointExtension><gpxtpx:speed>0.0030883334</gpxtpx:speed></gpxtpx:TrackPointExtension></extensions><geoidheight>-32.4</geoidheight><src>gps</src><sat>15</sat><hdop>0.74</hdop><vdop>1.11</vdop><pdop>1.33</pdop><dgpsid>0000</dgpsid></trkpt>
</trkseg></trk></gpx>