<?xml version="1.0" encoding="UTF-8" ?><gpx version="1.1" creator="GPSLogger 135 - http://gpslogger.mendhak.com/" xmlns:xsi="http://www.w3.org/2001/XMLSchema-instance" xmlns="http://www.topografix.com/GPX/1/1" xmlns:gpxtpx="http://www.garmin.com/xmlschemas/TrackPointExtension/v2" xsi:schemaLocation="http://www.topografix.com/GPX/1/1 http://www.topografix.com/GPX/1/1/gpx.xsd http://www.garmin.com/xmlschemas/TrackPointExtension/v2 https://www8.garmin.com/xmlschemas/TrackPointExtensionv2.xsd "><metadata><time>2026-02-08T01:43:20.000Z</time></metadata><trk><name>20260207</name><trkseg><trkpt lat="24.054010333333334" lon="-109.98903416666666"><ele>8.3</ele><time>2026-02-08T01:43:20.000Z</time><extensions><gpxtpx:TrackPointExtension><gpxtpx:bearing>168.1</gpxtpx:bearing><gpxtpx:speed>0.62899053</gpxtpx:speed></gpxtpx:TrackPointExtension></extensions><geoidheight>-32.4</geoidheight><src>gps</src><sat>5</sat><hdop>3.35</hdop><vdop>2.08</vdop><pdop>3.94</pdop></trkpt>
<trkpt lat="24.054076000000002" lon="-109.98905283333333"><ele>9.0</ele><time>2026-02-08T01:43:52.000Z</time><extensions><gpxtpx:TrackPointExtension><gpxtpx:speed>0.0051472224</gpxtpx:speed></gpxtpx:TrackPointExtension></extensions><geoidheight>-32.4</geoidheight><src>gps</src><sat>11</sat><hdop>1.19</hdop><vdop>1.39</vdop><pdop>1.83</pdop></trkpt>
<trkpt lat="24.054122" lon="-109.98906666666666"><ele>6.1</ele><time>2026-02-08T01:49:44.000Z</time><extensions><gpxtpx:TrackPointExtension><gpxtpx:speed>0.040663056</gpxtpx:speed></gpxtpx:TrackPointExtension></extensions><geoidheight>-32.4</geoidheight><src>gps</src><sat>17</sat><hdop>0.78</hdop><vdop>1.26</vdop><pdop>1.48</pdop></trkpt>
<trkpt lat="24.054166833333337" lon="-109.98907666666668"><ele>8.4</ele><time>2026-02-08T01:51:12.000Z</time><extensions><gpxtpx:TrackPointExtension><gpxtpx:speed>0.04478083</gpxtpx:speed></gpxtpx:TrackPointExtension></extensions><geoidheight>-32.4</geoidheight><src>gps</src><sat>15</sat><hdop>0.67</hdop><vdop>1.11</vdop><pdop>1.30</pdop></trkpt>
</trkseg></trk></gpx>