<?xml version="1.0" encoding="UTF-8" ?><gpx version="1.1" creator="GPSLogger 135 - http://gpslogger.mendhak.com/" xmlns:xsi="http://www.w3.org/2001/XMLSchema-instance" xmlns="http://www.topografix.com/GPX/1/1" xmlns:gpxtpx="http://www.garmin.com/xmlschemas/TrackPointExtension/v2" xsi:schemaLocation="http://www.topografix.com/GPX/1/1 http://www.topografix.com/GPX/1/1/gpx.xsd http://www.garmin.com/xmlschemas/TrackPointExtension/v2 https://www8.garmin.com/xmlschemas/TrackPointExtensionv2.xsd "><metadata><time>2026-07-17T03:12:33.000Z</time></metadata><trk><name>20260716</name><trkseg><trkpt lat="45.69872650000001" lon="-121.53181166666667"><ele>162.5</ele><time>2026-07-17T03:12:33.000Z</time><extensions><gpxtpx:TrackPointExtension><gpxtpx:speed>0.057134166</gpxtpx:speed></gpxtpx:TrackPointExtension></extensions><geoidheight>-20.1</geoidheight><src>gps</src><sat>4</sat></trkpt>
<trkpt lat="45.69877150000001" lon="-121.53181383333335"><ele>169.1</ele><time>2026-07-17T03:12:46.000Z</time><extensions><gpxtpx:TrackPointExtension><gpxtpx:speed>0.008750278</gpxtpx:speed></gpxtpx:TrackPointExtension></extensions><geoidheight>-20.1</geoidheight><src>gps</src><sat>7</sat><hdop>1.34</hdop><vdop>1.20</vdop><pdop>1.80</pdop></trkpt>
<trkpt lat="45.698719" lon="-121.5318055"><ele>161.7</ele><time>2026-07-17T03:13:41.000Z</time><extensions><gpxtpx:TrackPointExtension><gpxtpx:speed>0.010294445</gpxtpx:speed></gpxtpx:TrackPointExtension></extensions><geoidheight>-20.1</geoidheight><src>gps</src><sat>11</sat><hdop>0.89</hdop><vdop>0.91</vdop><pdop>1.27</pdop></trkpt>
<trkpt lat="45.698761166666664" lon="-121.53178199999999"><ele>160.6</ele><time>2026-07-17T03:14:58.000Z</time><extensions><gpxtpx:TrackPointExtension><gpxtpx:speed>0.086988054</gpxtpx:speed></gpxtpx:TrackPointExtension></extensions><geoidheight>-20.1</geoidheight><src>gps</src><sat>12</sat><hdop>0.89</hdop><vdop>0.98</vdop><pdop>1.32</pdop></trkpt>
<trkpt lat="45.69871566666667" lon="-121.5317735"><ele>158.2</ele><time>2026-07-17T03:17:43.000Z</time><extensions><gpxtpx:TrackPointExtension><gpxtpx:speed>0.007720833</gpxtpx:speed></gpxtpx:TrackPointExtension></extensions><geoidheight>-20.1</geoidheight><src>gps</src><sat>13</sat><hdop>0.69</hdop><vdop>0.84</vdop><pdop>1.09</pdop><dgpsid>0000</dgpsid></trkpt>
</trkseg></trk></gpx>