<?xml version="1.0" encoding="UTF-8" ?><gpx version="1.1" creator="GPSLogger 135 - http://gpslogger.mendhak.com/" xmlns:xsi="http://www.w3.org/2001/XMLSchema-instance" xmlns="http://www.topografix.com/GPX/1/1" xmlns:gpxtpx="http://www.garmin.com/xmlschemas/TrackPointExtension/v2" xsi:schemaLocation="http://www.topografix.com/GPX/1/1 http://www.topografix.com/GPX/1/1/gpx.xsd http://www.garmin.com/xmlschemas/TrackPointExtension/v2 https://www8.garmin.com/xmlschemas/TrackPointExtensionv2.xsd "><metadata><time>2026-01-23T19:26:33.000Z</time></metadata><trk><name>20260123</name><trkseg><trkpt lat="24.054041166666668" lon="-109.98913300000001"><ele>20.5</ele><time>2026-01-23T19:26:33.000Z</time><extensions><gpxtpx:TrackPointExtension><gpxtpx:speed>0.14978416</gpxtpx:speed></gpxtpx:TrackPointExtension></extensions><geoidheight>-32.4</geoidheight><src>gps</src><sat>6</sat><hdop>2.61</hdop><vdop>2.77</vdop><pdop>3.80</pdop></trkpt>
<trkpt lat="24.054059833333334" lon="-109.98917850000001"><ele>27.2</ele><time>2026-01-23T19:29:42.000Z</time><extensions><gpxtpx:TrackPointExtension><gpxtpx:speed>0.008235555</gpxtpx:speed></gpxtpx:TrackPointExtension></extensions><geoidheight>-32.4</geoidheight><src>gps</src><sat>14</sat><hdop>0.71</hdop><vdop>0.92</vdop><pdop>1.16</pdop><dgpsid>0000</dgpsid></trkpt>
<trkpt lat="24.054103666666666" lon="-109.98919400000001"><ele>15.6</ele><time>2026-01-23T19:31:43.000Z</time><extensions><gpxtpx:TrackPointExtension><gpxtpx:speed>0.008235555</gpxtpx:speed></gpxtpx:TrackPointExtension></extensions><geoidheight>-32.4</geoidheight><src>gps</src><sat>16</sat><hdop>0.67</hdop><vdop>1.00</vdop><pdop>1.20</pdop><dgpsid>0000</dgpsid></trkpt>
<trkpt lat="24.0541705" lon="-109.98914933333332"><ele>8.9</ele><time>2026-01-23T19:32:16.000Z</time><extensions><gpxtpx:TrackPointExtension><gpxtpx:bearing>37.02</gpxtpx:bearing><gpxtpx:speed>0.6274464</gpxtpx:speed></gpxtpx:TrackPointExtension></extensions><geoidheight>-32.4</geoidheight><src>gps</src><sat>17</sat><hdop>0.68</hdop><vdop>0.95</vdop><pdop>1.17</pdop><dgpsid>0000</dgpsid></trkpt>
<trkpt lat="24.054119333333333" lon="-109.98914266666667"><ele>8.0</ele><time>2026-01-23T19:33:45.000Z</time><extensions><gpxtpx:TrackPointExtension><gpxtpx:speed>0.14875472</gpxtpx:speed></gpxtpx:TrackPointExtension></extensions><geoidheight>-32.4</geoidheight><src>gps</src><sat>17</sat><hdop>0.68</hdop><vdop>0.94</vdop><pdop>1.16</pdop><dgpsid>0000</dgpsid></trkpt>
<trkpt lat="24.054124" lon="-109.9890925"><ele>7.3</ele><time>2026-01-23T19:40:43.000Z</time><extensions><gpxtpx:TrackPointExtension><gpxtpx:speed>0.065369725</gpxtpx:speed></gpxtpx:TrackPointExtension></extensions><geoidheight>-32.4</geoidheight><src>gps</src><sat>16</sat><hdop>0.68</hdop><vdop>1.01</vdop><pdop>1.22</pdop><dgpsid>0000</dgpsid></trkpt>
<trkpt lat="24.054128" lon="-109.98907499999999"><ele>21.1</ele><time>2026-01-23T20:32:29.000Z</time><extensions><gpxtpx:TrackPointExtension><gpxtpx:speed>0.0787525</gpxtpx:speed></gpxtpx:TrackPointExtension></extensions><geoidheight>-32.4</geoidheight><src>gps</src><sat>7</sat><hdop>3.31</hdop><vdop>2.15</vdop><pdop>3.95</pdop></trkpt>
<trkpt lat="24.054074666666665" lon="-109.9890745"><ele>23.0</ele><time>2026-01-23T20:33:46.000Z</time><extensions><gpxtpx:TrackPointExtension><gpxtpx:speed>0.007206111</gpxtpx:speed></gpxtpx:TrackPointExtension></extensions><geoidheight>-32.4</geoidheight><src>gps</src><sat>13</sat><hdop>0.85</hdop><vdop>1.21</vdop><pdop>1.48</pdop></trkpt>
</trkseg></trk></gpx>