<?xml version="1.0" encoding="UTF-8"?><kml xmlns="http://www.opengis.net/kml/2.2" xmlns:gx="http://www.google.com/kml/ext/2.2" xmlns:kml="http://www.opengis.net/kml/2.2" xmlns:atom="http://www.w3.org/2005/Atom"><Document><name>2026-03-18T02:05:40.000Z</name>
<Placemark>
<gx:Track>

<when>2026-03-18T02:05:40.000Z</when>
<gx:coord>-109.98896 24.054045166666665 -3.6</gx:coord>

<when>2026-03-18T02:06:02.000Z</when>
<gx:coord>-109.989023 24.054085833333335 3.5</gx:coord>

<when>2026-03-18T02:06:35.000Z</when>
<gx:coord>-109.98903666666665 24.054041166666668 3.7</gx:coord>

<when>2026-03-18T02:07:41.000Z</when>
<gx:coord>-109.98906866666667 24.054083 3.3</gx:coord>
</gx:Track>
</Placemark></Document></kml>
