<?xml version="1.0" encoding="UTF-8" ?><gpx version="1.1" creator="GPSLogger 135 - http://gpslogger.mendhak.com/" xmlns:xsi="http://www.w3.org/2001/XMLSchema-instance" xmlns="http://www.topografix.com/GPX/1/1" xmlns:gpxtpx="http://www.garmin.com/xmlschemas/TrackPointExtension/v2" xsi:schemaLocation="http://www.topografix.com/GPX/1/1 http://www.topografix.com/GPX/1/1/gpx.xsd http://www.garmin.com/xmlschemas/TrackPointExtension/v2 https://www8.garmin.com/xmlschemas/TrackPointExtensionv2.xsd "><metadata><time>2026-05-29T00:38:03.000Z</time></metadata><trk><name>20260528</name><trkseg><trkpt lat="45.69865683333334" lon="-121.53187000000001"><ele>182.6</ele><time>2026-05-29T00:38:03.000Z</time><extensions><gpxtpx:TrackPointExtension><gpxtpx:speed>0.1621375</gpxtpx:speed></gpxtpx:TrackPointExtension></extensions><geoidheight>-20.1</geoidheight><src>gps</src><hdop>3.49</hdop><vdop>1.97</vdop><pdop>4.00</pdop></trkpt>
<trkpt lat="45.698790333333335" lon="-121.53181500000001"><ele>171.1</ele><time>2026-05-29T00:38:13.000Z</time><extensions><gpxtpx:TrackPointExtension><gpxtpx:speed>0.064855</gpxtpx:speed></gpxtpx:TrackPointExtension></extensions><geoidheight>-20.1</geoidheight><src>gps</src><sat>7</sat><hdop>1.77</hdop><vdop>1.78</vdop><pdop>2.50</pdop></trkpt>
<trkpt lat="45.698861333333326" lon="-121.531813"><ele>168.2</ele><time>2026-05-29T00:39:20.000Z</time><extensions><gpxtpx:TrackPointExtension><gpxtpx:speed>0.023677222</gpxtpx:speed></gpxtpx:TrackPointExtension></extensions><geoidheight>-20.1</geoidheight><src>gps</src><sat>9</sat><hdop>1.41</hdop><vdop>1.14</vdop><pdop>1.82</pdop></trkpt>
<trkpt lat="45.698816" lon="-121.53180150000001"><ele>167.1</ele><time>2026-05-29T00:39:31.000Z</time><extensions><gpxtpx:TrackPointExtension><gpxtpx:speed>0.14463694</gpxtpx:speed></gpxtpx:TrackPointExtension></extensions><geoidheight>-20.1</geoidheight><src>gps</src><sat>8</sat><hdop>1.67</hdop><vdop>1.76</vdop><pdop>2.43</pdop></trkpt>
<trkpt lat="45.69875566666666" lon="-121.5318205"><ele>164.3</ele><time>2026-05-29T00:41:43.000Z</time><extensions><gpxtpx:TrackPointExtension><gpxtpx:speed>0.022133056</gpxtpx:speed></gpxtpx:TrackPointExtension></extensions><geoidheight>-20.1</geoidheight><src>gps</src><sat>9</sat><hdop>1.48</hdop><vdop>1.32</vdop><pdop>1.98</pdop></trkpt>
<trkpt lat="45.69880666666666" lon="-121.53181416666666"><ele>165.1</ele><time>2026-05-29T00:42:27.000Z</time><extensions><gpxtpx:TrackPointExtension><gpxtpx:speed>0.03963361</gpxtpx:speed></gpxtpx:TrackPointExtension></extensions><geoidheight>-20.1</geoidheight><src>gps</src><sat>9</sat><hdop>1.61</hdop><vdop>1.87</vdop><pdop>2.47</pdop></trkpt>
<trkpt lat="45.6987315" lon="-121.53185966666666"><time>2026-05-29T01:15:55.000Z</time><extensions><gpxtpx:TrackPointExtension><gpxtpx:speed>0.24037528</gpxtpx:speed></gpxtpx:TrackPointExtension></extensions><geoidheight>-20.1</geoidheight><src>gps</src><hdop>2.72</hdop><vdop>5.05</vdop><pdop>5.74</pdop></trkpt>
<trkpt lat="45.69867533333333" lon="-121.53177499999998"><ele>163.9</ele><time>2026-05-29T01:20:26.000Z</time><extensions><gpxtpx:TrackPointExtension><gpxtpx:speed>0.1436075</gpxtpx:speed></gpxtpx:TrackPointExtension></extensions><geoidheight>-20.1</geoidheight><src>gps</src><sat>7</sat><hdop>2.01</hdop><vdop>3.02</vdop><pdop>3.62</pdop></trkpt>
<trkpt lat="45.698729