<?xml version="1.0" encoding="UTF-8" ?><gpx version="1.1" creator="GPSLogger 135 - http://gpslogger.mendhak.com/" xmlns:xsi="http://www.w3.org/2001/XMLSchema-instance" xmlns="http://www.topografix.com/GPX/1/1" xmlns:gpxtpx="http://www.garmin.com/xmlschemas/TrackPointExtension/v2" xsi:schemaLocation="http://www.topografix.com/GPX/1/1 http://www.topografix.com/GPX/1/1/gpx.xsd http://www.garmin.com/xmlschemas/TrackPointExtension/v2 https://www8.garmin.com/xmlschemas/TrackPointExtensionv2.xsd "><metadata><time>2026-02-10T01:26:20.000Z</time></metadata><trk><name>20260209</name><trkseg><trkpt lat="24.054130999999998" lon="-109.98902799999999"><ele>10.2</ele><time>2026-02-10T01:26:20.000Z</time><extensions><gpxtpx:TrackPointExtension><gpxtpx:speed>0.11529778</gpxtpx:speed></gpxtpx:TrackPointExtension></extensions><geoidheight>-32.4</geoidheight><src>gps</src><sat>6</sat><hdop>2.21</hdop><vdop>3.22</vdop><pdop>3.91</pdop></trkpt>
<trkpt lat="24.05409066666667" lon="-109.98905533333333"><ele>8.7</ele><time>2026-02-10T01:27:15.000Z</time><extensions><gpxtpx:TrackPointExtension><gpxtpx:speed>0.07514945</gpxtpx:speed></gpxtpx:TrackPointExtension></extensions><geoidheight>-32.4</geoidheight><src>gps</src><sat>11</sat><hdop>1.07</hdop><vdop>1.58</vdop><pdop>1.90</pdop></trkpt>
</trkseg></trk></gpx>