<?xml version="1.0" encoding="UTF-8"?><kml xmlns="http://www.opengis.net/kml/2.2" xmlns:gx="http://www.google.com/kml/ext/2.2" xmlns:kml="http://www.opengis.net/kml/2.2" xmlns:atom="http://www.w3.org/2005/Atom"><Document><name>2026-05-24T22:42:03.000Z</name>
<Placemark>
<gx:Track>

<when>2026-05-24T22:42:03.000Z</when>
<gx:coord>-116.99691416666668 44.06840333333333 671.7</gx:coord>

<when>2026-05-24T22:42:14.000Z</when>
<gx:coord>-116.99877866666665 44.07037216666666 684.5</gx:coord>

<when>2026-05-24T22:42:25.000Z</when>
<gx:coord>-117.00083466666668 44.07198783333333 695.1</gx:coord>

<when>2026-05-24T22:42:36.000Z</when>
<gx:coord>-117.00290266666667 44.07347883333333 704.1</gx:coord>

<when>2026-05-24T22:42:47.000Z</when>
<gx:coord>-117.00500433333333 44.07499333333333 710.6</gx:coord>

<when>2026-05-24T22:42:58.000Z</when>
<gx:coord>-117.00722300000001 44.07659116666667 714.4</gx:coord>

<when>2026-05-24T22:43:09.000Z</when>
<gx:coord>-117.00962550000001 44.078318499999995 716.9</gx:coord>

<when>2026-05-24T22:43:20.000Z</when>
<gx:coord>-117.01220716666667 44.08017916666666 718.6</gx:coord>

<when>2026-05-24T22:43:31.000Z</when>
<gx:coord>-117.0149525 44.0821555 720.2</gx:coord>

<when>2026-05-24T22:43:42.000Z</when>
<gx:coord>-117.01779333333334 44.084205833333336 721.7</gx:coord>

<when>2026-05-24T22:43:53.000Z</when>
<gx:coord>-117.02066083333332 44.08630816666667 726.3</gx:coord>

<when>2026-05-24T22:44:04.000Z</when>
<gx:coord>-117.02350116666666 44.08840433333333 731.4</gx:coord>

<when>2026-05-24T22:44:15.000Z</when>
<gx:coord>-117.02629366666666 44.09047233333334 736.2</gx:coord>

<when>2026-05-24T22:44:26.000Z</when>
<gx:coord>-117.029079 44.09253066666667 740.6</gx:coord>

<when>2026-05-24T22:44:37.000Z</when>
<gx:coord>-117.0318875 44.094568333333335 740.0</gx:coord>

<when>2026-05-24T22:44:48.000Z</when>
<gx:coord>-117.03479100000001 44.09665283333334 732.0</gx:coord>

<when>2026-05-24T22:44:59.000Z</when>
<gx:coord>-117.03779933333333 44.0988155 727.5</gx:coord>

<when>2026-05-24T22:45:10.000Z</when>
<gx:coord>-117.040734 44.100924 736.6</gx:coord>

<when>2026-05-24T22:45:21.000Z</when>
<gx:coord>-117.04349883333335 44.1029095 747.4</gx:coord>

<when>2026-05-24T22:45:32.000Z</when>
<gx:coord>-117.04610499999998 44.10478150000001 757.2</gx:coord>

<when>2026-05-24T22:45:43.000Z</when>
<gx:coord>-117.04858683333332 44.1065675 767.3</gx:coord>

<when>2026-05-24T22:45:54.000Z</when>
<gx:coord>-117.05092850000001 44.10824183333334 778.2</gx:coord>

<when>2026-05-24T22:46:05.000Z</when>
<gx:coord>-117.05312649999999 44.109815833333336 787.7</gx:coord>

<when>2026-05-24T22:46:16.000Z</when>
<gx:coord>-117.05525000000002 44.111341499999995 795.3</gx:coord>

<when>2026-05-24T22:46:27.000Z</when>
<gx:coord>-117.05739899999999 44.112883499999995 801.0</gx:coord>

<when>2026-05-24T22:46:38.000Z</when>
<gx:coord>-117.05965133333332 44.114510833333334 803.9</gx:coord>

<when>2026-05-24T22:46:49.000Z</when>
<gx:coord>-117.06208550000001 44.116262166666665 803.6</gx:coord>

<when>2026-05-24T22:47:00.000Z</when>
<gx:coord>-117.06484416666666 44.11812183333333 799.8</gx:coord>

<when>2026-05-24T22:47:11.000Z</when>
<gx:coord>-117.06827633333333 44.119869666666666 793.1</gx:coord>

<when>2026-05-24T22:47:22.000Z</when>
<gx:coord>-117.071965 44.12142733333334 791.5</gx:coord>

<when>2026-05-24T22:47:33.000Z</when>
<gx:coord>-117.07544233333334 44.12301816666666 792.9</gx:coord>

<when>2026-05-24T22:47:44.000Z</when>
<gx:coord>-117.07878299999999 44.12471133333334 794.0</gx:coord>

<when>2026-05-24T22:47:55.000Z</when>
<gx:coord>-117.08197366666667 44.12649 798.1</gx:coord>

<when>2026-05-24T22:48:06.000Z</when>
<gx:coord>-117.08490333333333 44.12828283333333 807.7</gx:coord>

<when>2026-05-24T22:48:17.000Z</when>
<gx:coord>-117.08753616666667 44.12997699999999 820.4</gx:coord>

<when>2026-05-24T22:48:28.000Z</when>
<gx:coord>-117.08984200000002 44.13152866666666 834.0</gx:coord>

<when>2026-05-24T22:48:39.000Z</when>
<gx:coord>-117.09186666666668 44.1329685 844.9</gx:coord>

<when>2026-05-24T22:48:50.000Z</when>
<gx:coord>-117.09376966666666 44.13439700000001 853.4</gx:coord>

<when>2026-05-24T22:49:01.000Z</when>
<gx:coord>-117.09564566666668 44.135875500000004 860.7</gx:coord>

<when>2026-05-24T22:49:12.000Z</when>
<gx:coord>-117.09754383333332 44.13745366666667 864.4</gx:coord>

<when>2026-05-24T22:49:23.000Z</when>
<gx:coord>-117.09948583333335 44.13915383333333 868.4</gx:coord>

<when>2026-05-24T22:49:34.000Z</when>
<gx:coord>-117.10143850000001 44.14096216666667 873.0</gx:coord>

<when>2026-05-24T22:49:45.000Z</when>
<gx:coord>-117.1033675 44.1428685 877.1</gx:coord>

<when>2026-05-24T22:49:56.000Z</when>
<gx:coord>-117.10526983333332 44.14487866666666 882.2</gx:coord>

<when>2026-05-24T22:50:07.000Z</when>
<gx:coord>-117.10714416666666 44.146981833333335 886.1</gx:coord>

<when>2026-05-24T22:50:18.000Z</when>
<gx:coord>-117.10896716666666 44.149242333333326 888.1</gx:coord>

<when>2026-05-24T22:50:29.000Z</when>
<gx:coord>-117.11077300000001 44.15171399999999 887.2</gx:coord>

<when>2026-05-24T22:50:40.000Z</when>
<gx:coord>-117.11265499999999 44.154338833333334 885.5</gx:coord>

<when>2026-05-24T22:50:51.000Z</when>
<gx:coord>-117.11459083333332 44.157015833333325 879.3</gx:coord>

<when>2026-05-24T22:51:02.000Z</when>
<gx:coord>-117.11623833333333 44.15978 865.2</gx:coord>

<when>2026-05-24T22:51:13.000Z</when>
<gx:coord>-117.11748700000001 44.16269166666666 849.6</gx:coord>

<when>2026-05-24T22:51:24.000Z</when>
<gx:coord>-117.12011416666668 44.16512550000001 833.0</gx:coord>

<when>2026-05-24T22:51:35.000Z</when>
<gx:coord>-117.12338999999999 44.16741866666666 814.9</gx:coord>

<when>2026-05-24T22:51:46.000Z</when>
<gx:coord>-117.12670433333332 44.16974816666667 798.1</gx:coord>

<when>2026-05-24T22:51:57.000Z</when>
<gx:coord>-117.12991533333334 44.1719765 793.7</gx:coord>

<when>2026-05-24T22:52:08.000Z</when>
<gx:coord>-117.13262016666667 44.17431266666667 791.9</gx:coord>

<when>2026-05-24T22:52:19.000Z</when>
<gx:coord>-117.13422766666666 44.17710399999999 790.2</gx:coord>

<when>2026-05-24T22:52:30.000Z</when>
<gx:coord>-117.13505599999999 44.18010983333333 782.1</gx:coord>

<when>2026-05-24T22:52:41.000Z</when>
<gx:coord>-117.1358345 44.1831515 776.8</gx:coord>

<when>2026-05-24T22:52:52.000Z</when>
<gx:coord>-117.13660433333334 44.18609866666667 785.8</gx:coord>

<when>2026-05-24T22:53:03.000Z</when>
<gx:coord>-117.13741183333335 44.188811 797.3</gx:coord>

<when>2026-05-24T22:53:14.000Z</when>
<gx:coord>-117.138674 44.19123616666668 808.6</gx:coord>

<when>2026-05-24T22:53:25.000Z</when>
<gx:coord>-117.14030316666667 44.19329916666667 821.6</gx:coord>

<when>2026-05-24T22:53:36.000Z</when>
<gx:coord>-117.14198616666665 44.19511066666667 832.9</gx:coord>

<when>2026-05-24T22:53:47.000Z</when>
<gx:coord>-117.14350416666666 44.196814833333335 842.9</gx:coord>

<when>2026-05-24T22:53:58.000Z</when>
<gx:coord>-117.14445566666667 44.19857833333334 853.5</gx:coord>

<when>2026-05-24T22:54:09.000Z</when>
<gx:coord>-117.14479350000002 44.200371 864.3</gx:coord>

<when>2026-05-24T22:54:20.000Z</when>
<gx:coord>-117.14458799999998 44.202202500000006 872.4</gx:coord>

<when>2026-05-24T22:54:31.000Z</when>
<gx:coord>-117.14428233333335 44.20419083333333 878.1</gx:coord>

<when>2026-05-24T22:54:42.000Z</when>
<gx:coord>-117.1447665 44.2064395 876.8</gx:coord>

<when>2026-05-24T22:54:53.000Z</when>
<gx:coord>-117.1466325 44.208737500000005 865.8</gx:coord>

<when>2026-05-24T22:55:04.000Z</when>
<gx:coord>-117.149037 44.211070333333325 852.1</gx:coord>

<when>2026-05-24T22:55:15.000Z</when>
<gx:coord>-117.15102616666667 44.213466000000004 855.8</gx:coord>

<when>2026-05-24T22:55:26.000Z</when>
<gx:coord>-117.15225749999999 44.215749833333334 871.0</gx:coord>

<when>2026-05-24T22:55:37.000Z</when>
<gx:coord>-117.15292583333333 44.21784883333333 881.8</gx:coord>

<when>2026-05-24T22:55:48.000Z</when>
<gx:coord>-117.15343333333334 44.21991849999999 888.7</gx:coord>

<when>2026-05-24T22:55:59.000Z</when>
<gx:coord>-117.15484766666665 44.221892499999996 889.0</gx:coord>

<when>2026-05-24T22:56:10.000Z</when>
<gx:coord>-117.15752266666665 44.22339133333333 884.1</gx:coord>

<when>2026-05-24T22:56:21.000Z</when>
<gx:coord>-117.16059283333334 44.224681833333335 871.2</gx:coord>

<when>2026-05-24T22:56:32.000Z</when>
<gx:coord>-117.1634375 44.22644333333333 854.7</gx:coord>

<when>2026-05-24T22:56:43.000Z</when>
<gx:coord>-117.16586533333333 44.22870833333333 838.6</gx:coord>

<when>2026-05-24T22:56:54.000Z</when>
<gx:coord>-117.16769350000001 44.23136983333334 821.5</gx:coord>

<when>2026-05-24T22:57:05.000Z</when>
<gx:coord>-117.16941516666665 44.234106999999995 805.4</gx:coord>

<when>2026-05-24T22:57:16.000Z</when>
<gx:coord>-117.17107349999999 44.236817 789.3</gx:coord>

<when>2026-05-24T22:57:27.000Z</when>
<gx:coord>-117.17264183333333 44.239400833333335 773.8</gx:coord>

<when>2026-05-24T22:57:38.000Z</when>
<gx:coord>-117.1742285 44.241988000000006 758.3</gx:coord>

<when>2026-05-24T22:57:49.000Z</when>
<gx:coord>-117.175726 44.24444783333333 743.6</gx:coord>

<when>2026-05-24T22:58:00.000Z</when>
<gx:coord>-117.17667949999999 44.24697716666666 727.8</gx:coord>

<when>2026-05-24T22:58:11.000Z</when>
<gx:coord>-117.17652916666665 44.24958616666666 712.2</gx:coord>

<when>2026-05-24T22:58:22.000Z</when>
<gx:coord>-117.1761485 44.252053833333335 697.9</gx:coord>

<when>2026-05-24T22:58:33.000Z</when>
<gx:coord>-117.17586933333332 44.25456916666667 683.8</gx:coord>

<when>2026-05-24T22:58:44.000Z</when>
<gx:coord>-117.17674916666668 44.256805166666666 670.7</gx:coord>

<when>2026-05-24T22:58:55.000Z</when>
<gx:coord>-117.17902633333333 44.25851833333333 658.3</gx:coord>

<when>2026-05-24T22:59:06.000Z</when>
<gx:coord>-117.18153183333334 44.26006616666667 648.0</gx:coord>

<when>2026-05-24T22:59:17.000Z</when>
<gx:coord>-117.1840665 44.26147733333334 646.7</gx:coord>

<when>2026-05-24T22:59:28.000Z</when>
<gx:coord>-117.187164 44.262511499999995 647.5</gx:coord>

<when>2026-05-24T22:59:39.000Z</when>
<gx:coord>-117.19027400000002 44.2635555 649.0</gx:coord>

<when>2026-05-24T22:59:50.000Z</when>
<gx:coord>-117.19259249999999 44.265201833333336 647.3</gx:coord>

<when>2026-05-24T23:00:01.000Z</when>
<gx:coord>-117.19428633333334 44.267237666666674 650.3</gx:coord>

<when>2026-05-24T23:00:12.000Z</when>
<gx:coord>-117.19650099999998 44.26907166666667 652.6</gx:coord>

<when>2026-05-24T23:00:23.000Z</when>
<gx:coord>-117.19944383333335 44.27025033333333 655.4</gx:coord>

<when>2026-05-24T23:00:34.000Z</when>
<gx:coord>-117.20208216666667 44.27134850000001 656.1</gx:coord>

<when>2026-05-24T23:00:45.000Z</when>
<gx:coord>-117.20420016666667 44.27298883333333 653.8</gx:coord>

<when>2026-05-24T23:00:56.000Z</when>
<gx:coord>-117.20622233333333 44.27481850000001 652.4</gx:coord>

<when>2026-05-24T23:01:07.000Z</when>
<gx:coord>-117.2079845 44.27694966666666 653.8</gx:coord>

<when>2026-05-24T23:01:18.000Z</when>
<gx:coord>-117.20935400000002 44.2793435 654.2</gx:coord>

<when>2026-05-24T23:01:29.000Z</when>
<gx:coord>-117.21115433333334 44.281623999999994 657.8</gx:coord>

<when>2026-05-24T23:01:40.000Z</when>
<gx:coord>-117.21347383333332 44.283673 658.2</gx:coord>

<when>2026-05-24T23:01:51.000Z</when>
<gx:coord>-117.21619566666668 44.285439333333336 654.8</gx:coord>

<when>2026-05-24T23:02:02.000Z</when>
<gx:coord>-117.21874883333334 44.2869995 652.6</gx:coord>

<when>2026-05-24T23:02:13.000Z</when>
<gx:coord>-117.22008466666666 44.288074333333334 652.5</gx:coord>

<when>2026-05-24T23:02:24.000Z</when>
<gx:coord>-117.22122216666666 44.28919899999999 650.3</gx:coord>

<when>2026-05-24T23:02:35.000Z</when>
<gx:coord>-117.22199216666668 44.290468 647.2</gx:coord>

<when>2026-05-24T23:02:46.000Z</when>
<gx:coord>-117.22236133333332 44.29121383333333 646.0</gx:coord>

<when>2026-05-24T23:02:57.000Z</when>
<gx:coord>-117.22255116666665 44.29156683333334 645.7</gx:coord>

<when>2026-05-24T23:03:08.000Z</when>
<gx:coord>-117.223016 44.29242033333333 645.6</gx:coord>

<when>2026-05-24T23:03:19.000Z</when>
<gx:coord>-117.22362066666668 44.29360783333333 644.9</gx:coord>

<when>2026-05-24T23:03:30.000Z</when>
<gx:coord>-117.22418100000002 44.29470933333334 643.9</gx:coord>

<when>2026-05-24T23:03:41.000Z</when>
<gx:coord>-117.22488 44.29604266666667 642.7</gx:coord>

<when>2026-05-24T23:03:52.000Z</when>
<gx:coord>-117.22571500000001 44.297659833333334 641.6</gx:coord>

<when>2026-05-24T23:04:03.000Z</when>
<gx:coord>-117.22656033333332 44.299296500000004 640.7</gx:coord>

<when>2026-05-24T23:04:14.000Z</when>
<gx:coord>-117.22708583333333 44.30099366666666 639.6</gx:coord>

<when>2026-05-24T23:04:25.000Z</when>
<gx:coord>-117.22745783333333 44.302626499999995 639.0</gx:coord>

<when>2026-05-24T23:04:36.000Z</when>
<gx:coord>-117.22753816666666 44.30346883333333 639.3</gx:coord>

<when>2026-05-24T23:04:47.000Z</when>
<gx:coord>-117.22725616666666 44.30371566666666 639.8</gx:coord>

<when>2026-05-24T23:04:58.000Z</when>
<gx:coord>-117.22722116666667 44.30444883333333 640.6</gx:coord>

<when>2026-05-24T23:05:09.000Z</when>
<gx:coord>-117.22680816666667 44.30526016666666 643.0</gx:coord>

<when>2026-05-24T23:05:20.000Z</when>
<gx:coord>-117.22633833333333 44.30575233333334 644.7</gx:coord>

<when>2026-05-24T23:05:31.000Z</when>
<gx:coord>-117.22589216666665 44.30607733333333 644.1</gx:coord>

<when>2026-05-24T23:05:42.000Z</when>
<gx:coord>-117.2251805 44.306553666666666 643.4</gx:coord>

<when>2026-05-24T23:05:53.000Z</when>
<gx:coord>-117.22469216666666 44.3068585 649.0</gx:coord>

<when>2026-05-24T23:06:04.000Z</when>
<gx:coord>-117.22414783333333 44.30713433333334 653.9</gx:coord>

<when>2026-05-24T23:06:15.000Z</when>
<gx:coord>-117.22404883333333 44.30719466666666 654.9</gx:coord>

<when>2026-05-24T23:06:26.000Z</when>
<gx:coord>-117.22398833333334 44.30723266666667 656.8</gx:coord>

<when>2026-05-24T23:06:37.000Z</when>
<gx:coord>-117.2239175 44.30746316666667 654.3</gx:coord>

<when>2026-05-24T23:06:48.000Z</when>
<gx:coord>-117.22410933333335 44.30776000000001 650.3</gx:coord>

<when>2026-05-24T23:06:59.000Z</when>
<gx:coord>-117.22427916666666 44.30803216666666 649.3</gx:coord>

<when>2026-05-24T23:07:10.000Z</when>
<gx:coord>-117.22443533333332 44.30829283333334 648.8</gx:coord>

<when>2026-05-24T23:07:21.000Z</when>
<gx:coord>-117.2242405 44.308524500000004 647.9</gx:coord>

<when>2026-05-24T23:07:32.000Z</when>
<gx:coord>-117.22393016666668 44.308706833333325 647.6</gx:coord>

<when>2026-05-24T23:07:43.000Z</when>
<gx:coord>-117.22380183333334 44.308776 650.5</gx:coord>

<when>2026-05-24T23:07:54.000Z</when>
<gx:coord>-117.22363283333334 44.308795499999995 651.5</gx:coord>

<when>2026-05-24T23:08:05.000Z</when>
<gx:coord>-117.22345066666666 44.3087485 648.8</gx:coord>

<when>2026-05-24T23:08:16.000Z</when>
<gx:coord>-117.22325450000001 44.308519666666676 645.5</gx:coord>

<when>2026-05-24T23:08:27.000Z</when>
<gx:coord>-117.22303699999999 44.308229 633.4</gx:coord>

<when>2026-05-24T23:08:38.000Z</when>
<gx:coord>-117.2228615 44.307883666666676 637.2</gx:coord>

<when>2026-05-24T23:08:49.000Z</when>
<gx:coord>-117.22309666666666 44.30764683333334 640.8</gx:coord>

<when>2026-05-24T23:09:00.000Z</when>
<gx:coord>-117.2232865 44.30754716666667 643.2</gx:coord>

<when>2026-05-24T23:09:11.000Z</when>
<gx:coord>-117.22345616666668 44.30749433333334 644.7</gx:coord>

<when>2026-05-24T23:09:22.000Z</when>
<gx:coord>-117.2236615 44.30744849999999 647.5</gx:coord>

<when>2026-05-24T23:09:33.000Z</when>
<gx:coord>-117.223892 44.30749466666666 649.4</gx:coord>

<when>2026-05-24T23:09:44.000Z</when>
<gx:coord>-117.2239545 44.30761183333334 647.6</gx:coord>

<when>2026-05-24T23:12:07.000Z</when>
<gx:coord>-117.22404 44.307610999999994 646.5</gx:coord>

<when>2026-05-24T23:15:58.000Z</when>
<gx:coord>-117.22409666666665 44.3076955 652.4</gx:coord>

<when>2026-05-24T23:16:09.000Z</when>
<gx:coord>-117.22430816666669 44.308041 651.3</gx:coord>

<when>2026-05-24T23:16:20.000Z</when>
<gx:coord>-117.22445133333333 44.30835999999999 651.7</gx:coord>

<when>2026-05-24T23:16:31.000Z</when>
<gx:coord>-117.22415316666665 44.30859583333333 648.4</gx:coord>

<when>2026-05-24T23:16:42.000Z</when>
<gx:coord>-117.22385616666666 44.30875133333334 648.0</gx:coord>

<when>2026-05-24T23:16:53.000Z</when>
<gx:coord>-117.22371833333334 44.30878299999999 650.2</gx:coord>

<when>2026-05-24T23:17:37.000Z</when>
<gx:coord>-117.22383599999999 44.30882 664.3</gx:coord>

<when>2026-05-24T23:20:11.000Z</when>
<gx:coord>-117.22388683333332 44.308853 657.6</gx:coord>

<when>2026-05-24T23:22:45.000Z</when>
<gx:coord>-117.22381633333335 44.308858166666674 673.0</gx:coord>
</gx:Track>
</Placemark></Document></kml>
