<?xml version="1.0" encoding="UTF-8" ?><gpx version="1.1" creator="GPSLogger 135 - http://gpslogger.mendhak.com/" xmlns:xsi="http://www.w3.org/2001/XMLSchema-instance" xmlns="http://www.topografix.com/GPX/1/1" xmlns:gpxtpx="http://www.garmin.com/xmlschemas/TrackPointExtension/v2" xsi:schemaLocation="http://www.topografix.com/GPX/1/1 http://www.topografix.com/GPX/1/1/gpx.xsd http://www.garmin.com/xmlschemas/TrackPointExtension/v2 https://www8.garmin.com/xmlschemas/TrackPointExtensionv2.xsd "><metadata><time>2026-09-19T18:20:10.000Z</time></metadata><trk><name>20260919</name><trkseg><trkpt lat="45.69870583333333" lon="-121.53182666666667"><ele>168.9</ele><time>2026-09-19T18:20:10.000Z</time><extensions><gpxtpx:TrackPointExtension><gpxtpx:speed>0.036545277</gpxtpx:speed></gpxtpx:TrackPointExtension></extensions><geoidheight>-20.1</geoidheight><src>gps</src><sat>6</sat><hdop>0.96</hdop><vdop>1.57</vdop><pdop>1.84</pdop></trkpt>
<trkpt lat="45.6987085" lon="-121.53186316666667"><ele>160.9</ele><time>2026-09-19T18:25:02.000Z</time><extensions><gpxtpx:TrackPointExtension><gpxtpx:speed>0.051986944</gpxtpx:speed></gpxtpx:TrackPointExtension></extensions><geoidheight>-20.1</geoidheight><src>gps</src><sat>6</sat><hdop>1.43</hdop><vdop>1.59</vdop><pdop>2.14</pdop></trkpt>
<trkpt lat="45.698745833333334" lon="-121.53181966666668"><ele>163.0</ele><time>2026-09-19T18:26:41.000Z</time><extensions><gpxtpx:TrackPointExtension><gpxtpx:speed>0.017500555</gpxtpx:speed></gpxtpx:TrackPointExtension></extensions><geoidheight>-20.1</geoidheight><src>gps</src><sat>16</sat><hdop>0.70</hdop><vdop>1.05</vdop><pdop>1.26</pdop></trkpt>
</trkseg></trk></gpx>