<?xml version="1.0" encoding="UTF-8"?><kml xmlns="http://www.opengis.net/kml/2.2" xmlns:gx="http://www.google.com/kml/ext/2.2" xmlns:kml="http://www.opengis.net/kml/2.2" xmlns:atom="http://www.w3.org/2005/Atom"><Document><name>2026-09-22T17:14:47.000Z</name>
<Placemark>
<gx:Track>

<when>2026-09-22T17:14:47.000Z</when>
<gx:coord>-122.65568733333333 45.345399 66.0</gx:coord>

<when>2026-09-22T17:15:22.000Z</when>
<gx:coord>-122.65573433333333 45.34535116666666 63.1</gx:coord>

<when>2026-09-22T17:15:40.000Z</when>
<gx:coord>-122.65580266666666 45.3453275 60.6</gx:coord>

<when>2026-09-22T17:17:08.000Z</when>
<gx:coord>-122.65575016666665 45.34529716666666 62.0</gx:coord>

<when>2026-09-22T23:12:51.000Z</when>
<gx:coord>-122.65568933333334 45.34533216666667 54.9</gx:coord>

<when>2026-09-22T23:32:20.000Z</when>
<gx:coord>-122.65574733333332 45.34507966666667 0.0</gx:coord>

<when>2026-09-22T23:32:32.000Z</when>
<gx:coord>-122.65572233333333 45.34514133333334 44.7</gx:coord>

<when>2026-09-22T23:32:54.000Z</when>
<gx:coord>-122.65572283333334 45.345195 48.1</gx:coord>

<when>2026-09-22T23:35:12.000Z</when>
<gx:coord>-122.65571616666666 45.34528233333334 60.6</gx:coord>

<when>2026-09-22T23:35:34.000Z</when>
<gx:coord>-122.65569483333333 45.34520033333333 57.4</gx:coord>

<when>2026-09-22T23:36:07.000Z</when>
<gx:coord>-122.655651 45.34525833333334 65.6</gx:coord>

<when>2026-09-23T00:03:21.000Z</when>
<gx:coord>-122.65604183333335 45.34528333333333 29.1</gx:coord>

<when>2026-09-23T00:03:32.000Z</when>
<gx:coord>-122.6558095 45.34524316666666 51.9</gx:coord>

<when>2026-09-23T00:03:54.000Z</when>
<gx:coord>-122.6557145 45.34524 61.2</gx:coord>

<when>2026-09-23T00:04:27.000Z</when>
<gx:coord>-122.65562566666668 45.345253166666666 70.0</gx:coord>

<when>2026-09-23T00:08:29.000Z</when>
<gx:coord>-122.6555835 45.345301666666664 77.9</gx:coord>

<when>2026-09-23T01:25:32.000Z</when>
<gx:coord>-122.6556035 45.34530333333334 77.7</gx:coord>

<when>2026-09-23T03:10:56.000Z</when>
<gx:coord>-122.655812 45.345173666666675 61.7</gx:coord>

<when>2026-09-23T03:22:02.000Z</when>
<gx:coord>-122.65508966666667 45.34520766666666 57.0</gx:coord>

<when>2026-09-23T03:22:13.000Z</when>
<gx:coord>-122.654833 45.34519233333334 50.8</gx:coord>

<when>2026-09-23T03:22:24.000Z</when>
<gx:coord>-122.65464116666665 45.3449825 51.5</gx:coord>

<when>2026-09-23T03:22:35.000Z</when>
<gx:coord>-122.65447033333334 45.34466033333333 52.0</gx:coord>

<when>2026-09-23T03:22:46.000Z</when>
<gx:coord>-122.65438916666666 45.344569666666665 53.2</gx:coord>

<when>2026-09-23T03:22:57.000Z</when>
<gx:coord>-122.65420716666668 45.344491500000004 53.9</gx:coord>

<when>2026-09-23T03:23:09.000Z</when>
<gx:coord>-122.65360433333332 45.34465716666667 51.3</gx:coord>

<when>2026-09-23T03:23:20.000Z</when>
<gx:coord>-122.65267250000001 45.34492266666666 49.5</gx:coord>

<when>2026-09-23T03:23:31.000Z</when>
<gx:coord>-122.65199116666666 45.34510350000001 49.2</gx:coord>

<when>2026-09-23T03:23:42.000Z</when>
<gx:coord>-122.65183483333334 45.345104000000006 52.2</gx:coord>

<when>2026-09-23T03:23:53.000Z</when>
<gx:coord>-122.65168533333332 45.34526983333333 52.9</gx:coord>

<when>2026-09-23T03:24:04.000Z</when>
<gx:coord>-122.6518325 45.34553433333334 51.0</gx:coord>

<when>2026-09-23T03:24:15.000Z</when>
<gx:coord>-122.65183716666667 45.345951666666664 47.8</gx:coord>

<when>2026-09-23T03:24:26.000Z</when>
<gx:coord>-122.65183833333334 45.34648116666667 46.7</gx:coord>

<when>2026-09-23T03:24:37.000Z</when>
<gx:coord>-122.65183816666668 45.34664466666666 46.0</gx:coord>

<when>2026-09-23T03:24:59.000Z</when>
<gx:coord>-122.65182916666666 45.34703816666667 45.7</gx:coord>

<when>2026-09-23T03:25:10.000Z</when>
<gx:coord>-122.65187683333333 45.347785666666674 47.9</gx:coord>

<when>2026-09-23T03:25:21.000Z</when>
<gx:coord>-122.65187433333334 45.348056 51.1</gx:coord>

<when>2026-09-23T03:25:43.000Z</when>
<gx:coord>-122.65187966666666 45.34810583333333 54.0</gx:coord>

<when>2026-09-23T03:26:16.000Z</when>
<gx:coord>-122.651921 45.348321333333324 55.6</gx:coord>

<when>2026-09-23T03:26:27.000Z</when>
<gx:coord>-122.65330683333335 45.348373666666674 54.4</gx:coord>

<when>2026-09-23T03:26:38.000Z</when>
<gx:coord>-122.65552350000002 45.34877199999999 53.3</gx:coord>

<when>2026-09-23T03:26:49.000Z</when>
<gx:coord>-122.65786449999999 45.34986966666667 51.7</gx:coord>

<when>2026-09-23T03:27:00.000Z</when>
<gx:coord>-122.66009716666667 45.35139600000001 53.7</gx:coord>

<when>2026-09-23T03:27:11.000Z</when>
<gx:coord>-122.66203683333333 45.35334666666666 52.6</gx:coord>

<when>2026-09-23T03:27:22.000Z</when>
<gx:coord>-122.66378516666667 45.355632 52.5</gx:coord>

<when>2026-09-23T03:27:33.000Z</when>
<gx:coord>-122.66571166666667 45.3579955 49.3</gx:coord>

<when>2026-09-23T03:27:44.000Z</when>
<gx:coord>-122.66799883333333 45.360288833333335 47.2</gx:coord>

<when>2026-09-23T03:27:55.000Z</when>
<gx:coord>-122.67060099999999 45.3624575 46.5</gx:coord>

<when>2026-09-23T03:28:06.000Z</when>
<gx:coord>-122.67362516666665 45.36433033333333 47.8</gx:coord>

<when>2026-09-23T03:28:17.000Z</when>
<gx:coord>-122.67721150000001 45.365695499999994 47.6</gx:coord>

<when>2026-09-23T03:28:28.000Z</when>
<gx:coord>-122.68133466666669 45.36646883333333 45.7</gx:coord>

<when>2026-09-23T03:28:39.000Z</when>
<gx:coord>-122.68553683333333 45.36674783333333 44.7</gx:coord>

<when>2026-09-23T03:28:50.000Z</when>
<gx:coord>-122.68950733333334 45.366973666666674 42.4</gx:coord>

<when>2026-09-23T03:29:01.000Z</when>
<gx:coord>-122.693486 45.36754616666667 41.8</gx:coord>

<when>2026-09-23T03:29:12.000Z</when>
<gx:coord>-122.69737583333333 45.3683055 51.5</gx:coord>

<when>2026-09-23T03:29:23.000Z</when>
<gx:coord>-122.70102583333333 45.36913616666667 60.2</gx:coord>

<when>2026-09-23T03:29:34.000Z</when>
<gx:coord>-122.70455933333332 45.370059833333336 67.3</gx:coord>

<when>2026-09-23T03:29:45.000Z</when>
<gx:coord>-122.70810133333335 45.37105916666666 68.7</gx:coord>

<when>2026-09-23T03:29:56.000Z</when>
<gx:coord>-122.71174633333334 45.372027333333335 70.2</gx:coord>

<when>2026-09-23T03:30:07.000Z</when>
<gx:coord>-122.71540583333332 45.37274850000001 70.7</gx:coord>

<when>2026-09-23T03:30:18.000Z</when>
<gx:coord>-122.71899499999999 45.37323716666666 67.3</gx:coord>

<when>2026-09-23T03:30:29.000Z</when>
<gx:coord>-122.72279283333334 45.37351449999999 61.2</gx:coord>

<when>2026-09-23T03:30:40.000Z</when>
<gx:coord>-122.72672183333334 45.37356683333334 57.0</gx:coord>

<when>2026-09-23T03:30:51.000Z</when>
<gx:coord>-122.73059816666667 45.373589333333335 54.7</gx:coord>

<when>2026-09-23T03:31:02.000Z</when>
<gx:coord>-122.73449816666668 45.3737045 51.2</gx:coord>

<when>2026-09-23T03:31:13.000Z</when>
<gx:coord>-122.738446 45.373413666666664 50.1</gx:coord>

<when>2026-09-23T03:31:24.000Z</when>
<gx:coord>-122.74230549999999 45.3726275 49.7</gx:coord>

<when>2026-09-23T03:31:35.000Z</when>
<gx:coord>-122.746143 45.371576000000005 51.9</gx:coord>

<when>2026-09-23T03:31:46.000Z</when>
<gx:coord>-122.74987566666665 45.37059916666667 56.3</gx:coord>

<when>2026-09-23T03:31:57.000Z</when>
<gx:coord>-122.75345066666665 45.369789833333336 64.1</gx:coord>

<when>2026-09-23T03:32:08.000Z</when>
<gx:coord>-122.7568575 45.36902833333333 72.1</gx:coord>

<when>2026-09-23T03:32:19.000Z</when>
<gx:coord>-122.75971666666668 45.367631333333335 75.9</gx:coord>

<when>2026-09-23T03:32:30.000Z</when>
<gx:coord>-122.76090733333334 45.365237166666674 74.7</gx:coord>

<when>2026-09-23T03:32:41.000Z</when>
<gx:coord>-122.76104233333332 45.36264183333333 81.3</gx:coord>

<when>2026-09-23T03:32:52.000Z</when>
<gx:coord>-122.76189583333334 45.36022549999999 85.3</gx:coord>

<when>2026-09-23T03:33:03.000Z</when>
<gx:coord>-122.76279699999999 45.357865999999994 90.4</gx:coord>

<when>2026-09-23T03:33:14.000Z</when>
<gx:coord>-122.76376350000001 45.35547383333333 93.9</gx:coord>

<when>2026-09-23T03:33:25.000Z</when>
<gx:coord>-122.76477333333332 45.35294866666666 93.9</gx:coord>

<when>2026-09-23T03:33:36.000Z</when>
<gx:coord>-122.76579783333334 45.35023283333333 91.9</gx:coord>

<when>2026-09-23T03:33:47.000Z</when>
<gx:coord>-122.76689866666666 45.347471 88.7</gx:coord>

<when>2026-09-23T03:33:58.000Z</when>
<gx:coord>-122.76803266666666 45.34468100000001 87.2</gx:coord>

<when>2026-09-23T03:34:09.000Z</when>
<gx:coord>-122.76894599999999 45.34182766666666 88.1</gx:coord>

<when>2026-09-23T03:34:20.000Z</when>
<gx:coord>-122.76950149999999 45.338867 79.1</gx:coord>

<when>2026-09-23T03:34:31.000Z</when>
<gx:coord>-122.76962350000001 45.33581316666667 75.5</gx:coord>

<when>2026-09-23T03:34:42.000Z</when>
<gx:coord>-122.76960816666666 45.33283483333333 73.4</gx:coord>

<when>2026-09-23T03:34:53.000Z</when>
<gx:coord>-122.76959566666667 45.3298905 71.6</gx:coord>

<when>2026-09-23T03:35:04.000Z</when>
<gx:coord>-122.76958633333334 45.327121166666664 70.2</gx:coord>

<when>2026-09-23T03:35:15.000Z</when>
<gx:coord>-122.76958233333335 45.324377999999996 68.1</gx:coord>

<when>2026-09-23T03:35:26.000Z</when>
<gx:coord>-122.76957750000001 45.32156266666666 65.8</gx:coord>

<when>2026-09-23T03:35:37.000Z</when>
<gx:coord>-122.76957349999999 45.318705833333325 61.3</gx:coord>

<when>2026-09-23T03:35:48.000Z</when>
<gx:coord>-122.76957133333332 45.315974499999996 58.0</gx:coord>

<when>2026-09-23T03:35:59.000Z</when>
<gx:coord>-122.76956700000001 45.313236499999995 54.7</gx:coord>

<when>2026-09-23T03:36:10.000Z</when>
<gx:coord>-122.76956216666667 45.31043816666667 51.7</gx:coord>

<when>2026-09-23T03:36:21.000Z</when>
<gx:coord>-122.76956783333331 45.30757983333333 50.2</gx:coord>

<when>2026-09-23T03:36:32.000Z</when>
<gx:coord>-122.76956183333331 45.3047295 49.9</gx:coord>

<when>2026-09-23T03:36:43.000Z</when>
<gx:coord>-122.76956433333335 45.301928 49.8</gx:coord>

<when>2026-09-23T03:36:54.000Z</when>
<gx:coord>-122.76956100000001 45.299101666666665 47.3</gx:coord>

<when>2026-09-23T03:37:05.000Z</when>
<gx:coord>-122.76955866666667 45.2962575 44.2</gx:coord>

<when>2026-09-23T03:37:16.000Z</when>
<gx:coord>-122.76955466666668 45.293355500000004 41.2</gx:coord>

<when>2026-09-23T03:37:27.000Z</when>
<gx:coord>-122.76954933333333 45.29046266666666 39.0</gx:coord>

<when>2026-09-23T03:37:38.000Z</when>
<gx:coord>-122.76955766666667 45.28753516666667 34.9</gx:coord>

<when>2026-09-23T03:37:49.000Z</when>
<gx:coord>-122.76955199999999 45.28450333333333 31.6</gx:coord>

<when>2026-09-23T03:38:00.000Z</when>
<gx:coord>-122.76971950000001 45.28154733333334 39.1</gx:coord>

<when>2026-09-23T03:38:11.000Z</when>
<gx:coord>-122.77083050000002 45.2788865 49.5</gx:coord>

<when>2026-09-23T03:38:22.000Z</when>
<gx:coord>-122.77264016666668 45.276549833333334 55.5</gx:coord>

<when>2026-09-23T03:38:33.000Z</when>
<gx:coord>-122.77459616666665 45.27418466666666 57.2</gx:coord>

<when>2026-09-23T03:38:44.000Z</when>
<gx:coord>-122.77663249999999 45.271742499999995 59.9</gx:coord>

<when>2026-09-23T03:38:55.000Z</when>
<gx:coord>-122.77873916666667 45.269227833333325 60.7</gx:coord>

<when>2026-09-23T03:39:06.000Z</when>
<gx:coord>-122.78090016666665 45.266608 60.6</gx:coord>

<when>2026-09-23T03:39:17.000Z</when>
<gx:coord>-122.78309016666665 45.26395866666667 60.6</gx:coord>

<when>2026-09-23T03:39:28.000Z</when>
<gx:coord>-122.78518066666666 45.261436 59.5</gx:coord>

<when>2026-09-23T03:39:39.000Z</when>
<gx:coord>-122.78724883333334 45.258936666666656 61.1</gx:coord>

<when>2026-09-23T03:39:50.000Z</when>
<gx:coord>-122.7893525 45.25639683333334 59.9</gx:coord>

<when>2026-09-23T03:40:01.000Z</when>
<gx:coord>-122.79150766666667 45.25379833333333 58.4</gx:coord>

<when>2026-09-23T03:40:12.000Z</when>
<gx:coord>-122.79368633333334 45.25117316666667 58.3</gx:coord>

<when>2026-09-23T03:40:23.000Z</when>
<gx:coord>-122.79586749999999 45.24854066666667 59.2</gx:coord>

<when>2026-09-23T03:40:34.000Z</when>
<gx:coord>-122.79799 45.2459755 60.2</gx:coord>

<when>2026-09-23T03:40:45.000Z</when>
<gx:coord>-122.79999116666667 45.243552833333325 61.1</gx:coord>

<when>2026-09-23T03:40:56.000Z</when>
<gx:coord>-122.80193083333333 45.24113916666667 62.2</gx:coord>

<when>2026-09-23T03:41:07.000Z</when>
<gx:coord>-122.80375649999999 45.2387015 62.3</gx:coord>

<when>2026-09-23T03:41:18.000Z</when>
<gx:coord>-122.80579466666669 45.23623583333333 60.8</gx:coord>

<when>2026-09-23T03:41:29.000Z</when>
<gx:coord>-122.80784566666668 45.23375850000001 60.0</gx:coord>

<when>2026-09-23T03:41:40.000Z</when>
<gx:coord>-122.80988450000001 45.23129066666667 59.2</gx:coord>

<when>2026-09-23T03:41:51.000Z</when>
<gx:coord>-122.812099 45.22890266666666 57.9</gx:coord>

<when>2026-09-23T03:42:02.000Z</when>
<gx:coord>-122.81415233333334 45.2264375 56.1</gx:coord>

<when>2026-09-23T03:42:13.000Z</when>
<gx:coord>-122.81611533333334 45.22395933333334 58.3</gx:coord>

<when>2026-09-23T03:42:24.000Z</when>
<gx:coord>-122.81793533333332 45.22141133333333 59.4</gx:coord>

<when>2026-09-23T03:42:35.000Z</when>
<gx:coord>-122.81971083333335 45.21886583333333 57.0</gx:coord>

<when>2026-09-23T03:42:46.000Z</when>
<gx:coord>-122.82150733333334 45.21630149999999 55.3</gx:coord>

<when>2026-09-23T03:42:57.000Z</when>
<gx:coord>-122.82331549999999 45.21371116666666 51.7</gx:coord>

<when>2026-09-23T03:43:08.000Z</when>
<gx:coord>-122.82514033333334 45.21110783333334 51.1</gx:coord>

<when>2026-09-23T03:43:19.000Z</when>
<gx:coord>-122.82696349999999 45.20851433333334 50.8</gx:coord>

<when>2026-09-23T03:43:30.000Z</when>
<gx:coord>-122.82878649999999 45.205915999999995 53.0</gx:coord>

<when>2026-09-23T03:43:41.000Z</when>
<gx:coord>-122.83060233333332 45.203323 54.8</gx:coord>

<when>2026-09-23T03:43:52.000Z</when>
<gx:coord>-122.83239816666668 45.200752333333334 55.9</gx:coord>

<when>2026-09-23T03:44:03.000Z</when>
<gx:coord>-122.83421416666667 45.19816733333334 55.1</gx:coord>

<when>2026-09-23T03:44:14.000Z</when>
<gx:coord>-122.83614983333334 45.195642 53.6</gx:coord>

<when>2026-09-23T03:44:25.000Z</when>
<gx:coord>-122.838226 45.193214166666664 53.2</gx:coord>

<when>2026-09-23T03:44:36.000Z</when>
<gx:coord>-122.84044916666666 45.190851 54.2</gx:coord>

<when>2026-09-23T03:44:47.000Z</when>
<gx:coord>-122.84278416666666 45.18855166666667 55.4</gx:coord>

<when>2026-09-23T03:44:58.000Z</when>
<gx:coord>-122.845106 45.186285 56.6</gx:coord>

<when>2026-09-23T03:45:09.000Z</when>
<gx:coord>-122.84743833333332 45.18400666666666 55.9</gx:coord>

<when>2026-09-23T03:45:20.000Z</when>
<gx:coord>-122.84975333333333 45.181736833333325 55.2</gx:coord>

<when>2026-09-23T03:45:31.000Z</when>
<gx:coord>-122.8520765 45.17946933333333 55.2</gx:coord>

<when>2026-09-23T03:45:42.000Z</when>
<gx:coord>-122.85441533333332 45.177175166666665 56.3</gx:coord>

<when>2026-09-23T03:45:53.000Z</when>
<gx:coord>-122.85673933333334 45.174893999999995 55.0</gx:coord>

<when>2026-09-23T03:46:04.000Z</when>
<gx:coord>-122.85902650000001 45.172656 53.9</gx:coord>

<when>2026-09-23T03:46:15.000Z</when>
<gx:coord>-122.86129183333333 45.17043966666667 53.2</gx:coord>

<when>2026-09-23T03:46:26.000Z</when>
<gx:coord>-122.86356833333333 45.168203999999996 53.1</gx:coord>

<when>2026-09-23T03:46:37.000Z</when>
<gx:coord>-122.86591483333335 45.16590183333333 53.9</gx:coord>

<when>2026-09-23T03:46:48.000Z</when>
<gx:coord>-122.86831750000002 45.16354883333334 53.0</gx:coord>

<when>2026-09-23T03:46:59.000Z</when>
<gx:coord>-122.87078783333332 45.161120333333336 52.8</gx:coord>

<when>2026-09-23T03:47:10.000Z</when>
<gx:coord>-122.87330266666667 45.1586465 53.6</gx:coord>

<when>2026-09-23T03:47:21.000Z</when>
<gx:coord>-122.87578200000002 45.1562195 54.6</gx:coord>

<when>2026-09-23T03:47:32.000Z</when>
<gx:coord>-122.87816383333332 45.153870833333336 55.5</gx:coord>

<when>2026-09-23T03:47:43.000Z</when>
<gx:coord>-122.88053466666666 45.15153983333333 55.3</gx:coord>

<when>2026-09-23T03:47:54.000Z</when>
<gx:coord>-122.88295383333335 45.14914866666666 54.7</gx:coord>

<when>2026-09-23T03:48:05.000Z</when>
<gx:coord>-122.88542883333334 45.14671683333333 54.9</gx:coord>

<when>2026-09-23T03:48:16.000Z</when>
<gx:coord>-122.88788033333334 45.14430383333333 56.3</gx:coord>

<when>2026-09-23T03:48:27.000Z</when>
<gx:coord>-122.89022116666665 45.14197000000001 56.0</gx:coord>

<when>2026-09-23T03:48:38.000Z</when>
<gx:coord>-122.89258816666667 45.13964916666667 55.5</gx:coord>

<when>2026-09-23T03:48:49.000Z</when>
<gx:coord>-122.89496933333334 45.137322 55.8</gx:coord>

<when>2026-09-23T03:49:00.000Z</when>
<gx:coord>-122.89737500000001 45.135008166666665 56.5</gx:coord>

<when>2026-09-23T03:49:11.000Z</when>
<gx:coord>-122.8997615 45.13266583333334 56.8</gx:coord>

<when>2026-09-23T03:49:22.000Z</when>
<gx:coord>-122.90214316666668 45.13033600000001 57.0</gx:coord>

<when>2026-09-23T03:49:33.000Z</when>
<gx:coord>-122.90451550000002 45.128007833333335 57.2</gx:coord>

<when>2026-09-23T03:49:44.000Z</when>
<gx:coord>-122.90691749999999 45.12566016666666 57.5</gx:coord>

<when>2026-09-23T03:49:54.000Z</when>
<gx:coord>-122.90911783333334 45.123489166666666 57.9</gx:coord>

<when>2026-09-23T03:50:05.000Z</when>
<gx:coord>-122.91155400000001 45.121095333333336 58.7</gx:coord>

<when>2026-09-23T03:50:16.000Z</when>
<gx:coord>-122.91398400000001 45.118708166666664 58.8</gx:coord>

<when>2026-09-23T03:50:27.000Z</when>
<gx:coord>-122.91637399999999 45.11635783333333 58.9</gx:coord>

<when>2026-09-23T03:50:38.000Z</when>
<gx:coord>-122.91878966666667 45.113977999999996 59.8</gx:coord>

<when>2026-09-23T03:50:49.000Z</when>
<gx:coord>-122.92118866666667 45.111633 59.1</gx:coord>

<when>2026-09-23T03:51:00.000Z</when>
<gx:coord>-122.92359916666668 45.10926116666666 58.5</gx:coord>

<when>2026-09-23T03:51:11.000Z</when>
<gx:coord>-122.92603033333334 45.106866000000004 58.3</gx:coord>

<when>2026-09-23T03:51:22.000Z</when>
<gx:coord>-122.92841266666667 45.104523500000006 57.6</gx:coord>

<when>2026-09-23T03:51:33.000Z</when>
<gx:coord>-122.93080883333332 45.102158499999994 56.7</gx:coord>

<when>2026-09-23T03:51:44.000Z</when>
<gx:coord>-122.93320700000001 45.099791 56.9</gx:coord>

<when>2026-09-23T03:51:55.000Z</when>
<gx:coord>-122.93560016666667 45.097435 56.6</gx:coord>

<when>2026-09-23T03:52:06.000Z</when>
<gx:coord>-122.93793916666667 45.095128333333335 56.1</gx:coord>

<when>2026-09-23T03:52:17.000Z</when>
<gx:coord>-122.94022883333334 45.09286483333334 55.8</gx:coord>

<when>2026-09-23T03:52:28.000Z</when>
<gx:coord>-122.94245083333333 45.09066583333333 55.0</gx:coord>

<when>2026-09-23T03:52:39.000Z</when>
<gx:coord>-122.94467483333334 45.0884785 54.8</gx:coord>

<when>2026-09-23T03:52:50.000Z</when>
<gx:coord>-122.94684266666667 45.08634216666666 54.6</gx:coord>

<when>2026-09-23T03:53:01.000Z</when>
<gx:coord>-122.94902733333332 45.084195666666666 54.9</gx:coord>

<when>2026-09-23T03:53:12.000Z</when>
<gx:coord>-122.95126116666667 45.08200583333334 54.8</gx:coord>

<when>2026-09-23T03:53:23.000Z</when>
<gx:coord>-122.95353716666665 45.079765333333334 54.5</gx:coord>

<when>2026-09-23T03:53:34.000Z</when>
<gx:coord>-122.95580749999999 45.077532166666664 54.4</gx:coord>

<when>2026-09-23T03:53:45.000Z</when>
<gx:coord>-122.95805133333333 45.07532433333334 54.9</gx:coord>

<when>2026-09-23T03:53:56.000Z</when>
<gx:coord>-122.96016083333333 45.07302783333333 55.7</gx:coord>

<when>2026-09-23T03:54:07.000Z</when>
<gx:coord>-122.961726 45.070529500000006 55.6</gx:coord>

<when>2026-09-23T03:54:18.000Z</when>
<gx:coord>-122.96309799999999 45.06799933333333 56.4</gx:coord>

<when>2026-09-23T03:54:29.000Z</when>
<gx:coord>-122.96446483333332 45.0654665 57.4</gx:coord>

<when>2026-09-23T03:54:40.000Z</when>
<gx:coord>-122.96581666666667 45.06297066666666 58.2</gx:coord>

<when>2026-09-23T03:54:51.000Z</when>
<gx:coord>-122.967154 45.06048416666666 59.0</gx:coord>

<when>2026-09-23T03:55:02.000Z</when>
<gx:coord>-122.96847683333333 45.05803016666667 59.3</gx:coord>

<when>2026-09-23T03:55:13.000Z</when>
<gx:coord>-122.96984499999999 45.05550216666667 58.9</gx:coord>

<when>2026-09-23T03:55:24.000Z</when>
<gx:coord>-122.97124833333334 45.05290783333333 58.9</gx:coord>

<when>2026-09-23T03:55:35.000Z</when>
<gx:coord>-122.97263249999999 45.05034166666666 59.9</gx:coord>

<when>2026-09-23T03:55:46.000Z</when>
<gx:coord>-122.97402216666666 45.04776100000001 60.2</gx:coord>

<when>2026-09-23T03:55:57.000Z</when>
<gx:coord>-122.97544183333333 45.04515216666667 60.7</gx:coord>

<when>2026-09-23T03:56:08.000Z</when>
<gx:coord>-122.97681050000001 45.04259866666666 61.7</gx:coord>

<when>2026-09-23T03:56:19.000Z</when>
<gx:coord>-122.97817216666665 45.04006716666666 62.2</gx:coord>

<when>2026-09-23T03:56:30.000Z</when>
<gx:coord>-122.97956799999999 45.0374725 62.3</gx:coord>

<when>2026-09-23T03:56:41.000Z</when>
<gx:coord>-122.98097616666668 45.034856833333336 62.9</gx:coord>

<when>2026-09-23T03:56:52.000Z</when>
<gx:coord>-122.98229783333333 45.032400666666675 63.2</gx:coord>

<when>2026-09-23T03:57:03.000Z</when>
<gx:coord>-122.98358583333332 45.03000316666667 63.1</gx:coord>

<when>2026-09-23T03:57:14.000Z</when>
<gx:coord>-122.98488533333332 45.027593499999995 63.0</gx:coord>

<when>2026-09-23T03:57:25.000Z</when>
<gx:coord>-122.9861895 45.02517783333333 62.2</gx:coord>

<when>2026-09-23T03:57:36.000Z</when>
<gx:coord>-122.98749733333334 45.022746833333336 60.9</gx:coord>

<when>2026-09-23T03:57:47.000Z</when>
<gx:coord>-122.9887995 45.020326833333336 57.1</gx:coord>

<when>2026-09-23T03:57:58.000Z</when>
<gx:coord>-122.99014016666666 45.01783933333333 51.2</gx:coord>

<when>2026-09-23T03:58:09.000Z</when>
<gx:coord>-122.9914675 45.01537566666666 48.8</gx:coord>

<when>2026-09-23T03:58:20.000Z</when>
<gx:coord>-122.99271883333334 45.01304633333333 49.6</gx:coord>

<when>2026-09-23T03:58:31.000Z</when>
<gx:coord>-122.99397883333334 45.01071316666666 50.5</gx:coord>

<when>2026-09-23T03:58:42.000Z</when>
<gx:coord>-122.9951845 45.00846549999999 52.1</gx:coord>

<when>2026-09-23T03:58:53.000Z</when>
<gx:coord>-122.99640333333333 45.0061925 54.4</gx:coord>

<when>2026-09-23T03:59:04.000Z</when>
<gx:coord>-122.99762133333334 45.00391549999999 58.6</gx:coord>

<when>2026-09-23T03:59:15.000Z</when>
<gx:coord>-122.99885266666666 45.001635333333326 62.0</gx:coord>

<when>2026-09-23T03:59:26.000Z</when>
<gx:coord>-123.00008199999999 44.99934199999999 60.3</gx:coord>

<when>2026-09-23T03:59:37.000Z</when>
<gx:coord>-123.000892 44.996857500000004 57.2</gx:coord>

<when>2026-09-23T03:59:48.000Z</when>
<gx:coord>-123.00078016666666 44.99430016666667 53.1</gx:coord>

<when>2026-09-23T03:59:59.000Z</when>
<gx:coord>-122.99977283333334 44.99190766666667 54.2</gx:coord>

<when>2026-09-23T04:00:10.000Z</when>
<gx:coord>-122.998052 44.98973083333333 53.5</gx:coord>

<when>2026-09-23T04:00:21.000Z</when>
<gx:coord>-122.99629966666667 44.98759533333334 52.4</gx:coord>

<when>2026-09-23T04:00:32.000Z</when>
<gx:coord>-122.99490150000001 44.98535433333333 50.4</gx:coord>

<when>2026-09-23T04:00:43.000Z</when>
<gx:coord>-122.99385033333334 44.98298233333333 47.0</gx:coord>

<when>2026-09-23T04:00:54.000Z</when>
<gx:coord>-122.99280633333335 44.98060633333333 48.7</gx:coord>

<when>2026-09-23T04:01:05.000Z</when>
<gx:coord>-122.99175599999998 44.978218 48.8</gx:coord>

<when>2026-09-23T04:01:16.000Z</when>
<gx:coord>-122.99076716666666 44.975819666666666 49.6</gx:coord>

<when>2026-09-23T04:01:27.000Z</when>
<gx:coord>-122.99040566666666 44.97334733333334 51.5</gx:coord>

<when>2026-09-23T04:01:38.000Z</when>
<gx:coord>-122.99041216666667 44.970934333333325 58.2</gx:coord>

<when>2026-09-23T04:01:49.000Z</when>
<gx:coord>-122.9904165 44.968567666666665 61.5</gx:coord>

<when>2026-09-23T04:02:00.000Z</when>
<gx:coord>-122.99042 44.96606499999999 60.0</gx:coord>

<when>2026-09-23T04:02:11.000Z</when>
<gx:coord>-122.99042516666665 44.963478833333326 57.4</gx:coord>

<when>2026-09-23T04:02:22.000Z</when>
<gx:coord>-122.99043633333334 44.96099516666666 58.0</gx:coord>

<when>2026-09-23T04:02:33.000Z</when>
<gx:coord>-122.99043716666665 44.958478833333324 59.4</gx:coord>

<when>2026-09-23T04:02:44.000Z</when>
<gx:coord>-122.99043733333335 44.95599683333333 63.3</gx:coord>

<when>2026-09-23T04:02:55.000Z</when>
<gx:coord>-122.9904365 44.953584166666666 69.7</gx:coord>

<when>2026-09-23T04:03:06.000Z</when>
<gx:coord>-122.99047266666666 44.951157333333335 68.5</gx:coord>

<when>2026-09-23T04:03:17.000Z</when>
<gx:coord>-122.99054466666666 44.9487245 66.7</gx:coord>

<when>2026-09-23T04:03:28.000Z</when>
<gx:coord>-122.9905565 44.946306166666666 62.0</gx:coord>

<when>2026-09-23T04:03:39.000Z</when>
<gx:coord>-122.99055483333335 44.94389233333333 62.0</gx:coord>

<when>2026-09-23T04:03:50.000Z</when>
<gx:coord>-122.990559 44.941498 63.6</gx:coord>

<when>2026-09-23T04:04:01.000Z</when>
<gx:coord>-122.9905615 44.93903183333334 65.0</gx:coord>

<when>2026-09-23T04:04:12.000Z</when>
<gx:coord>-122.99055883333334 44.936495833333325 67.0</gx:coord>

<when>2026-09-23T04:04:23.000Z</when>
<gx:coord>-122.99055750000001 44.933924833333336 67.8</gx:coord>

<when>2026-09-23T04:04:34.000Z</when>
<gx:coord>-122.990552 44.931411 69.3</gx:coord>

<when>2026-09-23T04:04:45.000Z</when>
<gx:coord>-122.990553 44.92903133333333 69.8</gx:coord>

<when>2026-09-23T04:04:56.000Z</when>
<gx:coord>-122.99055133333334 44.926665333333325 68.2</gx:coord>

<when>2026-09-23T04:05:07.000Z</when>
<gx:coord>-122.99060133333333 44.92443916666666 64.3</gx:coord>

<when>2026-09-23T04:05:18.000Z</when>
<gx:coord>-122.99049483333334 44.922292166666665 64.3</gx:coord>

<when>2026-09-23T04:05:29.000Z</when>
<gx:coord>-122.99021533333334 44.920226 63.4</gx:coord>

<when>2026-09-23T04:05:40.000Z</when>
<gx:coord>-122.99022233333332 44.91838283333333 63.1</gx:coord>

<when>2026-09-23T04:05:51.000Z</when>
<gx:coord>-122.99094933333332 44.916973000000006 66.5</gx:coord>

<when>2026-09-23T04:06:02.000Z</when>
<gx:coord>-122.99182483333334 44.91662083333334 66.6</gx:coord>

<when>2026-09-23T04:06:13.000Z</when>
<gx:coord>-122.993557 44.91713033333334 63.7</gx:coord>

<when>2026-09-23T04:06:24.000Z</when>
<gx:coord>-122.99571416666667 44.917771666666674 61.4</gx:coord>

<when>2026-09-23T04:06:35.000Z</when>
<gx:coord>-122.99772783333334 44.91839633333334 61.4</gx:coord>

<when>2026-09-23T04:06:46.000Z</when>
<gx:coord>-122.99989166666667 44.91903466666666 62.0</gx:coord>

<when>2026-09-23T04:06:57.000Z</when>
<gx:coord>-123.00195683333335 44.919630833333336 61.1</gx:coord>

<when>2026-09-23T04:07:08.000Z</when>
<gx:coord>-123.00348033333333 44.92003416666667 62.3</gx:coord>

<when>2026-09-23T04:07:19.000Z</when>
<gx:coord>-123.003627 44.92007333333333 62.2</gx:coord>

<when>2026-09-23T04:08:25.000Z</when>
<gx:coord>-123.00389633333334 44.920095499999995 66.2</gx:coord>

<when>2026-09-23T04:08:36.000Z</when>
<gx:coord>-123.00399733333333 44.91933733333334 63.1</gx:coord>

<when>2026-09-23T04:08:47.000Z</when>
<gx:coord>-123.0032655 44.918166166666666 62.2</gx:coord>

<when>2026-09-23T04:08:58.000Z</when>
<gx:coord>-123.00189816666668 44.91700000000001 60.2</gx:coord>

<when>2026-09-23T04:09:09.000Z</when>
<gx:coord>-123.0005675 44.915879833333335 58.1</gx:coord>

<when>2026-09-23T04:09:20.000Z</when>
<gx:coord>-122.99933000000001 44.91484950000001 57.1</gx:coord>

<when>2026-09-23T04:09:31.000Z</when>
<gx:coord>-122.9982155 44.913938333333334 56.8</gx:coord>

<when>2026-09-23T04:09:42.000Z</when>
<gx:coord>-122.99746366666668 44.913254666666674 56.9</gx:coord>

<when>2026-09-23T04:09:53.000Z</when>
<gx:coord>-122.99705683333335 44.91315783333333 57.7</gx:coord>

<when>2026-09-23T04:10:04.000Z</when>
<gx:coord>-122.99679883333334 44.9131695 60.5</gx:coord>

<when>2026-09-23T04:10:15.000Z</when>
<gx:coord>-122.99648666666666 44.913167333333334 60.5</gx:coord>

<when>2026-09-23T04:10:26.000Z</when>
<gx:coord>-122.99606883333333 44.91315966666666 59.8</gx:coord>

<when>2026-09-23T04:10:37.000Z</when>
<gx:coord>-122.995624 44.913169 60.5</gx:coord>

<when>2026-09-23T04:10:48.000Z</when>
<gx:coord>-122.99545816666665 44.913019500000004 60.8</gx:coord>

<when>2026-09-23T04:10:59.000Z</when>
<gx:coord>-122.995502 44.91280749999999 60.5</gx:coord>

<when>2026-09-23T04:11:10.000Z</when>
<gx:coord>-122.99550599999999 44.91263816666666 61.0</gx:coord>

<when>2026-09-23T04:11:21.000Z</when>
<gx:coord>-122.99547333333334 44.912460333333335 61.8</gx:coord>

<when>2026-09-23T04:11:32.000Z</when>
<gx:coord>-122.99548266666667 44.912329666666665 62.8</gx:coord>

<when>2026-09-23T04:11:43.000Z</when>
<gx:coord>-122.99548916666666 44.912259999999996 63.8</gx:coord>

<when>2026-09-23T04:12:05.000Z</when>
<gx:coord>-122.99554116666668 44.912149 65.4</gx:coord>

<when>2026-09-23T04:12:16.000Z</when>
<gx:coord>-122.99566333333333 44.912134 63.8</gx:coord>

<when>2026-09-23T04:12:27.000Z</when>
<gx:coord>-122.99573666666666 44.91214 63.4</gx:coord>

<when>2026-09-23T04:12:38.000Z</when>
<gx:coord>-122.99580633333335 44.912143 63.4</gx:coord>

<when>2026-09-23T04:12:49.000Z</when>
<gx:coord>-122.99587316666666 44.91213916666667 65.3</gx:coord>

<when>2026-09-23T04:13:00.000Z</when>
<gx:coord>-122.99593866666667 44.91214016666666 65.1</gx:coord>

<when>2026-09-23T04:24:32.000Z</when>
<gx:coord>-122.99674583333332 44.91362483333334 64.3</gx:coord>

<when>2026-09-23T04:24:43.000Z</when>
<gx:coord>-122.99676133333332 44.91390866666667 69.6</gx:coord>

<when>2026-09-23T04:24:54.000Z</when>
<gx:coord>-122.99675733333333 44.91421816666666 73.3</gx:coord>

<when>2026-09-23T04:25:05.000Z</when>
<gx:coord>-122.99675466666667 44.914468333333325 76.6</gx:coord>

<when>2026-09-23T04:25:16.000Z</when>
<gx:coord>-122.99674433333333 44.91468433333333 77.3</gx:coord>

<when>2026-09-23T04:25:27.000Z</when>
<gx:coord>-122.9967575 44.91488916666667 78.8</gx:coord>

<when>2026-09-23T04:25:38.000Z</when>
<gx:coord>-122.99671766666667 44.915061666666666 78.4</gx:coord>

<when>2026-09-23T04:25:49.000Z</when>
<gx:coord>-122.9964645 44.915032999999994 70.1</gx:coord>

<when>2026-09-23T04:26:00.000Z</when>
<gx:coord>-122.99623666666666 44.9149985 48.5</gx:coord>

<when>2026-09-23T04:26:15.000Z</when>
<gx:coord>-122.99570516666667 44.915028833333324 50.0</gx:coord>

<when>2026-09-23T04:26:26.000Z</when>
<gx:coord>-122.99528566666667 44.915109666666666 47.1</gx:coord>

<when>2026-09-23T04:26:37.000Z</when>
<gx:coord>-122.99515766666667 44.91532300000001 63.3</gx:coord>

<when>2026-09-23T04:26:48.000Z</when>
<gx:coord>-122.99575766666666 44.91541383333333 64.5</gx:coord>

<when>2026-09-23T04:26:59.000Z</when>
<gx:coord>-122.99639883333333 44.915442 63.2</gx:coord>

<when>2026-09-23T04:27:10.000Z</when>
<gx:coord>-122.99645200000002 44.915561333333336 65.0</gx:coord>

<when>2026-09-23T04:27:21.000Z</when>
<gx:coord>-122.99646349999999 44.915715500000005 70.4</gx:coord>

<when>2026-09-23T04:27:32.000Z</when>
<gx:coord>-122.99644833333332 44.915842833333336 71.3</gx:coord>

<when>2026-09-23T04:27:43.000Z</when>
<gx:coord>-122.99642766666666 44.915978166666676 71.5</gx:coord>

<when>2026-09-23T04:27:54.000Z</when>
<gx:coord>-122.99642200000001 44.91607483333334 73.0</gx:coord>

<when>2026-09-23T04:28:05.000Z</when>
<gx:coord>-122.99640666666667 44.916214499999995 73.5</gx:coord>

<when>2026-09-23T04:28:16.000Z</when>
<gx:coord>-122.99641283333334 44.91631683333333 73.1</gx:coord>

<when>2026-09-23T04:28:27.000Z</when>
<gx:coord>-122.99666566666669 44.916486666666664 71.5</gx:coord>

<when>2026-09-23T04:28:38.000Z</when>
<gx:coord>-122.9971435 44.91650116666666 67.0</gx:coord>

<when>2026-09-23T04:28:49.000Z</when>
<gx:coord>-122.99728566666666 44.91639883333334 62.5</gx:coord>

<when>2026-09-23T04:29:00.000Z</when>
<gx:coord>-122.9972365 44.9161825 56.9</gx:coord>

<when>2026-09-23T04:29:11.000Z</when>
<gx:coord>-122.99722766666667 44.9158465 56.2</gx:coord>

<when>2026-09-23T04:29:22.000Z</when>
<gx:coord>-122.99730916666667 44.91549266666666 54.3</gx:coord>

<when>2026-09-23T04:29:33.000Z</when>
<gx:coord>-122.99783049999999 44.91518133333334 50.2</gx:coord>

<when>2026-09-23T04:29:44.000Z</when>
<gx:coord>-122.99838399999999 44.914663999999995 50.0</gx:coord>

<when>2026-09-23T04:29:55.000Z</when>
<gx:coord>-122.99857766666668 44.914548333333336 51.5</gx:coord>

<when>2026-09-23T04:30:06.000Z</when>
<gx:coord>-122.9990265 44.91475383333333 55.9</gx:coord>

<when>2026-09-23T04:30:17.000Z</when>
<gx:coord>-123.00016566666666 44.91568033333333 60.7</gx:coord>

<when>2026-09-23T04:30:28.000Z</when>
<gx:coord>-123.00154599999999 44.916833 61.1</gx:coord>

<when>2026-09-23T04:30:39.000Z</when>
<gx:coord>-123.00299783333334 44.91807383333333 61.0</gx:coord>

<when>2026-09-23T04:30:50.000Z</when>
<gx:coord>-123.003821 44.91920183333333 61.8</gx:coord>

<when>2026-09-23T04:31:01.000Z</when>
<gx:coord>-123.00358333333334 44.91986 64.1</gx:coord>

<when>2026-09-23T04:31:12.000Z</when>
<gx:coord>-123.00243433333331 44.91958783333333 61.1</gx:coord>

<when>2026-09-23T04:31:23.000Z</when>
<gx:coord>-123.00052283333335 44.91901716666666 60.2</gx:coord>

<when>2026-09-23T04:31:34.000Z</when>
<gx:coord>-122.99833666666667 44.9183395 60.1</gx:coord>

<when>2026-09-23T04:31:45.000Z</when>
<gx:coord>-122.99603666666665 44.917675333333335 61.5</gx:coord>

<when>2026-09-23T04:31:56.000Z</when>
<gx:coord>-122.99388216666667 44.91704800000001 63.6</gx:coord>

<when>2026-09-23T04:32:07.000Z</when>
<gx:coord>-122.99188416666667 44.916419833333336 66.0</gx:coord>

<when>2026-09-23T04:32:18.000Z</when>
<gx:coord>-122.98965516666667 44.915756333333334 70.6</gx:coord>

<when>2026-09-23T04:32:29.000Z</when>
<gx:coord>-122.98737316666666 44.915063499999995 70.9</gx:coord>

<when>2026-09-23T04:32:40.000Z</when>
<gx:coord>-122.98660733333332 44.914830833333326 69.0</gx:coord>

<when>2026-09-23T04:33:02.000Z</when>
<gx:coord>-122.98562833333332 44.91453933333334 66.7</gx:coord>

<when>2026-09-23T04:33:13.000Z</when>
<gx:coord>-122.98403316666666 44.914035 64.7</gx:coord>

<when>2026-09-23T04:33:24.000Z</when>
<gx:coord>-122.982383 44.913479666666674 65.5</gx:coord>

<when>2026-09-23T04:33:35.000Z</when>
<gx:coord>-122.98088516666667 44.912841166666674 66.8</gx:coord>

<when>2026-09-23T04:33:46.000Z</when>
<gx:coord>-122.98010866666667 44.91211083333333 69.0</gx:coord>

<when>2026-09-23T04:33:57.000Z</when>
<gx:coord>-122.97961166666667 44.91193966666666 67.5</gx:coord>

<when>2026-09-23T04:34:30.000Z</when>
<gx:coord>-122.97954433333334 44.91194666666667 73.5</gx:coord>

<when>2026-09-23T04:34:41.000Z</when>
<gx:coord>-122.97939650000002 44.91219783333333 72.5</gx:coord>

<when>2026-09-23T04:34:52.000Z</when>
<gx:coord>-122.97966483333333 44.913109166666665 74.7</gx:coord>

<when>2026-09-23T04:35:03.000Z</when>
<gx:coord>-122.980116 44.913586 72.2</gx:coord>

<when>2026-09-23T04:35:14.000Z</when>
<gx:coord>-122.981941 44.913602000000004 66.7</gx:coord>

<when>2026-09-23T04:35:25.000Z</when>
<gx:coord>-122.98437216666667 44.914296666666665 66.5</gx:coord>

<when>2026-09-23T04:35:36.000Z</when>
<gx:coord>-122.98576050000001 44.91472383333333 68.2</gx:coord>

<when>2026-09-23T04:35:47.000Z</when>
<gx:coord>-122.98600633333332 44.91479016666667 71.3</gx:coord>

<when>2026-09-23T04:35:58.000Z</when>
<gx:coord>-122.98723116666666 44.915178 73.6</gx:coord>

<when>2026-09-23T04:36:09.000Z</when>
<gx:coord>-122.98912616666667 44.915761999999994 72.9</gx:coord>

<when>2026-09-23T04:36:20.000Z</when>
<gx:coord>-122.99076366666668 44.91649433333334 71.3</gx:coord>

<when>2026-09-23T04:36:31.000Z</when>
<gx:coord>-122.99013383333335 44.91722183333333 64.8</gx:coord>

<when>2026-09-23T04:36:42.000Z</when>
<gx:coord>-122.98918866666666 44.91641166666667 63.3</gx:coord>

<when>2026-09-23T04:36:53.000Z</when>
<gx:coord>-122.98863233333334 44.9147825 64.0</gx:coord>

<when>2026-09-23T04:37:04.000Z</when>
<gx:coord>-122.98797883333333 44.912787333333334 64.5</gx:coord>

<when>2026-09-23T04:37:15.000Z</when>
<gx:coord>-122.98729399999999 44.91049233333333 65.5</gx:coord>

<when>2026-09-23T04:37:26.000Z</when>
<gx:coord>-122.9865495 44.907984166666665 66.0</gx:coord>

<when>2026-09-23T04:37:37.000Z</when>
<gx:coord>-122.98574433333333 44.90531816666667 67.1</gx:coord>

<when>2026-09-23T04:37:48.000Z</when>
<gx:coord>-122.98496133333335 44.90252383333333 67.7</gx:coord>

<when>2026-09-23T04:37:59.000Z</when>
<gx:coord>-122.98492999999999 44.89965483333334 68.9</gx:coord>

<when>2026-09-23T04:38:10.000Z</when>
<gx:coord>-122.986068 44.89690833333334 70.3</gx:coord>

<when>2026-09-23T04:38:21.000Z</when>
<gx:coord>-122.98844499999998 44.89452866666667 69.3</gx:coord>

<when>2026-09-23T04:38:32.000Z</when>
<gx:coord>-122.99149899999999 44.89275850000001 76.6</gx:coord>

<when>2026-09-23T04:38:43.000Z</when>
<gx:coord>-122.99440566666665 44.89108866666667 83.5</gx:coord>

<when>2026-09-23T04:38:54.000Z</when>
<gx:coord>-122.99669100000001 44.889029 86.5</gx:coord>

<when>2026-09-23T04:39:05.000Z</when>
<gx:coord>-122.99807883333332 44.88667583333333 85.1</gx:coord>

<when>2026-09-23T04:39:16.000Z</when>
<gx:coord>-122.99868133333332 44.884186833333324 92.2</gx:coord>

<when>2026-09-23T04:39:27.000Z</when>
<gx:coord>-122.99901966666667 44.8818485 101.9</gx:coord>

<when>2026-09-23T04:39:38.000Z</when>
<gx:coord>-122.99935516666667 44.87961083333333 110.8</gx:coord>

<when>2026-09-23T04:39:49.000Z</when>
<gx:coord>-122.99970433333334 44.87740983333333 117.9</gx:coord>

<when>2026-09-23T04:40:00.000Z</when>
<gx:coord>-123.00009183333334 44.875138500000006 121.6</gx:coord>

<when>2026-09-23T04:40:11.000Z</when>
<gx:coord>-123.00086033333334 44.872798166666676 125.1</gx:coord>

<when>2026-09-23T04:40:22.000Z</when>
<gx:coord>-123.00213433333332 44.8705675 127.7</gx:coord>

<when>2026-09-23T04:40:33.000Z</when>
<gx:coord>-123.00385466666667 44.86850333333334 132.4</gx:coord>

<when>2026-09-23T04:40:44.000Z</when>
<gx:coord>-123.00574316666668 44.86648333333333 136.1</gx:coord>

<when>2026-09-23T04:40:55.000Z</when>
<gx:coord>-123.00767433333334 44.86441033333334 132.0</gx:coord>

<when>2026-09-23T04:41:06.000Z</when>
<gx:coord>-123.00972599999999 44.862212 124.6</gx:coord>

<when>2026-09-23T04:41:17.000Z</when>
<gx:coord>-123.01137516666668 44.859849333333344 122.4</gx:coord>

<when>2026-09-23T04:41:28.000Z</when>
<gx:coord>-123.01218966666666 44.85741316666666 132.4</gx:coord>

<when>2026-09-23T04:41:39.000Z</when>
<gx:coord>-123.01225166666667 44.855082499999995 145.6</gx:coord>

<when>2026-09-23T04:41:50.000Z</when>
<gx:coord>-123.01171100000002 44.852934000000005 157.7</gx:coord>

<when>2026-09-23T04:42:01.000Z</when>
<gx:coord>-123.01071816666666 44.85093816666667 166.2</gx:coord>

<when>2026-09-23T04:42:12.000Z</when>
<gx:coord>-123.00969516666667 44.8487555 167.7</gx:coord>

<when>2026-09-23T04:42:23.000Z</when>
<gx:coord>-123.0091945 44.84624066666667 161.4</gx:coord>

<when>2026-09-23T04:42:34.000Z</when>
<gx:coord>-123.008909 44.84362216666667 159.4</gx:coord>

<when>2026-09-23T04:42:45.000Z</when>
<gx:coord>-123.00861666666667 44.84112766666667 166.3</gx:coord>

<when>2026-09-23T04:42:56.000Z</when>
<gx:coord>-123.00845466666667 44.838557333333334 162.9</gx:coord>

<when>2026-09-23T04:43:07.000Z</when>
<gx:coord>-123.0087785 44.835839500000006 152.3</gx:coord>

<when>2026-09-23T04:43:18.000Z</when>
<gx:coord>-123.00971966666665 44.833076833333344 140.2</gx:coord>

<when>2026-09-23T04:43:29.000Z</when>
<gx:coord>-123.01115516666665 44.83056833333333 139.5</gx:coord>

<when>2026-09-23T04:43:40.000Z</when>
<gx:coord>-123.01292183333335 44.82841666666666 150.5</gx:coord>

<when>2026-09-23T04:43:51.000Z</when>
<gx:coord>-123.01496216666668 44.826527333333324 156.5</gx:coord>

<when>2026-09-23T04:44:02.000Z</when>
<gx:coord>-123.01729266666668 44.8246015 157.6</gx:coord>

<when>2026-09-23T04:44:13.000Z</when>
<gx:coord>-123.01978116666666 44.822506499999996 146.8</gx:coord>

<when>2026-09-23T04:44:24.000Z</when>
<gx:coord>-123.02207566666667 44.820175166666665 134.7</gx:coord>

<when>2026-09-23T04:44:35.000Z</when>
<gx:coord>-123.024011 44.81768716666667 125.9</gx:coord>

<when>2026-09-23T04:44:46.000Z</when>
<gx:coord>-123.02558333333333 44.81498766666667 113.4</gx:coord>

<when>2026-09-23T04:44:57.000Z</when>
<gx:coord>-123.026818 44.81214283333334 97.7</gx:coord>

<when>2026-09-23T04:45:08.000Z</when>
<gx:coord>-123.02799833333331 44.80933266666666 90.2</gx:coord>

<when>2026-09-23T04:45:19.000Z</when>
<gx:coord>-123.02922783333334 44.80653616666667 87.1</gx:coord>

<when>2026-09-23T04:45:30.000Z</when>
<gx:coord>-123.03055683333332 44.803778166666675 85.0</gx:coord>

<when>2026-09-23T04:45:41.000Z</when>
<gx:coord>-123.031705 44.80107066666666 83.3</gx:coord>

<when>2026-09-23T04:45:52.000Z</when>
<gx:coord>-123.03283000000002 44.798378333333325 81.5</gx:coord>

<when>2026-09-23T04:46:03.000Z</when>
<gx:coord>-123.03398733333333 44.795642666666666 79.6</gx:coord>

<when>2026-09-23T04:46:14.000Z</when>
<gx:coord>-123.03511916666666 44.792942833333335 80.4</gx:coord>

<when>2026-09-23T04:46:25.000Z</when>
<gx:coord>-123.03623566666666 44.790299166666664 79.8</gx:coord>

<when>2026-09-23T04:46:36.000Z</when>
<gx:coord>-123.03735933333334 44.787605666666664 79.5</gx:coord>

<when>2026-09-23T04:46:47.000Z</when>
<gx:coord>-123.03844249999999 44.7850105 78.5</gx:coord>

<when>2026-09-23T04:46:58.000Z</when>
<gx:coord>-123.03947416666666 44.782567 81.6</gx:coord>

<when>2026-09-23T04:47:09.000Z</when>
<gx:coord>-123.040434 44.78029916666666 86.0</gx:coord>

<when>2026-09-23T04:47:20.000Z</when>
<gx:coord>-123.041445 44.77789633333334 85.9</gx:coord>

<when>2026-09-23T04:47:31.000Z</when>
<gx:coord>-123.042522 44.775323166666674 79.7</gx:coord>

<when>2026-09-23T04:47:42.000Z</when>
<gx:coord>-123.04362333333331 44.77268516666666 72.2</gx:coord>

<when>2026-09-23T04:47:53.000Z</when>
<gx:coord>-123.0446985 44.770098499999996 69.6</gx:coord>

<when>2026-09-23T04:48:04.000Z</when>
<gx:coord>-123.0457645 44.767555666666674 69.2</gx:coord>

<when>2026-09-23T04:48:15.000Z</when>
<gx:coord>-123.04682983333332 44.765021499999996 68.3</gx:coord>

<when>2026-09-23T04:48:26.000Z</when>
<gx:coord>-123.0479095 44.7624555 67.6</gx:coord>

<when>2026-09-23T04:48:37.000Z</when>
<gx:coord>-123.04900799999999 44.75984149999999 67.4</gx:coord>

<when>2026-09-23T04:48:48.000Z</when>
<gx:coord>-123.05009483333333 44.75721116666667 67.2</gx:coord>

<when>2026-09-23T04:48:59.000Z</when>
<gx:coord>-123.0508975 44.75464316666667 65.8</gx:coord>

<when>2026-09-23T04:49:10.000Z</when>
<gx:coord>-123.05140833333334 44.75208133333334 64.2</gx:coord>

<when>2026-09-23T04:49:21.000Z</when>
<gx:coord>-123.05170616666668 44.749679833333325 63.4</gx:coord>

<when>2026-09-23T04:49:32.000Z</when>
<gx:coord>-123.05194333333333 44.74749433333333 63.8</gx:coord>

<when>2026-09-23T04:49:43.000Z</when>
<gx:coord>-123.05235366666666 44.74573583333334 63.6</gx:coord>

<when>2026-09-23T04:49:54.000Z</when>
<gx:coord>-123.05321183333332 44.74469333333333 62.9</gx:coord>

<when>2026-09-23T04:50:05.000Z</when>
<gx:coord>-123.05372966666667 44.7439835 62.1</gx:coord>

<when>2026-09-23T04:50:16.000Z</when>
<gx:coord>-123.05361183333335 44.743152666666674 58.8</gx:coord>

<when>2026-09-23T04:50:27.000Z</when>
<gx:coord>-123.053347 44.74220633333333 59.5</gx:coord>

<when>2026-09-23T04:50:38.000Z</when>
<gx:coord>-123.05319683333333 44.741653666666664 58.0</gx:coord>

<when>2026-09-23T04:50:49.000Z</when>
<gx:coord>-123.05317233333332 44.74112333333334 57.5</gx:coord>

<when>2026-09-23T04:51:00.000Z</when>
<gx:coord>-123.05369833333334 44.74089516666666 58.5</gx:coord>

<when>2026-09-23T04:51:11.000Z</when>
<gx:coord>-123.05449216666666 44.74084549999999 57.2</gx:coord>

<when>2026-09-23T04:51:22.000Z</when>
<gx:coord>-123.0551695 44.740721666666666 57.3</gx:coord>

<when>2026-09-23T04:51:33.000Z</when>
<gx:coord>-123.055235 44.74031333333334 52.3</gx:coord>

<when>2026-09-23T04:51:44.000Z</when>
<gx:coord>-123.05495616666667 44.740221999999996 49.2</gx:coord>

<when>2026-09-23T04:51:55.000Z</when>
<gx:coord>-123.0547465 44.740204666666656 44.8</gx:coord>

<when>2026-09-23T04:52:06.000Z</when>
<gx:coord>-123.05449166666668 44.740178 47.2</gx:coord>

<when>2026-09-23T04:52:17.000Z</when>
<gx:coord>-123.05427633333332 44.74017033333333 47.9</gx:coord>

<when>2026-09-23T04:52:28.000Z</when>
<gx:coord>-123.05404599999999 44.74015899999999 48.9</gx:coord>

<when>2026-09-23T04:52:39.000Z</when>
<gx:coord>-123.05385366666665 44.74016366666667 46.2</gx:coord>

<when>2026-09-23T04:52:50.000Z</when>
<gx:coord>-123.0536025 44.74016016666666 53.1</gx:coord>

<when>2026-09-23T04:53:01.000Z</when>
<gx:coord>-123.0535225 44.740167500000005 59.0</gx:coord>

<when>2026-09-23T04:53:12.000Z</when>
<gx:coord>-123.05330966666666 44.7402 61.1</gx:coord>

<when>2026-09-23T04:53:23.000Z</when>
<gx:coord>-123.0530095 44.740725833333336 63.5</gx:coord>

<when>2026-09-23T04:53:34.000Z</when>
<gx:coord>-123.05304016666666 44.741376833333334 67.8</gx:coord>

<when>2026-09-23T04:53:45.000Z</when>
<gx:coord>-123.05311116666665 44.741720333333326 68.4</gx:coord>

<when>2026-09-23T04:53:56.000Z</when>
<gx:coord>-123.05322033333331 44.74211966666667 69.0</gx:coord>

<when>2026-09-23T04:54:07.000Z</when>
<gx:coord>-123.05342933333334 44.742871833333325 67.0</gx:coord>

<when>2026-09-23T04:54:18.000Z</when>
<gx:coord>-123.05362599999998 44.743829999999996 69.0</gx:coord>

<when>2026-09-23T04:54:29.000Z</when>
<gx:coord>-123.05264133333334 44.74403466666666 66.3</gx:coord>

<when>2026-09-23T04:54:40.000Z</when>
<gx:coord>-123.05248366666667 44.742794 65.3</gx:coord>

<when>2026-09-23T04:54:51.000Z</when>
<gx:coord>-123.05267966666666 44.741029499999996 65.2</gx:coord>

<when>2026-09-23T04:55:02.000Z</when>
<gx:coord>-123.05297066666665 44.73898316666667 68.8</gx:coord>

<when>2026-09-23T04:55:13.000Z</when>
<gx:coord>-123.05317116666666 44.73672716666667 70.4</gx:coord>

<when>2026-09-23T04:55:24.000Z</when>
<gx:coord>-123.05334900000001 44.734240500000006 68.3</gx:coord>

<when>2026-09-23T04:55:35.000Z</when>
<gx:coord>-123.05347016666668 44.731675166666676 66.1</gx:coord>

<when>2026-09-23T04:55:46.000Z</when>
<gx:coord>-123.05372916666666 44.729121333333325 65.9</gx:coord>

<when>2026-09-23T04:55:57.000Z</when>
<gx:coord>-123.05397616666666 44.726612499999995 65.5</gx:coord>

<when>2026-09-23T04:56:08.000Z</when>
<gx:coord>-123.05422316666666 44.724143999999995 65.7</gx:coord>

<when>2026-09-23T04:56:19.000Z</when>
<gx:coord>-123.05448316666667 44.721631499999994 66.1</gx:coord>

<when>2026-09-23T04:56:30.000Z</when>
<gx:coord>-123.05472616666665 44.71908083333333 66.8</gx:coord>

<when>2026-09-23T04:56:41.000Z</when>
<gx:coord>-123.0549265 44.716555666666665 66.6</gx:coord>

<when>2026-09-23T04:56:52.000Z</when>
<gx:coord>-123.05486416666666 44.71403716666667 67.7</gx:coord>

<when>2026-09-23T04:57:03.000Z</when>
<gx:coord>-123.05451833333333 44.711513333333336 69.4</gx:coord>

<when>2026-09-23T04:57:14.000Z</when>
<gx:coord>-123.05388633333332 44.708997 70.5</gx:coord>

<when>2026-09-23T04:57:25.000Z</when>
<gx:coord>-123.05332766666668 44.70677033333333 70.9</gx:coord>

<when>2026-09-23T04:57:36.000Z</when>
<gx:coord>-123.05360799999998 44.70507416666666 70.0</gx:coord>

<when>2026-09-23T04:57:47.000Z</when>
<gx:coord>-123.05483616666668 44.703818 69.9</gx:coord>

<when>2026-09-23T04:57:58.000Z</when>
<gx:coord>-123.05439933333334 44.70236383333333 68.5</gx:coord>

<when>2026-09-23T04:58:09.000Z</when>
<gx:coord>-123.05394816666667 44.70142066666667 67.9</gx:coord>

<when>2026-09-23T04:58:20.000Z</when>
<gx:coord>-123.05468333333334 44.700850833333334 65.8</gx:coord>

<when>2026-09-23T04:58:31.000Z</when>
<gx:coord>-123.05525583333335 44.700048 65.1</gx:coord>

<when>2026-09-23T04:58:42.000Z</when>
<gx:coord>-123.05552283333333 44.699341999999994 62.8</gx:coord>

<when>2026-09-23T04:58:53.000Z</when>
<gx:coord>-123.05592900000002 44.698866333333335 63.5</gx:coord>

<when>2026-09-23T04:59:04.000Z</when>
<gx:coord>-123.05648866666667 44.698507166666666 65.4</gx:coord>

<when>2026-09-23T04:59:15.000Z</when>
<gx:coord>-123.05651616666667 44.69824916666666 66.1</gx:coord>

<when>2026-09-23T04:59:26.000Z</when>
<gx:coord>-123.05633583333335 44.698109666666674 67.3</gx:coord>

<when>2026-09-23T04:59:37.000Z</when>
<gx:coord>-123.05621816666665 44.698068 65.6</gx:coord>

<when>2026-09-23T04:59:48.000Z</when>
<gx:coord>-123.056033 44.69810283333333 63.9</gx:coord>

<when>2026-09-23T04:59:59.000Z</when>
<gx:coord>-123.05572766666667 44.69814183333333 66.4</gx:coord>

<when>2026-09-23T05:00:10.000Z</when>
<gx:coord>-123.05534183333333 44.698128166666656 66.1</gx:coord>

<when>2026-09-23T05:00:21.000Z</when>
<gx:coord>-123.05502633333332 44.698100999999994 65.0</gx:coord>

<when>2026-09-23T05:00:32.000Z</when>
<gx:coord>-123.05466633333332 44.69814566666667 65.4</gx:coord>

<when>2026-09-23T05:00:43.000Z</when>
<gx:coord>-123.05449583333332 44.698361999999996 64.2</gx:coord>

<when>2026-09-23T05:00:54.000Z</when>
<gx:coord>-123.05460050000002 44.698597666666664 68.4</gx:coord>

<when>2026-09-23T05:01:05.000Z</when>
<gx:coord>-123.05489883333333 44.69862450000001 66.6</gx:coord>

<when>2026-09-23T05:15:32.000Z</when>
<gx:coord>-123.05501533333333 44.7003215 69.4</gx:coord>

<when>2026-09-23T05:15:44.000Z</when>
<gx:coord>-123.05414916666665 44.70120083333333 68.7</gx:coord>

<when>2026-09-23T05:15:55.000Z</when>
<gx:coord>-123.05379783333335 44.70150166666667 75.3</gx:coord>

<when>2026-09-23T05:16:06.000Z</when>
<gx:coord>-123.053989 44.70197383333334 76.8</gx:coord>

<when>2026-09-23T05:16:17.000Z</when>
<gx:coord>-123.05442650000002 44.70312466666666 79.7</gx:coord>

<when>2026-09-23T05:16:28.000Z</when>
<gx:coord>-123.05365250000001 44.70419983333333 81.9</gx:coord>

<when>2026-09-23T05:16:39.000Z</when>
<gx:coord>-123.05247866666666 44.70330083333333 85.8</gx:coord>

<when>2026-09-23T05:16:50.000Z</when>
<gx:coord>-123.05222066666666 44.701709 89.4</gx:coord>

<when>2026-09-23T05:17:01.000Z</when>
<gx:coord>-123.05210233333334 44.699838 90.8</gx:coord>

<when>2026-09-23T05:17:12.000Z</when>
<gx:coord>-123.05219683333334 44.697638000000005 88.3</gx:coord>

<when>2026-09-23T05:17:23.000Z</when>
<gx:coord>-123.05246783333332 44.69512616666666 85.1</gx:coord>

<when>2026-09-23T05:17:34.000Z</when>
<gx:coord>-123.05263949999998 44.692527166666665 83.4</gx:coord>

<when>2026-09-23T05:17:45.000Z</when>
<gx:coord>-123.052807 44.689876000000005 82.7</gx:coord>

<when>2026-09-23T05:17:56.000Z</when>
<gx:coord>-123.0530155 44.68720799999999 84.1</gx:coord>

<when>2026-09-23T05:18:07.000Z</when>
<gx:coord>-123.05351566666668 44.68455516666666 85.5</gx:coord>

<when>2026-09-23T05:18:18.000Z</when>
<gx:coord>-123.05431616666668 44.681970666666665 85.5</gx:coord>

<when>2026-09-23T05:18:29.000Z</when>
<gx:coord>-123.05524433333333 44.67938183333334 84.6</gx:coord>

<when>2026-09-23T05:18:40.000Z</when>
<gx:coord>-123.0561855 44.67674 82.0</gx:coord>

<when>2026-09-23T05:18:51.000Z</when>
<gx:coord>-123.05712916666668 44.674073666666665 81.3</gx:coord>

<when>2026-09-23T05:19:02.000Z</when>
<gx:coord>-123.05801116666667 44.67138116666667 80.6</gx:coord>

<when>2026-09-23T05:19:13.000Z</when>
<gx:coord>-123.05861750000001 44.668621 79.3</gx:coord>

<when>2026-09-23T05:19:24.000Z</when>
<gx:coord>-123.059128 44.66582666666667 76.7</gx:coord>

<when>2026-09-23T05:19:35.000Z</when>
<gx:coord>-123.05964416666666 44.66303383333334 74.2</gx:coord>

<when>2026-09-23T05:19:46.000Z</when>
<gx:coord>-123.06015000000001 44.66025833333333 71.9</gx:coord>

<when>2026-09-23T05:19:57.000Z</when>
<gx:coord>-123.06064733333332 44.65756783333333 71.4</gx:coord>

<when>2026-09-23T05:20:08.000Z</when>
<gx:coord>-123.06112883333331 44.654970000000006 71.9</gx:coord>

<when>2026-09-23T05:20:19.000Z</when>
<gx:coord>-123.06161183333333 44.65236016666666 72.0</gx:coord>

<when>2026-09-23T05:20:30.000Z</when>
<gx:coord>-123.06206616666665 44.649861166666675 72.7</gx:coord>

<when>2026-09-23T05:20:41.000Z</when>
<gx:coord>-123.06249150000001 44.647512166666665 73.7</gx:coord>

<when>2026-09-23T05:20:52.000Z</when>
<gx:coord>-123.06274233333333 44.64530883333334 76.3</gx:coord>

<when>2026-09-23T05:21:03.000Z</when>
<gx:coord>-123.06277200000001 44.642910666666666 78.3</gx:coord>

<when>2026-09-23T05:21:14.000Z</when>
<gx:coord>-123.06267916666665 44.64022166666667 76.4</gx:coord>

<when>2026-09-23T05:21:25.000Z</when>
<gx:coord>-123.06258000000001 44.637412833333336 77.1</gx:coord>

<when>2026-09-23T05:21:36.000Z</when>
<gx:coord>-123.06248400000001 44.634592833333336 76.4</gx:coord>

<when>2026-09-23T05:21:47.000Z</when>
<gx:coord>-123.062387 44.63184016666667 75.1</gx:coord>

<when>2026-09-23T05:21:58.000Z</when>
<gx:coord>-123.06231199999999 44.629084666666664 75.9</gx:coord>

<when>2026-09-23T05:22:09.000Z</when>
<gx:coord>-123.06227966666665 44.62635066666667 79.9</gx:coord>

<when>2026-09-23T05:22:20.000Z</when>
<gx:coord>-123.06227216666666 44.62366683333333 81.7</gx:coord>

<when>2026-09-23T05:22:31.000Z</when>
<gx:coord>-123.06226783333335 44.62086299999999 82.6</gx:coord>

<when>2026-09-23T05:22:42.000Z</when>
<gx:coord>-123.06224466666666 44.61800783333333 83.6</gx:coord>

<when>2026-09-23T05:22:53.000Z</when>
<gx:coord>-123.06223566666668 44.615170000000006 83.8</gx:coord>

<when>2026-09-23T05:23:04.000Z</when>
<gx:coord>-123.06222683333333 44.61240966666666 84.8</gx:coord>

<when>2026-09-23T05:23:15.000Z</when>
<gx:coord>-123.0622225 44.60966483333333 83.3</gx:coord>

<when>2026-09-23T05:23:26.000Z</when>
<gx:coord>-123.06220583333334 44.60694716666667 83.7</gx:coord>

<when>2026-09-23T05:23:37.000Z</when>
<gx:coord>-123.06220183333335 44.60421533333333 84.5</gx:coord>

<when>2026-09-23T05:23:48.000Z</when>
<gx:coord>-123.06218733333331 44.601476166666664 86.0</gx:coord>

<when>2026-09-23T05:23:59.000Z</when>
<gx:coord>-123.06216799999999 44.59878783333333 91.3</gx:coord>

<when>2026-09-23T05:24:10.000Z</when>
<gx:coord>-123.06215916666666 44.59615050000001 96.9</gx:coord>

<when>2026-09-23T05:24:21.000Z</when>
<gx:coord>-123.06214999999999 44.59337333333333 94.4</gx:coord>

<when>2026-09-23T05:24:32.000Z</when>
<gx:coord>-123.06213883333334 44.590438999999996 89.0</gx:coord>

<when>2026-09-23T05:24:43.000Z</when>
<gx:coord>-123.06212583333333 44.58749216666667 90.9</gx:coord>

<when>2026-09-23T05:24:54.000Z</when>
<gx:coord>-123.0621135 44.584577833333334 91.9</gx:coord>

<when>2026-09-23T05:25:05.000Z</when>
<gx:coord>-123.06210916666666 44.581746499999994 92.4</gx:coord>

<when>2026-09-23T05:25:16.000Z</when>
<gx:coord>-123.06209816666666 44.578863500000004 92.7</gx:coord>

<when>2026-09-23T05:25:27.000Z</when>
<gx:coord>-123.06208833333334 44.57599866666666 92.6</gx:coord>

<when>2026-09-23T05:25:38.000Z</when>
<gx:coord>-123.06208649999999 44.57319016666667 93.0</gx:coord>

<when>2026-09-23T05:25:49.000Z</when>
<gx:coord>-123.06207366666668 44.57038533333333 93.4</gx:coord>

<when>2026-09-23T05:26:00.000Z</when>
<gx:coord>-123.06206666666667 44.567653666666665 93.5</gx:coord>

<when>2026-09-23T05:26:11.000Z</when>
<gx:coord>-123.06205683333334 44.564961499999995 93.5</gx:coord>

<when>2026-09-23T05:26:22.000Z</when>
<gx:coord>-123.06205383333332 44.5622605 92.8</gx:coord>

<when>2026-09-23T05:26:33.000Z</when>
<gx:coord>-123.06205133333333 44.55947433333334 92.4</gx:coord>

<when>2026-09-23T05:26:44.000Z</when>
<gx:coord>-123.06203766666667 44.55666299999999 92.3</gx:coord>

<when>2026-09-23T05:26:55.000Z</when>
<gx:coord>-123.06205700000001 44.55384433333334 92.4</gx:coord>

<when>2026-09-23T05:27:06.000Z</when>
<gx:coord>-123.06204616666668 44.55095816666667 92.5</gx:coord>

<when>2026-09-23T05:27:17.000Z</when>
<gx:coord>-123.06202983333333 44.54809283333334 93.0</gx:coord>

<when>2026-09-23T05:27:28.000Z</when>
<gx:coord>-123.06202133333333 44.545260999999996 93.0</gx:coord>

<when>2026-09-23T05:27:39.000Z</when>
<gx:coord>-123.06199933333333 44.54240849999999 93.5</gx:coord>

<when>2026-09-23T05:27:50.000Z</when>
<gx:coord>-123.06198033333334 44.53956433333333 93.7</gx:coord>

<when>2026-09-23T05:28:01.000Z</when>
<gx:coord>-123.06197483333332 44.536749166666674 93.9</gx:coord>

<when>2026-09-23T05:28:12.000Z</when>
<gx:coord>-123.06196100000001 44.533926 94.1</gx:coord>

<when>2026-09-23T05:28:23.000Z</when>
<gx:coord>-123.06195216666669 44.531051833333336 93.5</gx:coord>

<when>2026-09-23T05:28:34.000Z</when>
<gx:coord>-123.06194066666667 44.5281315 93.4</gx:coord>

<when>2026-09-23T05:28:45.000Z</when>
<gx:coord>-123.06191983333335 44.52523383333334 94.5</gx:coord>

<when>2026-09-23T05:28:56.000Z</when>
<gx:coord>-123.06191466666665 44.52235900000001 94.1</gx:coord>

<when>2026-09-23T05:29:07.000Z</when>
<gx:coord>-123.06190683333334 44.51942333333333 93.9</gx:coord>

<when>2026-09-23T05:29:18.000Z</when>
<gx:coord>-123.06189449999998 44.516509 93.9</gx:coord>

<when>2026-09-23T05:29:29.000Z</when>
<gx:coord>-123.06188300000001 44.51362233333332 94.0</gx:coord>

<when>2026-09-23T05:29:40.000Z</when>
<gx:coord>-123.06187116666666 44.51076566666667 94.1</gx:coord>

<when>2026-09-23T05:29:51.000Z</when>
<gx:coord>-123.06186233333334 44.5079215 94.5</gx:coord>

<when>2026-09-23T05:30:02.000Z</when>
<gx:coord>-123.06185116666666 44.50509733333333 94.5</gx:coord>

<when>2026-09-23T05:30:13.000Z</when>
<gx:coord>-123.061833 44.50229716666666 95.1</gx:coord>

<when>2026-09-23T05:30:24.000Z</when>
<gx:coord>-123.06182533333335 44.49951633333333 95.4</gx:coord>

<when>2026-09-23T05:30:35.000Z</when>
<gx:coord>-123.06181766666666 44.4967075 94.6</gx:coord>

<when>2026-09-23T05:30:46.000Z</when>
<gx:coord>-123.061806 44.49387883333334 93.8</gx:coord>

<when>2026-09-23T05:30:57.000Z</when>
<gx:coord>-123.06180333333332 44.4910445 93.1</gx:coord>

<when>2026-09-23T05:31:08.000Z</when>
<gx:coord>-123.06179599999999 44.48815066666666 92.0</gx:coord>

<when>2026-09-23T05:31:19.000Z</when>
<gx:coord>-123.06179216666666 44.485233666666666 91.2</gx:coord>

<when>2026-09-23T05:31:30.000Z</when>
<gx:coord>-123.06178616666666 44.48234366666667 90.5</gx:coord>

<when>2026-09-23T05:31:41.000Z</when>
<gx:coord>-123.06178100000001 44.47945966666666 90.2</gx:coord>

<when>2026-09-23T05:31:52.000Z</when>
<gx:coord>-123.0617725 44.4765435 89.9</gx:coord>

<when>2026-09-23T05:32:03.000Z</when>
<gx:coord>-123.06176750000002 44.473628833333336 89.4</gx:coord>

<when>2026-09-23T05:32:14.000Z</when>
<gx:coord>-123.06176733333332 44.4707145 88.0</gx:coord>

<when>2026-09-23T05:32:25.000Z</when>
<gx:coord>-123.06176500000001 44.467800999999994 87.1</gx:coord>

<when>2026-09-23T05:32:36.000Z</when>
<gx:coord>-123.06175216666666 44.46489233333333 86.9</gx:coord>

<when>2026-09-23T05:32:47.000Z</when>
<gx:coord>-123.06174000000001 44.461999 86.6</gx:coord>

<when>2026-09-23T05:32:58.000Z</when>
<gx:coord>-123.06172450000001 44.45918516666667 87.4</gx:coord>

<when>2026-09-23T05:33:09.000Z</when>
<gx:coord>-123.06172383333333 44.456393 88.7</gx:coord>

<when>2026-09-23T05:33:20.000Z</when>
<gx:coord>-123.06172066666667 44.45358533333333 89.7</gx:coord>

<when>2026-09-23T05:33:31.000Z</when>
<gx:coord>-123.06171316666665 44.45075383333333 89.4</gx:coord>

<when>2026-09-23T05:33:42.000Z</when>
<gx:coord>-123.06170266666668 44.44792533333332 90.4</gx:coord>

<when>2026-09-23T05:33:53.000Z</when>
<gx:coord>-123.06169883333332 44.4451055 90.9</gx:coord>

<when>2026-09-23T05:34:04.000Z</when>
<gx:coord>-123.06168899999999 44.44231549999999 91.2</gx:coord>

<when>2026-09-23T05:34:15.000Z</when>
<gx:coord>-123.06167400000001 44.439516999999995 91.2</gx:coord>

<when>2026-09-23T05:34:26.000Z</when>
<gx:coord>-123.06166233333333 44.436720833333325 91.7</gx:coord>

<when>2026-09-23T05:34:37.000Z</when>
<gx:coord>-123.0616565 44.43391166666667 92.8</gx:coord>

<when>2026-09-23T05:34:48.000Z</when>
<gx:coord>-123.06163966666666 44.43111183333334 93.0</gx:coord>

<when>2026-09-23T05:34:59.000Z</when>
<gx:coord>-123.06163016666666 44.42825883333333 92.7</gx:coord>

<when>2026-09-23T05:35:10.000Z</when>
<gx:coord>-123.061617 44.42535366666666 92.5</gx:coord>

<when>2026-09-23T05:35:21.000Z</when>
<gx:coord>-123.06160766666666 44.422431499999995 93.6</gx:coord>

<when>2026-09-23T05:35:32.000Z</when>
<gx:coord>-123.06159700000002 44.419498833333336 93.5</gx:coord>

<when>2026-09-23T05:35:43.000Z</when>
<gx:coord>-123.06158283333335 44.416528666666665 93.0</gx:coord>

<when>2026-09-23T05:35:54.000Z</when>
<gx:coord>-123.06157833333333 44.41356600000001 92.9</gx:coord>

<when>2026-09-23T05:36:05.000Z</when>
<gx:coord>-123.061568 44.410590166666665 93.9</gx:coord>

<when>2026-09-23T05:36:16.000Z</when>
<gx:coord>-123.06155633333334 44.407627166666664 94.1</gx:coord>

<when>2026-09-23T05:36:27.000Z</when>
<gx:coord>-123.061551 44.404650499999995 93.9</gx:coord>

<when>2026-09-23T05:36:38.000Z</when>
<gx:coord>-123.061542 44.40173783333333 93.8</gx:coord>

<when>2026-09-23T05:36:49.000Z</when>
<gx:coord>-123.06153733333333 44.39884116666667 93.4</gx:coord>

<when>2026-09-23T05:37:00.000Z</when>
<gx:coord>-123.06153033333334 44.39592016666667 93.9</gx:coord>

<when>2026-09-23T05:37:11.000Z</when>
<gx:coord>-123.06152116666665 44.39299866666667 93.9</gx:coord>

<when>2026-09-23T05:37:22.000Z</when>
<gx:coord>-123.06150666666666 44.39014233333334 94.5</gx:coord>

<when>2026-09-23T05:37:33.000Z</when>
<gx:coord>-123.06150316666665 44.387359 95.0</gx:coord>

<when>2026-09-23T05:37:44.000Z</when>
<gx:coord>-123.061499 44.384593333333335 95.1</gx:coord>

<when>2026-09-23T05:37:55.000Z</when>
<gx:coord>-123.06148766666665 44.381953833333334 95.4</gx:coord>

<when>2026-09-23T05:38:06.000Z</when>
<gx:coord>-123.061478 44.379343500000004 95.9</gx:coord>

<when>2026-09-23T05:38:17.000Z</when>
<gx:coord>-123.06146500000001 44.37676533333333 96.3</gx:coord>

<when>2026-09-23T05:38:28.000Z</when>
<gx:coord>-123.06145633333333 44.37414449999999 96.5</gx:coord>

<when>2026-09-23T05:38:39.000Z</when>
<gx:coord>-123.06144633333334 44.37148166666666 96.4</gx:coord>

<when>2026-09-23T05:38:50.000Z</when>
<gx:coord>-123.06143716666665 44.368776833333335 96.5</gx:coord>

<when>2026-09-23T05:39:01.000Z</when>
<gx:coord>-123.06142433333335 44.36606316666666 97.0</gx:coord>

<when>2026-09-23T05:39:12.000Z</when>
<gx:coord>-123.06140833333332 44.363349333333325 98.1</gx:coord>

<when>2026-09-23T05:39:23.000Z</when>
<gx:coord>-123.06140599999999 44.36058549999999 98.3</gx:coord>

<when>2026-09-23T05:39:34.000Z</when>
<gx:coord>-123.06139916666667 44.35783333333334 97.9</gx:coord>

<when>2026-09-23T05:39:45.000Z</when>
<gx:coord>-123.06138333333335 44.35507783333334 99.2</gx:coord>

<when>2026-09-23T05:39:56.000Z</when>
<gx:coord>-123.06138066666666 44.352304000000004 100.0</gx:coord>

<when>2026-09-23T05:40:07.000Z</when>
<gx:coord>-123.06137283333334 44.34949383333333 100.3</gx:coord>

<when>2026-09-23T05:40:18.000Z</when>
<gx:coord>-123.06136266666665 44.34675633333333 100.6</gx:coord>

<when>2026-09-23T05:40:29.000Z</when>
<gx:coord>-123.06135449999998 44.344081499999994 101.1</gx:coord>

<when>2026-09-23T05:40:40.000Z</when>
<gx:coord>-123.06134216666666 44.341385833333334 101.5</gx:coord>

<when>2026-09-23T05:40:51.000Z</when>
<gx:coord>-123.06133416666668 44.33869516666667 101.7</gx:coord>

<when>2026-09-23T05:41:02.000Z</when>
<gx:coord>-123.06132166666666 44.33601999999999 102.4</gx:coord>

<when>2026-09-23T05:41:13.000Z</when>
<gx:coord>-123.06130999999999 44.33335883333333 102.2</gx:coord>

<when>2026-09-23T05:41:24.000Z</when>
<gx:coord>-123.06130333333334 44.33070283333333 102.3</gx:coord>

<when>2026-09-23T05:41:35.000Z</when>
<gx:coord>-123.06129933333335 44.328043166666674 102.0</gx:coord>

<when>2026-09-23T05:41:46.000Z</when>
<gx:coord>-123.0612875 44.32538066666666 102.3</gx:coord>

<when>2026-09-23T05:41:57.000Z</when>
<gx:coord>-123.06127783333335 44.3227155 102.5</gx:coord>

<when>2026-09-23T05:42:08.000Z</when>
<gx:coord>-123.06126466666667 44.320047833333334 102.6</gx:coord>

<when>2026-09-23T05:42:19.000Z</when>
<gx:coord>-123.06126250000001 44.3174395 107.2</gx:coord>

<when>2026-09-23T05:42:30.000Z</when>
<gx:coord>-123.06125233333333 44.314851166666664 110.3</gx:coord>

<when>2026-09-23T05:42:41.000Z</when>
<gx:coord>-123.06125283333334 44.312134 105.1</gx:coord>

<when>2026-09-23T05:42:52.000Z</when>
<gx:coord>-123.06124183333334 44.30937066666667 101.7</gx:coord>

<when>2026-09-23T05:43:03.000Z</when>
<gx:coord>-123.06123166666666 44.30669083333334 102.3</gx:coord>

<when>2026-09-23T05:43:14.000Z</when>
<gx:coord>-123.06122383333334 44.3040255 102.9</gx:coord>

<when>2026-09-23T05:43:25.000Z</when>
<gx:coord>-123.0612135 44.301360333333335 103.6</gx:coord>

<when>2026-09-23T05:43:36.000Z</when>
<gx:coord>-123.06119616666668 44.29872699999999 103.6</gx:coord>

<when>2026-09-23T05:43:47.000Z</when>
<gx:coord>-123.06119533333334 44.29601850000001 104.0</gx:coord>

<when>2026-09-23T05:43:58.000Z</when>
<gx:coord>-123.06119116666666 44.293328833333334 104.1</gx:coord>

<when>2026-09-23T05:44:09.000Z</when>
<gx:coord>-123.06118399999998 44.29070749999999 105.0</gx:coord>

<when>2026-09-23T05:44:20.000Z</when>
<gx:coord>-123.06117516666667 44.28815366666666 104.4</gx:coord>

<when>2026-09-23T05:44:31.000Z</when>
<gx:coord>-123.06117049999999 44.28565400000001 104.9</gx:coord>

<when>2026-09-23T05:44:42.000Z</when>
<gx:coord>-123.061161 44.283173999999995 105.9</gx:coord>

<when>2026-09-23T05:44:53.000Z</when>
<gx:coord>-123.06115383333332 44.280698666666666 105.7</gx:coord>

<when>2026-09-23T05:45:04.000Z</when>
<gx:coord>-123.06113966666665 44.27818949999999 106.7</gx:coord>

<when>2026-09-23T05:45:15.000Z</when>
<gx:coord>-123.06113166666667 44.275673000000005 107.3</gx:coord>

<when>2026-09-23T05:45:26.000Z</when>
<gx:coord>-123.0611245 44.27313916666667 107.9</gx:coord>

<when>2026-09-23T05:45:37.000Z</when>
<gx:coord>-123.06111666666666 44.27060183333333 107.8</gx:coord>

<when>2026-09-23T05:45:48.000Z</when>
<gx:coord>-123.06110583333333 44.26806866666667 107.5</gx:coord>

<when>2026-09-23T05:45:59.000Z</when>
<gx:coord>-123.06109266666665 44.26546133333333 107.6</gx:coord>

<when>2026-09-23T05:46:10.000Z</when>
<gx:coord>-123.06108483333334 44.262831999999996 108.2</gx:coord>

<when>2026-09-23T05:46:21.000Z</when>
<gx:coord>-123.06108250000001 44.260225000000005 108.4</gx:coord>

<when>2026-09-23T05:46:32.000Z</when>
<gx:coord>-123.06107233333333 44.25761966666667 108.2</gx:coord>

<when>2026-09-23T05:46:43.000Z</when>
<gx:coord>-123.06106399999999 44.25499549999999 108.0</gx:coord>

<when>2026-09-23T05:46:54.000Z</when>
<gx:coord>-123.06105666666666 44.2523955 108.2</gx:coord>

<when>2026-09-23T05:47:05.000Z</when>
<gx:coord>-123.06106100000001 44.24973750000001 109.0</gx:coord>

<when>2026-09-23T05:47:16.000Z</when>
<gx:coord>-123.06104683333334 44.247038999999994 109.1</gx:coord>

<when>2026-09-23T05:47:27.000Z</when>
<gx:coord>-123.06103733333333 44.244361 109.8</gx:coord>

<when>2026-09-23T05:47:38.000Z</when>
<gx:coord>-123.06102633333333 44.241788 110.8</gx:coord>

<when>2026-09-23T05:47:49.000Z</when>
<gx:coord>-123.06115483333333 44.239558 111.4</gx:coord>

<when>2026-09-23T05:48:00.000Z</when>
<gx:coord>-123.06124300000002 44.238430666666666 111.6</gx:coord>

<when>2026-09-23T05:48:11.000Z</when>
<gx:coord>-123.06127016666666 44.23819183333333 109.9</gx:coord>

<when>2026-09-23T05:48:22.000Z</when>
<gx:coord>-123.061292 44.23791733333334 106.1</gx:coord>

<when>2026-09-23T05:48:33.000Z</when>
<gx:coord>-123.06133583333333 44.237671166666665 102.4</gx:coord>

<when>2026-09-23T05:48:44.000Z</when>
<gx:coord>-123.06136066666667 44.23742333333333 101.3</gx:coord>

<when>2026-09-23T05:48:55.000Z</when>
<gx:coord>-123.06146199999999 44.23722533333333 103.0</gx:coord>

<when>2026-09-23T05:49:06.000Z</when>
<gx:coord>-123.06155066666666 44.237119 105.3</gx:coord>

<when>2026-09-23T05:49:17.000Z</when>
<gx:coord>-123.06156783333333 44.237065666666666 107.3</gx:coord>
</gx:Track>
</Placemark></Document></kml>
