<?xml version="1.0" encoding="UTF-8" ?><gpx version="1.1" creator="GPSLogger 135 - http://gpslogger.mendhak.com/" xmlns:xsi="http://www.w3.org/2001/XMLSchema-instance" xmlns="http://www.topografix.com/GPX/1/1" xmlns:gpxtpx="http://www.garmin.com/xmlschemas/TrackPointExtension/v2" xsi:schemaLocation="http://www.topografix.com/GPX/1/1 http://www.topografix.com/GPX/1/1/gpx.xsd http://www.garmin.com/xmlschemas/TrackPointExtension/v2 https://www8.garmin.com/xmlschemas/TrackPointExtensionv2.xsd "><metadata><time>2026-09-13T04:01:31.000Z</time></metadata><trk><name>20260912</name><trkseg><trkpt lat="45.698771666666666" lon="-121.53172799999999"><time>2026-09-13T04:01:31.000Z</time><extensions><gpxtpx:TrackPointExtension><gpxtpx:speed>0.13743083</gpxtpx:speed></gpxtpx:TrackPointExtension></extensions><src>gps</src><hdop>2.72</hdop><vdop>3.09</vdop><pdop>4.11</pdop></trkpt>
<trkpt lat="45.698671166666664" lon="-121.53174816666666"><ele>159.0</ele><time>2026-09-13T04:01:44.000Z</time><extensions><gpxtpx:TrackPointExtension><gpxtpx:speed>0.007206111</gpxtpx:speed></gpxtpx:TrackPointExtension></extensions><geoidheight>-20.1</geoidheight><src>gps</src><sat>9</sat><hdop>1.33</hdop><vdop>1.91</vdop><pdop>2.33</pdop></trkpt>
</trkseg></trk></gpx>