<?xml version="1.0" encoding="UTF-8"?><kml xmlns="http://www.opengis.net/kml/2.2" xmlns:gx="http://www.google.com/kml/ext/2.2" xmlns:kml="http://www.opengis.net/kml/2.2" xmlns:atom="http://www.w3.org/2005/Atom"><Document><name>2026-09-18T16:59:53.000Z</name>
<Placemark>
<gx:Track>

<when>2026-09-18T16:59:53.000Z</when>
<gx:coord>-121.53182516666666 45.69868066666666 164.1</gx:coord>

<when>2026-09-18T17:00:15.000Z</when>
<gx:coord>-121.53179733333333 45.69873299999999 162.7</gx:coord>

<when>2026-09-18T17:02:27.000Z</when>
<gx:coord>-121.53178199999999 45.69878983333333 161.9</gx:coord>

<when>2026-09-18T17:05:12.000Z</when>
<gx:coord>-121.53183316666667 45.69875466666667 158.5</gx:coord>

<when>2026-09-18T17:13:05.000Z</when>
<gx:coord>-121.531866 45.69871166666667 153.6</gx:coord>

<when>2026-09-18T17:14:33.000Z</when>
<gx:coord>-121.53184716666668 45.69875783333334 161.2</gx:coord>

<when>2026-09-18T17:19:52.000Z</when>
<gx:coord>-121.53185216666667 45.69880366666666 169.3</gx:coord>

<when>2026-09-18T20:15:50.000Z</when>
<gx:coord>-121.53178583333332 45.6988115 179.2</gx:coord>

<when>2026-09-18T20:18:13.000Z</when>
<gx:coord>-121.53184516666667 45.698848500000004 181.9</gx:coord>

<when>2026-09-18T20:22:37.000Z</when>
<gx:coord>-121.53186016666665 45.698804 172.6</gx:coord>

<when>2026-09-18T20:31:13.000Z</when>
<gx:coord>-121.53184866666668 45.69875733333333 171.4</gx:coord>

<when>2026-09-19T03:21:41.000Z</when>
<gx:coord>-121.53179116666666 45.69867566666667 0.0</gx:coord>

<when>2026-09-19T03:21:52.000Z</when>
<gx:coord>-121.53178600000001 45.6986265 145.3</gx:coord>

<when>2026-09-19T03:22:03.000Z</when>
<gx:coord>-121.53181950000001 45.698699500000004 153.1</gx:coord>

<when>2026-09-19T03:22:25.000Z</when>
<gx:coord>-121.53182183333332 45.698749 157.6</gx:coord>

<when>2026-09-19T03:26:16.000Z</when>
<gx:coord>-121.53186033333334 45.69879283333333 167.7</gx:coord>
</gx:Track>
</Placemark></Document></kml>
