<?xml version="1.0" encoding="UTF-8" ?><gpx version="1.1" creator="GPSLogger 135 - http://gpslogger.mendhak.com/" xmlns:xsi="http://www.w3.org/2001/XMLSchema-instance" xmlns="http://www.topografix.com/GPX/1/1" xmlns:gpxtpx="http://www.garmin.com/xmlschemas/TrackPointExtension/v2" xsi:schemaLocation="http://www.topografix.com/GPX/1/1 http://www.topografix.com/GPX/1/1/gpx.xsd http://www.garmin.com/xmlschemas/TrackPointExtension/v2 https://www8.garmin.com/xmlschemas/TrackPointExtensionv2.xsd "><metadata><time>2026-07-20T23:06:19.000Z</time></metadata><trk><name>20260720</name><trkseg><trkpt lat="45.69881133333333" lon="-121.531759"><ele>187.3</ele><time>2026-07-20T23:06:19.000Z</time><extensions><gpxtpx:TrackPointExtension><gpxtpx:speed>0.08235556</gpxtpx:speed></gpxtpx:TrackPointExtension></extensions><geoidheight>-20.1</geoidheight><src>gps</src><sat>4</sat><hdop>1.59</hdop><vdop>2.86</vdop><pdop>3.27</pdop></trkpt>
<trkpt lat="45.698737" lon="-121.53178350000002"><ele>177.5</ele><time>2026-07-20T23:06:41.000Z</time><extensions><gpxtpx:TrackPointExtension><gpxtpx:speed>0.08132611</gpxtpx:speed></gpxtpx:TrackPointExtension></extensions><geoidheight>-20.1</geoidheight><src>gps</src><sat>9</sat><hdop>0.86</hdop><vdop>1.27</vdop><pdop>1.53</pdop></trkpt>
<trkpt lat="45.6988095" lon="-121.53178899999999"><ele>179.2</ele><time>2026-07-20T23:13:32.000Z</time><extensions><gpxtpx:TrackPointExtension><gpxtpx:bearing>201.04</gpxtpx:bearing><gpxtpx:speed>0.44832304</gpxtpx:speed></gpxtpx:TrackPointExtension></extensions><geoidheight>-20.1</geoidheight><src>gps</src><sat>4</sat></trkpt>
<trkpt lat="45.69876599999999" lon="-121.53180583333332"><ele>174.4</ele><time>2026-07-20T23:14:16.000Z</time><extensions><gpxtpx:TrackPointExtension><gpxtpx:speed>0.10706222</gpxtpx:speed></gpxtpx:TrackPointExtension></extensions><geoidheight>-20.1</geoidheight><src>gps</src><sat>12</sat><hdop>0.85</hdop><vdop>1.12</vdop><pdop>1.41</pdop></trkpt>
</trkseg></trk></gpx>