<?xml version="1.0" encoding="UTF-8" ?><gpx version="1.1" creator="GPSLogger 135 - http://gpslogger.mendhak.com/" xmlns:xsi="http://www.w3.org/2001/XMLSchema-instance" xmlns="http://www.topografix.com/GPX/1/1" xmlns:gpxtpx="http://www.garmin.com/xmlschemas/TrackPointExtension/v2" xsi:schemaLocation="http://www.topografix.com/GPX/1/1 http://www.topografix.com/GPX/1/1/gpx.xsd http://www.garmin.com/xmlschemas/TrackPointExtension/v2 https://www8.garmin.com/xmlschemas/TrackPointExtensionv2.xsd "><metadata><time>2026-05-24T22:42:03.000Z</time></metadata><trk><name>20260524</name><trkseg><trkpt lat="44.06840333333333" lon="-116.99691416666668"><ele>671.7</ele><time>2026-05-24T22:42:03.000Z</time><extensions><gpxtpx:TrackPointExtension><gpxtpx:bearing>329.63</gpxtpx:bearing><gpxtpx:speed>25.488014</gpxtpx:speed></gpxtpx:TrackPointExtension></extensions><src>gps</src></trkpt>
<trkpt lat="44.07037216666666" lon="-116.99877866666665"><ele>684.5</ele><time>2026-05-24T22:42:14.000Z</time><extensions><gpxtpx:TrackPointExtension><gpxtpx:bearing>321.6</gpxtpx:bearing><gpxtpx:speed>23.036907</gpxtpx:speed></gpxtpx:TrackPointExtension></extensions><geoidheight>-19.4</geoidheight><src>gps</src><sat>13</sat><hdop>0.83</hdop><vdop>1.20</vdop><pdop>1.45</pdop></trkpt>
<trkpt lat="44.07198783333333" lon="-117.00083466666668"><ele>695.1</ele><time>2026-05-24T22:42:25.000Z</time><extensions><gpxtpx:TrackPointExtension><gpxtpx:bearing>314.36</gpxtpx:bearing><gpxtpx:speed>21.627083</gpxtpx:speed></gpxtpx:TrackPointExtension></extensions><geoidheight>-19.4</geoidheight><src>gps</src><sat>12</sat><hdop>0.83</hdop><vdop>1.14</vdop><pdop>1.41</pdop></trkpt>
<trkpt lat="44.07347883333333" lon="-117.00290266666667"><ele>704.1</ele><time>2026-05-24T22:42:36.000Z</time><extensions><gpxtpx:TrackPointExtension><gpxtpx:bearing>315.3</gpxtpx:bearing><gpxtpx:speed>21.346045</gpxtpx:speed></gpxtpx:TrackPointExtension></extensions><geoidheight>-19.4</geoidheight><src>gps</src><sat>12</sat><hdop>0.80</hdop><vdop>1.07</vdop><pdop>1.34</pdop></trkpt>
<trkpt lat="44.07499333333333" lon="-117.00500433333333"><ele>710.6</ele><time>2026-05-24T22:42:47.000Z</time><extensions><gpxtpx:TrackPointExtension><gpxtpx:bearing>315.05</gpxtpx:bearing><gpxtpx:speed>22.203573</gpxtpx:speed></gpxtpx:TrackPointExtension></extensions><geoidheight>-19.4</geoidheight><src>gps</src><sat>13</sat><hdop>0.73</hdop><vdop>1.04</vdop><pdop>1.27</pdop></trkpt>
<trkpt lat="44.07659116666667" lon="-117.00722300000001"><ele>714.4</ele><time>2026-05-24T22:42:58.000Z</time><extensions><gpxtpx:TrackPointExtension><gpxtpx:bearing>315.07</gpxtpx:bearing><gpxtpx:speed>23.715826</gpxtpx:speed></gpxtpx:TrackPointExtension></extensions><geoidheight>-19.4</geoidheight><src>gps</src><sat>13</sat><hdop>0.80</hdop><vdop>1.08</vdop><pdop>1.34</pdop></trkpt>
<trkpt lat="44.078318499999995" lon="-117.00962550000001"><ele>716.9</ele><time>2026-05-24T22:43:09.000Z</time><extensions><gpxtpx:TrackPointExtension><gpxtpx:bearing>314.86</gpxtpx:bearing><gpxtpx:speed>25.632137</gpxtpx:speed></gpxtpx:TrackPointExtension></extensions><geoidheight>-19.4</geoidheight><src>gps</src><sat>13</sat><hdop>0.73</hdop><vdop>1.04</vdop><pdop>1.27</pdop><dgpsid>0000</dgpsid></trkpt>
<trkpt lat="44.08017916666666" lon="-117.01220716666667"><ele>718.6</ele><time>2026-05-24T22:43:20.000Z</time><extensions><gpxtpx:TrackPointExtension><gpxtpx:bearing>314.93</gpxtpx:bearing><gpxtpx:speed>27.500065</gpxtpx:speed></gpxtpx:TrackPointExtension></extensions><geoidheight>-19.4</geoidheight><src>gps</src><sat>13</sat><hdop>0.73</hdop><vdop>1.04</vdop><pdop>1.27</pdop><dgpsid>0000</dgpsid></trkpt>
<trkpt lat="44.0821555" lon="-117.0149525"><ele>720.2</ele><time>2026-05-24T22:43:31.000Z</time><extensions><gpxtpx:TrackPointExtension><gpxtpx:bearing>314.19</gpxtpx:bearing><gpxtpx:speed>29.37983</gpxtpx:speed></gpxtpx:TrackPointExtension></extensions><geoidheight>-19.4</geoidheight><src>gps</src><sat>13</sat><hdop>0.75</hdop><vdop>1.05</vdop><pdop>1.30</pdop><dgpsid>0000</dgpsid></trkpt>
<trkpt lat="44.084205833333336" lon="-117.01779333333334"><ele>721.7</ele><time>2026-05-24T22:43:42.000Z</time><extensions><gpxtpx:TrackPointExtension><gpxtpx:bearing>314.95</gpxtpx:bearing><gpxtpx:speed>29.634617</gpxtpx:speed></gpxtpx:TrackPointExtension></extensions><geoidheight>-19.4</geoidheight><src>gps</src><sat>13</sat><hdop>0.73</hdop><vdop>1.04</vdop><pdop>1.27</pdop><dgpsid>0000</dgpsid></trkpt>
<trkpt lat="44.08630816666667" lon="-117.02066083333332"><ele>726.3</ele><time>2026-05-24T22:43:53.000Z</time><extensions><gpxtpx:TrackPointExtension><gpxtpx:bearing>315.52</gpxtpx:bearing><gpxtpx:speed>29.81374</gpxtpx:speed></gpxtpx:TrackPointExtension></extensions><geoidheight>-19.4</geoidheight><src>gps</src><sat>13</sat><hdop>0.73</hdop><vdop>1.04</vdop><pdop>1.27</pdop><dgpsid>0000</dgpsid></trkpt>
<trkpt lat="44.08840433333333" lon="-117.02350116666666"><ele>731.4</ele><time>2026-05-24T22:44:04.000Z</time><extensions><gpxtpx:TrackPointExtension><gpxtpx:bearing>315.99</gpxtpx:bearing><gpxtpx:speed>29.240854</gpxtpx:speed></gpxtpx:TrackPointExtension></extensions><geoidheight>-19.4</geoidheight><src>gps</src><sat>13</sat><hdop>0.73</hdop><vdop>1.04</vdop><pdop>1.27</pdop><dgpsid>0000</dgpsid></trkpt>
<trkpt lat="44.09047233333334" lon="-117.02629366666666"><ele>736.2</ele><time>2026-05-24T22:44:15.000Z</time><extensions><gpxtpx:TrackPointExtension><gpxtpx:bearing>315.69</gpxtpx:bearing><gpxtpx:speed>29.179604</gpxtpx:speed></gpxtpx:TrackPointExtension></extensions><geoidheight>-19.4</geoidheight><src>gps</src><sat>13</sat><hdop>0.73</hdop><vdop>1.04</vdop><pdop>1.27</pdop><dgpsid>0000</dgpsid></trkpt>
<trkpt lat="44.09253066666667" lon="-117.029079"><ele>740.6</ele><time>2026-05-24T22:44:26.000Z</time><extensions><gpxtpx:TrackPointExtension><gpxtpx:bearing>315.66</gpxtpx:bearing><gpxtpx:speed>28.945404</gpxtpx:speed></gpxtpx:TrackPointExtension></extensions><geoidheight>-19.4</geoidheight><src>gps</src><sat>13</sat><hdop>0.73</hdop><vdop>1.04</vdop><pdop>1.27</pdop><dgpsid>0000</dgpsid></trkpt>
<trkpt lat="44.094568333333335" lon="-117.0318875"><ele>740.0</ele><time>2026-05-24T22:44:37.000Z</time><extensions><gpxtpx:TrackPointExtension><gpxtpx:bearing>314.95</gpxtpx:bearing><gpxtpx:speed>29.205854</gpxtpx:speed></gpxtpx:TrackPointExtension></extensions><geoidheight>-19.4</geoidheight><src>gps</src><sat>13</sat><hdop>0.75</hdop><vdop>1.11</vdop><pdop>1.34</pdop><dgpsid>0000</dgpsid></trkpt>
<trkpt lat="44.09665283333334" lon="-117.03479100000001"><ele>732.0</ele><time>2026-05-24T22:44:48.000Z</time><extensions><gpxtpx:TrackPointExtension><gpxtpx:bearing>314.86</gpxtpx:bearing><gpxtpx:speed>30.339272</gpxtpx:speed></gpxtpx:TrackPointExtension></extensions><geoidheight>-19.4</geoidheight><src>gps</src><sat>12</sat><hdop>0.73</hdop><vdop>1.04</vdop><pdop>1.27</pdop><dgpsid>0000</dgpsid></trkpt>
<trkpt lat="44.0988155" lon="-117.03779933333333"><ele>727.5</ele><time>2026-05-24T22:44:59.000Z</time><extensions><gpxtpx:TrackPointExtension><gpxtpx:bearing>314.83</gpxtpx:bearing><gpxtpx:speed>30.963116</gpxtpx:speed></gpxtpx:TrackPointExtension></extensions><geoidheight>-19.4</geoidheight><src>gps</src><sat>13</sat><hdop>0.73</hdop><vdop>1.04</vdop><pdop>1.27</pdop><dgpsid>0000</dgpsid></trkpt>
<trkpt lat="44.100924" lon="-117.040734"><ele>736.6</ele><time>2026-05-24T22:45:10.000Z</time><extensions><gpxtpx:TrackPointExtension><gpxtpx:bearing>314.97</gpxtpx:bearing><gpxtpx:speed>29.396816</gpxtpx:speed></gpxtpx:TrackPointExtension></extensions><geoidheight>-19.4</geoidheight><src>gps</src><sat>13</sat><hdop>0.75</hdop><vdop>1.11</vdop><pdop>1.34</pdop><dgpsid>0000</dgpsid></trkpt>
<trkpt lat="44.1029095" lon="-117.04349883333335"><ele>747.4</ele><time>2026-05-24T22:45:21.000Z</time><extensions><gpxtpx:TrackPointExtension><gpxtpx:bearing>314.88</gpxtpx:bearing><gpxtpx:speed>27.569551</gpxtpx:speed></gpxtpx:TrackPointExtension></extensions><geoidheight>-19.4</geoidheight><src>gps</src><sat>12</sat><hdop>0.75</hdop><vdop>1.11</vdop><pdop>1.34</pdop><dgpsid>0000</dgpsid></trkpt>
<trkpt lat="44.10478150000001" lon="-117.04610499999998"><ele>757.2</ele><time>2026-05-24T22:45:32.000Z</time><extensions><gpxtpx:TrackPointExtension><gpxtpx:bearing>315.07</gpxtpx:bearing><gpxtpx:speed>26.23951</gpxtpx:speed></gpxtpx:TrackPointExtension></extensions><geoidheight>-19.4</geoidheight><src>gps</src><sat>12</sat><hdop>0.73</hdop><vdop>1.04</vdop><pdop>1.27</pdop><dgpsid>0000</dgpsid></trkpt>
<trkpt lat="44.1065675" lon="-117.04858683333332"><ele>767.3</ele><time>2026-05-24T22:45:43.000Z</time><extensions><gpxtpx:TrackPointExtension><gpxtpx:bearing>314.93</gpxtpx:bearing><gpxtpx:speed>24.841524</gpxtpx:speed></gpxtpx:TrackPointExtension></extensions><geoidheight>-19.4</geoidheight><src>gps</src><sat>13</sat><hdop>0.90</hdop><vdop>1.15</vdop><pdop>1.46</pdop><dgpsid>0000</dgpsid></trkpt>
<trkpt lat="44.10824183333334" lon="-117.05092850000001"><ele>778.2</ele><time>2026-05-24T22:45:54.000Z</time><extensions><gpxtpx:TrackPointExtension><gpxtpx:bearing>314.75</gpxtpx:bearing><gpxtpx:speed>23.296328</gpxtpx:speed></gpxtpx:TrackPointExtension></extensions><geoidheight>-19.4</geoidheight><src>gps</src><sat>11</sat><hdop>0.80</hdop><vdop>1.08</vdop><pdop>1.34</pdop><dgpsid>0000</dgpsid></trkpt>
<trkpt lat="44.109815833333336" lon="-117.05312649999999"><ele>787.7</ele><time>2026-05-24T22:46:05.000Z</time><extensions><gpxtpx:TrackPointExtension><gpxtpx:bearing>314.79</gpxtpx:bearing><gpxtpx:speed>22.148497</gpxtpx:speed></gpxtpx:TrackPointExtension></extensions><geoidheight>-19.4</geoidheight><src>gps</src><sat>12</sat><hdop>0.80</hdop><vdop>1.08</vdop><pdop>1.34</pdop><dgpsid>0000</dgpsid></trkpt>
<trkpt lat="44.111341499999995" lon="-117.05525000000002"><ele>795.3</ele><time>2026-05-24T22:46:16.000Z</time><extensions><gpxtpx:TrackPointExtension><gpxtpx:bearing>314.93</gpxtpx:bearing><gpxtpx:speed>21.821135</gpxtpx:speed></gpxtpx:TrackPointExtension></extensions><geoidheight>-19.4</geoidheight><src>gps</src><sat>12</sat><hdop>0.73</hdop><vdop>1.04</vdop><pdop>1.27</pdop><dgpsid>0000</dgpsid></trkpt>
<trkpt lat="44.112883499999995" lon="-117.05739899999999"><ele>801.0</ele><time>2026-05-24T22:46:27.000Z</time><extensions><gpxtpx:TrackPointExtension><gpxtpx:bearing>314.91</gpxtpx:bearing><gpxtpx:speed>22.600424</gpxtpx:speed></gpxtpx:TrackPointExtension></extensions><geoidheight>-19.4</geoidheight><src>gps</src><sat>13</sat><hdop>0.76</hdop><vdop>1.05</vdop><pdop>1.29</pdop><dgpsid>0000</dgpsid></trkpt>
<trkpt lat="44.114510833333334" lon="-117.05965133333332"><ele>803.9</ele><time>2026-05-24T22:46:38.000Z</time><extensions><gpxtpx:TrackPointExtension><gpxtpx:bearing>315.29</gpxtpx:bearing><gpxtpx:speed>23.964437</gpxtpx:speed></gpxtpx:TrackPointExtension></extensions><geoidheight>-19.4</geoidheight><src>gps</src><sat>12</sat><hdop>0.75</hdop><vdop>1.05</vdop><pdop>1.29</pdop><dgpsid>0000</dgpsid></trkpt>
<trkpt lat="44.116262166666665" lon="-117.06208550000001"><ele>803.6</ele><time>2026-05-24T22:46:49.000Z</time><extensions><gpxtpx:TrackPointExtension><gpxtpx:bearing>314.94</gpxtpx:bearing><gpxtpx:speed>26.170021</gpxtpx:speed></gpxtpx:TrackPointExtension></extensions><geoidheight>-19.4</geoidheight><src>gps</src><sat>13</sat><hdop>0.83</hdop><vdop>1.08</vdop><pdop>1.37</pdop><dgpsid>0000</dgpsid></trkpt>
<trkpt lat="44.11812183333333" lon="-117.06484416666666"><ele>799.8</ele><time>2026-05-24T22:47:00.000Z</time><extensions><gpxtpx:TrackPointExtension><gpxtpx:bearing>309.44</gpxtpx:bearing><gpxtpx:speed>29.29593</gpxtpx:speed></gpxtpx:TrackPointExtension></extensions><geoidheight>-19.4</geoidheight><src>gps</src><sat>13</sat><hdop>0.82</hdop><vdop>1.18</vdop><pdop>1.44</pdop><dgpsid>0000</dgpsid></trkpt>
<trkpt lat="44.119869666666666" lon="-117.06827633333333"><ele>793.1</ele><time>2026-05-24T22:47:11.000Z</time><extensions><gpxtpx:TrackPointExtension><gpxtpx:bearing>301.07</gpxtpx:bearing><gpxtpx:speed>31.476809</gpxtpx:speed></gpxtpx:TrackPointExtension></extensions><geoidheight>-19.4</geoidheight><src>gps</src><sat>12</sat><hdop>0.90</hdop><vdop>1.15</vdop><pdop>1.46</pdop><dgpsid>0000</dgpsid></trkpt>
<trkpt lat="44.12142733333334" lon="-117.071965"><ele>791.5</ele><time>2026-05-24T22:47:22.000Z</time><extensions><gpxtpx:TrackPointExtension><gpxtpx:bearing>300.56</gpxtpx:bearing><gpxtpx:speed>30.587883</gpxtpx:speed></gpxtpx:TrackPointExtension></extensions><geoidheight>-19.4</geoidheight><src>gps</src><sat>10</sat><hdop>0.83</hdop><vdop>1.08</vdop><pdop>1.36</pdop><dgpsid>0000</dgpsid></trkpt>
<trkpt lat="44.12301816666666" lon="-117.07544233333334"><ele>792.9</ele><time>2026-05-24T22:47:33.000Z</time><extensions><gpxtpx:TrackPointExtension><gpxtpx:bearing>303.27</gpxtpx:bearing><gpxtpx:speed>29.906906</gpxtpx:speed></gpxtpx:TrackPointExtension></extensions><geoidheight>-19.4</geoidheight><src>gps</src><sat>12</sat><hdop>0.88</hdop><vdop>1.19</vdop><pdop>1.49</pdop><dgpsid>0000</dgpsid></trkpt>
<trkpt lat="44.12471133333334" lon="-117.07878299999999"><ele>794.0</ele><time>2026-05-24T22:47:44.000Z</time><extensions><gpxtpx:TrackPointExtension><gpxtpx:bearing>306.23</gpxtpx:bearing><gpxtpx:speed>29.949112</gpxtpx:speed></gpxtpx:TrackPointExtension></extensions><geoidheight>-19.4</geoidheight><src>gps</src><sat>11</sat><hdop>0.88</hdop><vdop>1.19</vdop><pdop>1.49</pdop><dgpsid>0000</dgpsid></trkpt>
<trkpt lat="44.12649" lon="-117.08197366666667"><ele>798.1</ele><time>2026-05-24T22:47:55.000Z</time><extensions><gpxtpx:TrackPointExtension><gpxtpx:bearing>308.93</gpxtpx:bearing><gpxtpx:speed>28.648409</gpxtpx:speed></gpxtpx:TrackPointExtension></extensions><geoidheight>-19.4</geoidheight><src>gps</src><sat>11</sat><hdop>0.73</hdop><vdop>1.04</vdop><pdop>1.27</pdop><dgpsid>0000</dgpsid></trkpt>
<trkpt lat="44.12828283333333" lon="-117.08490333333333"><ele>807.7</ele><time>2026-05-24T22:48:06.000Z</time><extensions><gpxtpx:TrackPointExtension><gpxtpx:bearing>311.56</gpxtpx:bearing><gpxtpx:speed>27.080566</gpxtpx:speed></gpxtpx:TrackPointExtension></extensions><geoidheight>-19.4</geoidheight><src>gps</src><sat>13</sat><hdop>0.84</hdop><vdop>1.19</vdop><pdop>1.45</pdop><dgpsid>0000</dgpsid></trkpt>
<trkpt lat="44.12997699999999" lon="-117.08753616666667"><ele>820.4</ele><time>2026-05-24T22:48:17.000Z</time><extensions><gpxtpx:TrackPointExtension><gpxtpx:bearing>311.89</gpxtpx:bearing><gpxtpx:speed>24.304153</gpxtpx:speed></gpxtpx:TrackPointExtension></extensions><geoidheight>-19.4</geoidheight><src>gps</src><sat>12</sat><hdop>0.81</hdop><vdop>1.08</vdop><pdop>1.35</pdop><dgpsid>0000</dgpsid></trkpt>
<trkpt lat="44.13152866666666" lon="-117.08984200000002"><ele>834.0</ele><time>2026-05-24T22:48:28.000Z</time><extensions><gpxtpx:TrackPointExtension><gpxtpx:bearing>313.81</gpxtpx:bearing><gpxtpx:speed>21.5787</gpxtpx:speed></gpxtpx:TrackPointExtension></extensions><geoidheight>-19.4</geoidheight><src>gps</src><sat>13</sat><hdop>0.81</hdop><vdop>1.08</vdop><pdop>1.35</pdop><dgpsid>0000</dgpsid></trkpt>
<trkpt lat="44.1329685" lon="-117.09186666666668"><ele>844.9</ele><time>2026-05-24T22:48:39.000Z</time><extensions><gpxtpx:TrackPointExtension><gpxtpx:bearing>315.22</gpxtpx:bearing><gpxtpx:speed>20.085491</gpxtpx:speed></gpxtpx:TrackPointExtension></extensions><geoidheight>-19.4</geoidheight><src>gps</src><sat>13</sat><hdop>0.75</hdop><vdop>1.11</vdop><pdop>1.34</pdop><dgpsid>0000</dgpsid></trkpt>
<trkpt lat="44.13439700000001" lon="-117.09376966666666"><ele>853.4</ele><time>2026-05-24T22:48:50.000Z</time><extensions><gpxtpx:TrackPointExtension><gpxtpx:bearing>317.1</gpxtpx:bearing><gpxtpx:speed>20.005709</gpxtpx:speed></gpxtpx:TrackPointExtension></extensions><geoidheight>-19.4</geoidheight><src>gps</src><sat>12</sat><hdop>0.75</hdop><vdop>1.11</vdop><pdop>1.34</pdop><dgpsid>0000</dgpsid></trkpt>
<trkpt lat="44.135875500000004" lon="-117.09564566666668"><ele>860.7</ele><time>2026-05-24T22:49:01.000Z</time><extensions><gpxtpx:TrackPointExtension><gpxtpx:bearing>318.64</gpxtpx:bearing><gpxtpx:speed>20.542564</gpxtpx:speed></gpxtpx:TrackPointExtension></extensions><geoidheight>-19.4</geoidheight><src>gps</src><sat>12</sat><hdop>0.82</hdop><vdop>1.25</vdop><pdop>1.49</pdop><dgpsid>0000</dgpsid></trkpt>
<trkpt lat="44.13745366666667" lon="-117.09754383333332"><ele>864.4</ele><time>2026-05-24T22:49:12.000Z</time><extensions><gpxtpx:TrackPointExtension><gpxtpx:bearing>319.18</gpxtpx:bearing><gpxtpx:speed>21.738264</gpxtpx:speed></gpxtpx:TrackPointExtension></extensions><geoidheight>-19.4</geoidheight><src>gps</src><sat>11</sat><hdop>0.93</hdop><vdop>1.31</vdop><pdop>1.61</pdop><dgpsid>0000</dgpsid></trkpt>
<trkpt lat="44.13915383333333" lon="-117.09948583333335"><ele>868.4</ele><time>2026-05-24T22:49:23.000Z</time><extensions><gpxtpx:TrackPointExtension><gpxtpx:bearing>321.68</gpxtpx:bearing><gpxtpx:speed>22.778517</gpxtpx:speed></gpxtpx:TrackPointExtension></extensions><geoidheight>-19.4</geoidheight><src>gps</src><sat>10</sat><hdop>0.81</hdop><vdop>1.07</vdop><pdop>1.34</pdop><dgpsid>0000</dgpsid></trkpt>
<trkpt lat="44.14096216666667" lon="-117.10143850000001"><ele>873.0</ele><time>2026-05-24T22:49:34.000Z</time><extensions><gpxtpx:TrackPointExtension><gpxtpx:bearing>323.29</gpxtpx:bearing><gpxtpx:speed>23.591778</gpxtpx:speed></gpxtpx:TrackPointExtension></extensions><geoidheight>-19.4</geoidheight><src>gps</src><sat>13</sat><hdop>0.81</hdop><vdop>1.07</vdop><pdop>1.34</pdop><dgpsid>0000</dgpsid></trkpt>
<trkpt lat="44.1428685" lon="-117.1033675"><ele>877.1</ele><time>2026-05-24T22:49:45.000Z</time><extensions><gpxtpx:TrackPointExtension><gpxtpx:bearing>324.81</gpxtpx:bearing><gpxtpx:speed>24.241873</gpxtpx:speed></gpxtpx:TrackPointExtension></extensions><geoidheight>-19.4</geoidheight><src>gps</src><sat>13</sat><hdop>0.92</hdop><vdop>1.30</vdop><pdop>1.59</pdop><dgpsid>0000</dgpsid></trkpt>
<trkpt lat="44.14487866666666" lon="-117.10526983333332"><ele>882.2</ele><time>2026-05-24T22:49:56.000Z</time><extensions><gpxtpx:TrackPointExtension><gpxtpx:bearing>326.64</gpxtpx:bearing><gpxtpx:speed>24.879614</gpxtpx:speed></gpxtpx:TrackPointExtension></extensions><geoidheight>-19.4</geoidheight><src>gps</src><sat>12</sat><hdop>0.81</hdop><vdop>1.07</vdop><pdop>1.34</pdop><dgpsid>0000</dgpsid></trkpt>
<trkpt lat="44.146981833333335" lon="-117.10714416666666"><ele>886.1</ele><time>2026-05-24T22:50:07.000Z</time><extensions><gpxtpx:TrackPointExtension><gpxtpx:bearing>328.0</gpxtpx:bearing><gpxtpx:speed>25.737656</gpxtpx:speed></gpxtpx:TrackPointExtension></extensions><geoidheight>-19.4</geoidheight><src>gps</src><sat>13</sat><hdop>0.84</hdop><vdop>1.19</vdop><pdop>1.45</pdop><dgpsid>0000</dgpsid></trkpt>
<trkpt lat="44.149242333333326" lon="-117.10896716666666"><ele>888.1</ele><time>2026-05-24T22:50:18.000Z</time><extensions><gpxtpx:TrackPointExtension><gpxtpx:bearing>331.4</gpxtpx:bearing><gpxtpx:speed>27.153141</gpxtpx:speed></gpxtpx:TrackPointExtension></extensions><geoidheight>-19.4</geoidheight><src>gps</src><sat>12</sat><hdop>0.84</hdop><vdop>1.19</vdop><pdop>1.45</pdop><dgpsid>0000</dgpsid></trkpt>
<trkpt lat="44.15171399999999" lon="-117.11077300000001"><ele>887.2</ele><time>2026-05-24T22:50:29.000Z</time><extensions><gpxtpx:TrackPointExtension><gpxtpx:bearing>332.61</gpxtpx:bearing><gpxtpx:speed>29.04732</gpxtpx:speed></gpxtpx:TrackPointExtension></extensions><geoidheight>-19.4</geoidheight><src>gps</src><sat>13</sat><hdop>0.78</hdop><vdop>1.14</vdop><pdop>1.38</pdop><dgpsid>0000</dgpsid></trkpt>
<trkpt lat="44.154338833333334" lon="-117.11265499999999"><ele>885.5</ele><time>2026-05-24T22:50:40.000Z</time><extensions><gpxtpx:TrackPointExtension><gpxtpx:bearing>332.47</gpxtpx:bearing><gpxtpx:speed>30.466923</gpxtpx:speed></gpxtpx:TrackPointExtension></extensions><geoidheight>-19.4</geoidheight><src>gps</src><sat>12</sat><hdop>0.86</hdop><vdop>1.19</vdop><pdop>1.47</pdop><dgpsid>0000</dgpsid></trkpt>
<trkpt lat="44.157015833333325" lon="-117.11459083333332"><ele>879.3</ele><time>2026-05-24T22:50:51.000Z</time><extensions><gpxtpx:TrackPointExtension><gpxtpx:bearing>332.42</gpxtpx:bearing><gpxtpx:speed>30.755682</gpxtpx:speed></gpxtpx:TrackPointExtension></extensions><geoidheight>-19.4</geoidheight><src>gps</src><sat>13</sat><hdop>0.82</hdop><vdop>1.14</vdop><pdop>1.41</pdop><dgpsid>0000</dgpsid></trkpt>
<trkpt lat="44.15978" lon="-117.11623833333333"><ele>865.2</ele><time>2026-05-24T22:51:02.000Z</time><extensions><gpxtpx:TrackPointExtension><gpxtpx:bearing>343.87</gpxtpx:bearing><gpxtpx:speed>30.633694</gpxtpx:speed></gpxtpx:TrackPointExtension></extensions><geoidheight>-19.4</geoidheight><src>gps</src><sat>12</sat><hdop>0.88</hdop><vdop>1.20</vdop><pdop>1.49</pdop><dgpsid>0000</dgpsid></trkpt>
<trkpt lat="44.16269166666666" lon="-117.11748700000001"><ele>849.6</ele><time>2026-05-24T22:51:13.000Z</time><extensions><gpxtpx:TrackPointExtension><gpxtpx:bearing>338.55</gpxtpx:bearing><gpxtpx:speed>30.995543</gpxtpx:speed></gpxtpx:TrackPointExtension></extensions><geoidheight>-19.4</geoidheight><src>gps</src><sat>12</sat><hdop>0.83</hdop><vdop>1.07</vdop><pdop>1.35</pdop><dgpsid>0000</dgpsid></trkpt>
<trkpt lat="44.16512550000001" lon="-117.12011416666668"><ele>833.0</ele><time>2026-05-24T22:51:24.000Z</time><extensions><gpxtpx:TrackPointExtension><gpxtpx:bearing>314.09</gpxtpx:bearing><gpxtpx:speed>32.596844</gpxtpx:speed></gpxtpx:TrackPointExtension></extensions><geoidheight>-19.4</geoidheight><src>gps</src><sat>12</sat><hdop>0.73</hdop><vdop>1.03</vdop><pdop>1.26</pdop><dgpsid>0000</dgpsid></trkpt>
<trkpt lat="44.16741866666666" lon="-117.12338999999999"><ele>814.9</ele><time>2026-05-24T22:51:35.000Z</time><extensions><gpxtpx:TrackPointExtension><gpxtpx:bearing>314.13</gpxtpx:bearing><gpxtpx:speed>33.58511</gpxtpx:speed></gpxtpx:TrackPointExtension></extensions><geoidheight>-19.4</geoidheight><src>gps</src><sat>13</sat><hdop>0.75</hdop><vdop>1.11</vdop><pdop>1.34</pdop><dgpsid>0000</dgpsid></trkpt>
<trkpt lat="44.16974816666667" lon="-117.12670433333332"><ele>798.1</ele><time>2026-05-24T22:51:46.000Z</time><extensions><gpxtpx:TrackPointExtension><gpxtpx:bearing>314.04</gpxtpx:bearing><gpxtpx:speed>33.44253</gpxtpx:speed></gpxtpx:TrackPointExtension></extensions><geoidheight>-19.4</geoidheight><src>gps</src><sat>12</sat><hdop>0.72</hdop><vdop>0.98</vdop><pdop>1.21</pdop><dgpsid>0000</dgpsid></trkpt>
<trkpt lat="44.1719765" lon="-117.12991533333334"><ele>793.7</ele><time>2026-05-24T22:51:57.000Z</time><extensions><gpxtpx:TrackPointExtension><gpxtpx:bearing>314.43</gpxtpx:bearing><gpxtpx:speed>31.486073</gpxtpx:speed></gpxtpx:TrackPointExtension></extensions><geoidheight>-19.4</geoidheight><src>gps</src><sat>14</sat><hdop>0.72</hdop><vdop>0.98</vdop><pdop>1.21</pdop><dgpsid>0000</dgpsid></trkpt>
<trkpt lat="44.17431266666667" lon="-117.13262016666667"><ele>791.9</ele><time>2026-05-24T22:52:08.000Z</time><extensions><gpxtpx:TrackPointExtension><gpxtpx:bearing>328.05</gpxtpx:bearing><gpxtpx:speed>30.454056</gpxtpx:speed></gpxtpx:TrackPointExtension></extensions><geoidheight>-19.4</geoidheight><src>gps</src><sat>14</sat><hdop>0.82</hdop><vdop>1.02</vdop><pdop>1.31</pdop><dgpsid>0000</dgpsid></trkpt>
<trkpt lat="44.17710399999999" lon="-117.13422766666666"><ele>790.2</ele><time>2026-05-24T22:52:19.000Z</time><extensions><gpxtpx:TrackPointExtension><gpxtpx:bearing>345.68</gpxtpx:bearing><gpxtpx:speed>30.810757</gpxtpx:speed></gpxtpx:TrackPointExtension></extensions><geoidheight>-19.4</geoidheight><src>gps</src><sat>14</sat><hdop>0.81</hdop><vdop>1.07</vdop><pdop>1.35</pdop><dgpsid>0000</dgpsid></trkpt>
<trkpt lat="44.18010983333333" lon="-117.13505599999999"><ele>782.1</ele><time>2026-05-24T22:52:30.000Z</time><extensions><gpxtpx:TrackPointExtension><gpxtpx:bearing>349.54</gpxtpx:bearing><gpxtpx:speed>31.170034</gpxtpx:speed></gpxtpx:TrackPointExtension></extensions><geoidheight>-19.4</geoidheight><src>gps</src><sat>13</sat><hdop>0.71</hdop><vdop>0.98</vdop><pdop>1.21</pdop><dgpsid>0000</dgpsid></trkpt>
<trkpt lat="44.1831515" lon="-117.1358345"><ele>776.8</ele><time>2026-05-24T22:52:41.000Z</time><extensions><gpxtpx:TrackPointExtension><gpxtpx:bearing>349.62</gpxtpx:bearing><gpxtpx:speed>31.358421</gpxtpx:speed></gpxtpx:TrackPointExtension></extensions><geoidheight>-19.4</geoidheight><src>gps</src><sat>14</sat><hdop>0.82</hdop><vdop>1.02</vdop><pdop>1.31</pdop><dgpsid>0000</dgpsid></trkpt>
<trkpt lat="44.18609866666667" lon="-117.13660433333334"><ele>785.8</ele><time>2026-05-24T22:52:52.000Z</time><extensions><gpxtpx:TrackPointExtension><gpxtpx:bearing>349.41</gpxtpx:bearing><gpxtpx:speed>29.38858</gpxtpx:speed></gpxtpx:TrackPointExtension></extensions><geoidheight>-19.4</geoidheight><src>gps</src><sat>14</sat><hdop>0.81</hdop><vdop>1.07</vdop><pdop>1.35</pdop><dgpsid>0000</dgpsid></trkpt>
<trkpt lat="44.188811" lon="-117.13741183333335"><ele>797.3</ele><time>2026-05-24T22:53:03.000Z</time><extensions><gpxtpx:TrackPointExtension><gpxtpx:bearing>344.51</gpxtpx:bearing><gpxtpx:speed>27.117111</gpxtpx:speed></gpxtpx:TrackPointExtension></extensions><geoidheight>-19.4</geoidheight><src>gps</src><sat>13</sat><hdop>0.81</hdop><vdop>1.07</vdop><pdop>1.35</pdop><dgpsid>0000</dgpsid></trkpt>
<trkpt lat="44.19123616666668" lon="-117.138674"><ele>808.6</ele><time>2026-05-24T22:53:14.000Z</time><extensions><gpxtpx:TrackPointExtension><gpxtpx:bearing>334.97</gpxtpx:bearing><gpxtpx:speed>25.259478</gpxtpx:speed></gpxtpx:TrackPointExtension></extensions><geoidheight>-19.4</geoidheight><src>gps</src><sat>13</sat><hdop>0.71</hdop><vdop>0.98</vdop><pdop>1.21</pdop><dgpsid>0000</dgpsid></trkpt>
<trkpt lat="44.19329916666667" lon="-117.14030316666667"><ele>821.6</ele><time>2026-05-24T22:53:25.000Z</time><extensions><gpxtpx:TrackPointExtension><gpxtpx:bearing>326.19</gpxtpx:bearing><gpxtpx:speed>23.02198</gpxtpx:speed></gpxtpx:TrackPointExtension></extensions><geoidheight>-19.4</geoidheight><src>gps</src><sat>14</sat><hdop>0.79</hdop><vdop>1.02</vdop><pdop>1.29</pdop><dgpsid>0000</dgpsid></trkpt>
<trkpt lat="44.19511066666667" lon="-117.14198616666665"><ele>832.9</ele><time>2026-05-24T22:53:36.000Z</time><extensions><gpxtpx:TrackPointExtension><gpxtpx:bearing>325.75</gpxtpx:bearing><gpxtpx:speed>21.242071</gpxtpx:speed></gpxtpx:TrackPointExtension></extensions><geoidheight>-19.4</geoidheight><src>gps</src><sat>14</sat><hdop>0.86</hdop><vdop>1.13</vdop><pdop>1.42</pdop><dgpsid>0000</dgpsid></trkpt>
<trkpt lat="44.196814833333335" lon="-117.14350416666666"><ele>842.9</ele><time>2026-05-24T22:53:47.000Z</time><extensions><gpxtpx:TrackPointExtension><gpxtpx:bearing>330.92</gpxtpx:bearing><gpxtpx:speed>19.754524</gpxtpx:speed></gpxtpx:TrackPointExtension></extensions><geoidheight>-19.4</geoidheight><src>gps</src><sat>13</sat><hdop>0.85</hdop><vdop>1.18</vdop><pdop>1.46</pdop><dgpsid>0000</dgpsid></trkpt>
<trkpt lat="44.19857833333334" lon="-117.14445566666667"><ele>853.5</ele><time>2026-05-24T22:53:58.000Z</time><extensions><gpxtpx:TrackPointExtension><gpxtpx:bearing>345.33</gpxtpx:bearing><gpxtpx:speed>18.746698</gpxtpx:speed></gpxtpx:TrackPointExtension></extensions><geoidheight>-19.4</geoidheight><src>gps</src><sat>12</sat><hdop>0.74</hdop><vdop>1.04</vdop><pdop>1.27</pdop><dgpsid>0000</dgpsid></trkpt>
<trkpt lat="44.200371" lon="-117.14479350000002"><ele>864.3</ele><time>2026-05-24T22:54:09.000Z</time><extensions><gpxtpx:TrackPointExtension><gpxtpx:bearing>358.38</gpxtpx:bearing><gpxtpx:speed>18.278301</gpxtpx:speed></gpxtpx:TrackPointExtension></extensions><geoidheight>-19.4</geoidheight><src>gps</src><sat>13</sat><hdop>0.81</hdop><vdop>1.07</vdop><pdop>1.34</pdop><dgpsid>0000</dgpsid></trkpt>
<trkpt lat="44.202202500000006" lon="-117.14458799999998"><ele>872.4</ele><time>2026-05-24T22:54:20.000Z</time><extensions><gpxtpx:TrackPointExtension><gpxtpx:bearing>7.86</gpxtpx:bearing><gpxtpx:speed>19.379807</gpxtpx:speed></gpxtpx:TrackPointExtension></extensions><geoidheight>-19.4</geoidheight><src>gps</src><sat>13</sat><hdop>0.85</hdop><vdop>1.29</vdop><pdop>1.54</pdop><dgpsid>0000</dgpsid></trkpt>
<trkpt lat="44.20419083333333" lon="-117.14428233333335"><ele>878.1</ele><time>2026-05-24T22:54:31.000Z</time><extensions><gpxtpx:TrackPointExtension><gpxtpx:bearing>1.77</gpxtpx:bearing><gpxtpx:speed>21.374355</gpxtpx:speed></gpxtpx:TrackPointExtension></extensions><geoidheight>-19.3</geoidheight><src>gps</src><sat>12</sat><hdop>0.85</hdop><vdop>1.29</vdop><pdop>1.54</pdop><dgpsid>0000</dgpsid></trkpt>
<trkpt lat="44.2064395" lon="-117.1447665"><ele>876.8</ele><time>2026-05-24T22:54:42.000Z</time><extensions><gpxtpx:TrackPointExtension><gpxtpx:bearing>341.15</gpxtpx:bearing><gpxtpx:speed>25.076752</gpxtpx:speed></gpxtpx:TrackPointExtension></extensions><geoidheight>-19.3</geoidheight><src>gps</src><sat>12</sat><hdop>0.86</hdop><vdop>1.11</vdop><pdop>1.40</pdop><dgpsid>0000</dgpsid></trkpt>
<trkpt lat="44.208737500000005" lon="-117.1466325"><ele>865.8</ele><time>2026-05-24T22:54:53.000Z</time><extensions><gpxtpx:TrackPointExtension><gpxtpx:bearing>323.66</gpxtpx:bearing><gpxtpx:speed>28.651497</gpxtpx:speed></gpxtpx:TrackPointExtension></extensions><geoidheight>-19.3</geoidheight><src>gps</src><sat>12</sat><hdop>0.86</hdop><vdop>1.11</vdop><pdop>1.40</pdop><dgpsid>0000</dgpsid></trkpt>
<trkpt lat="44.211070333333325" lon="-117.149037"><ele>852.1</ele><time>2026-05-24T22:55:04.000Z</time><extensions><gpxtpx:TrackPointExtension><gpxtpx:bearing>324.39</gpxtpx:bearing><gpxtpx:speed>29.365932</gpxtpx:speed></gpxtpx:TrackPointExtension></extensions><geoidheight>-19.3</geoidheight><src>gps</src><sat>13</sat><hdop>0.81</hdop><vdop>1.07</vdop><pdop>1.34</pdop><dgpsid>0000</dgpsid></trkpt>
<trkpt lat="44.213466000000004" lon="-117.15102616666667"><ele>855.8</ele><time>2026-05-24T22:55:15.000Z</time><extensions><gpxtpx:TrackPointExtension><gpxtpx:bearing>333.89</gpxtpx:bearing><gpxtpx:speed>26.758863</gpxtpx:speed></gpxtpx:TrackPointExtension></extensions><geoidheight>-19.3</geoidheight><src>gps</src><sat>13</sat><hdop>0.86</hdop><vdop>1.11</vdop><pdop>1.40</pdop><dgpsid>0000</dgpsid></trkpt>
<trkpt lat="44.215749833333334" lon="-117.15225749999999"><ele>871.0</ele><time>2026-05-24T22:55:26.000Z</time><extensions><gpxtpx:TrackPointExtension><gpxtpx:bearing>343.5</gpxtpx:bearing><gpxtpx:speed>23.07963</gpxtpx:speed></gpxtpx:TrackPointExtension></extensions><geoidheight>-19.3</geoidheight><src>gps</src><sat>13</sat><hdop>0.85</hdop><vdop>1.11</vdop><pdop>1.40</pdop><dgpsid>0000</dgpsid></trkpt>
<trkpt lat="44.21784883333333" lon="-117.15292583333333"><ele>881.8</ele><time>2026-05-24T22:55:37.000Z</time><extensions><gpxtpx:TrackPointExtension><gpxtpx:bearing>350.23</gpxtpx:bearing><gpxtpx:speed>21.146334</gpxtpx:speed></gpxtpx:TrackPointExtension></extensions><geoidheight>-19.3</geoidheight><src>gps</src><sat>13</sat><hdop>0.81</hdop><vdop>1.07</vdop><pdop>1.34</pdop><dgpsid>0000</dgpsid></trkpt>
<trkpt lat="44.21991849999999" lon="-117.15343333333334"><ele>888.7</ele><time>2026-05-24T22:55:48.000Z</time><extensions><gpxtpx:TrackPointExtension><gpxtpx:bearing>344.28</gpxtpx:bearing><gpxtpx:speed>21.712013</gpxtpx:speed></gpxtpx:TrackPointExtension></extensions><geoidheight>-19.3</geoidheight><src>gps</src><sat>13</sat><hdop>0.81</hdop><vdop>1.07</vdop><pdop>1.34</pdop><dgpsid>0000</dgpsid></trkpt>
<trkpt lat="44.221892499999996" lon="-117.15484766666665"><ele>889.0</ele><time>2026-05-24T22:55:59.000Z</time><extensions><gpxtpx:TrackPointExtension><gpxtpx:bearing>321.03</gpxtpx:bearing><gpxtpx:speed>23.96135</gpxtpx:speed></gpxtpx:TrackPointExtension></extensions><geoidheight>-19.3</geoidheight><src>gps</src><sat>13</sat><hdop>0.81</hdop><vdop>1.07</vdop><pdop>1.34</pdop><dgpsid>0000</dgpsid></trkpt>
<trkpt lat="44.22339133333333" lon="-117.15752266666665"><ele>884.1</ele><time>2026-05-24T22:56:10.000Z</time><extensions><gpxtpx:TrackPointExtension><gpxtpx:bearing>298.04</gpxtpx:bearing><gpxtpx:speed>25.31404</gpxtpx:speed></gpxtpx:TrackPointExtension></extensions><geoidheight>-19.3</geoidheight><src>gps</src><sat>13</sat><hdop>0.97</hdop><vdop>1.24</vdop><pdop>1.58</pdop><dgpsid>0000</dgpsid></trkpt>
<trkpt lat="44.224681833333335" lon="-117.16059283333334"><ele>871.2</ele><time>2026-05-24T22:56:21.000Z</time><extensions><gpxtpx:TrackPointExtension><gpxtpx:bearing>304.2</gpxtpx:bearing><gpxtpx:speed>26.639448</gpxtpx:speed></gpxtpx:TrackPointExtension></extensions><geoidheight>-19.3</geoidheight><src>gps</src><sat>12</sat><hdop>0.81</hdop><vdop>1.07</vdop><pdop>1.34</pdop><dgpsid>0000</dgpsid></trkpt>
<trkpt lat="44.22644333333333" lon="-117.1634375"><ele>854.7</ele><time>2026-05-24T22:56:32.000Z</time><extensions><gpxtpx:TrackPointExtension><gpxtpx:bearing>316.07</gpxtpx:bearing><gpxtpx:speed>28.237146</gpxtpx:speed></gpxtpx:TrackPointExtension></extensions><geoidheight>-19.3</geoidheight><src>gps</src><sat>13</sat><hdop>0.85</hdop><vdop>1.11</vdop><pdop>1.40</pdop><dgpsid>0000</dgpsid></trkpt>
<trkpt lat="44.22870833333333" lon="-117.16586533333333"><ele>838.6</ele><time>2026-05-24T22:56:43.000Z</time><extensions><gpxtpx:TrackPointExtension><gpxtpx:bearing>328.07</gpxtpx:bearing><gpxtpx:speed>29.514172</gpxtpx:speed></gpxtpx:TrackPointExtension></extensions><geoidheight>-19.3</geoidheight><src>gps</src><sat>12</sat><hdop>0.85</hdop><vdop>1.11</vdop><pdop>1.40</pdop><dgpsid>0000</dgpsid></trkpt>
<trkpt lat="44.23136983333334" lon="-117.16769350000001"><ele>821.5</ele><time>2026-05-24T22:56:54.000Z</time><extensions><gpxtpx:TrackPointExtension><gpxtpx:bearing>336.54</gpxtpx:bearing><gpxtpx:speed>30.343904</gpxtpx:speed></gpxtpx:TrackPointExtension></extensions><geoidheight>-19.3</geoidheight><src>gps</src><sat>13</sat><hdop>0.85</hdop><vdop>1.11</vdop><pdop>1.40</pdop><dgpsid>0000</dgpsid></trkpt>
<trkpt lat="44.234106999999995" lon="-117.16941516666665"><ele>805.4</ele><time>2026-05-24T22:57:05.000Z</time><extensions><gpxtpx:TrackPointExtension><gpxtpx:bearing>335.72</gpxtpx:bearing><gpxtpx:speed>29.75043</gpxtpx:speed></gpxtpx:TrackPointExtension></extensions><geoidheight>-19.3</geoidheight><src>gps</src><sat>12</sat><hdop>0.85</hdop><vdop>1.12</vdop><pdop>1.40</pdop><dgpsid>0000</dgpsid></trkpt>
<trkpt lat="44.236817" lon="-117.17107349999999"><ele>789.3</ele><time>2026-05-24T22:57:16.000Z</time><extensions><gpxtpx:TrackPointExtension><gpxtpx:bearing>335.97</gpxtpx:bearing><gpxtpx:speed>28.884666</gpxtpx:speed></gpxtpx:TrackPointExtension></extensions><geoidheight>-19.3</geoidheight><src>gps</src><sat>13</sat><hdop>0.85</hdop><vdop>1.12</vdop><pdop>1.40</pdop><dgpsid>0000</dgpsid></trkpt>
<trkpt lat="44.239400833333335" lon="-117.17264183333333"><ele>773.8</ele><time>2026-05-24T22:57:27.000Z</time><extensions><gpxtpx:TrackPointExtension><gpxtpx:bearing>336.4</gpxtpx:bearing><gpxtpx:speed>28.975773</gpxtpx:speed></gpxtpx:TrackPointExtension></extensions><geoidheight>-19.3</geoidheight><src>gps</src><sat>13</sat><hdop>0.80</hdop><vdop>1.07</vdop><pdop>1.34</pdop><dgpsid>0000</dgpsid></trkpt>
<trkpt lat="44.241988000000006" lon="-117.1742285"><ele>758.3</ele><time>2026-05-24T22:57:38.000Z</time><extensions><gpxtpx:TrackPointExtension><gpxtpx:bearing>336.0</gpxtpx:bearing><gpxtpx:speed>27.408443</gpxtpx:speed></gpxtpx:TrackPointExtension></extensions><geoidheight>-19.3</geoidheight><src>gps</src><sat>13</sat><hdop>0.85</hdop><vdop>1.12</vdop><pdop>1.40</pdop><dgpsid>0000</dgpsid></trkpt>
<trkpt lat="44.24444783333333" lon="-117.175726"><ele>743.6</ele><time>2026-05-24T22:57:49.000Z</time><extensions><gpxtpx:TrackPointExtension><gpxtpx:bearing>336.88</gpxtpx:bearing><gpxtpx:speed>27.648819</gpxtpx:speed></gpxtpx:TrackPointExtension></extensions><geoidheight>-19.3</geoidheight><src>gps</src><sat>13</sat><hdop>0.85</hdop><vdop>1.12</vdop><pdop>1.40</pdop><dgpsid>0000</dgpsid></trkpt>
<trkpt lat="44.24697716666666" lon="-117.17667949999999"><ele>727.8</ele><time>2026-05-24T22:58:00.000Z</time><extensions><gpxtpx:TrackPointExtension><gpxtpx:bearing>353.69</gpxtpx:bearing><gpxtpx:speed>26.192669</gpxtpx:speed></gpxtpx:TrackPointExtension></extensions><geoidheight>-19.3</geoidheight><src>gps</src><sat>12</sat><hdop>0.80</hdop><vdop>1.07</vdop><pdop>1.34</pdop><dgpsid>0000</dgpsid></trkpt>
<trkpt lat="44.24958616666666" lon="-117.17652916666665"><ele>712.2</ele><time>2026-05-24T22:58:11.000Z</time><extensions><gpxtpx:TrackPointExtension><gpxtpx:bearing>6.53</gpxtpx:bearing><gpxtpx:speed>24.953733</gpxtpx:speed></gpxtpx:TrackPointExtension></extensions><geoidheight>-19.3</geoidheight><src>gps</src><sat>13</sat><hdop>0.84</hdop><vdop>1.07</vdop><pdop>1.36</pdop><dgpsid>0000</dgpsid></trkpt>
<trkpt lat="44.252053833333335" lon="-117.1761485"><ele>697.9</ele><time>2026-05-24T22:58:22.000Z</time><extensions><gpxtpx:TrackPointExtension><gpxtpx:bearing>6.31</gpxtpx:bearing><gpxtpx:speed>25.22808</gpxtpx:speed></gpxtpx:TrackPointExtension></extensions><geoidheight>-19.3</geoidheight><src>gps</src><sat>12</sat><hdop>0.84</hdop><vdop>1.07</vdop><pdop>1.36</pdop><dgpsid>0000</dgpsid></trkpt>
<trkpt lat="44.25456916666667" lon="-117.17586933333332"><ele>683.8</ele><time>2026-05-24T22:58:33.000Z</time><extensions><gpxtpx:TrackPointExtension><gpxtpx:bearing>358.32</gpxtpx:bearing><gpxtpx:speed>25.014471</gpxtpx:speed></gpxtpx:TrackPointExtension></extensions><geoidheight>-19.3</geoidheight><src>gps</src><sat>12</sat><hdop>0.85</hdop><vdop>1.12</vdop><pdop>1.40</pdop><dgpsid>0000</dgpsid></trkpt>
<trkpt lat="44.256805166666666" lon="-117.17674916666668"><ele>670.7</ele><time>2026-05-24T22:58:44.000Z</time><extensions><gpxtpx:TrackPointExtension><gpxtpx:bearing>330.58</gpxtpx:bearing><gpxtpx:speed>23.226326</gpxtpx:speed></gpxtpx:TrackPointExtension></extensions><geoidheight>-19.3</geoidheight><src>gps</src><sat>13</sat><hdop>0.80</hdop><vdop>1.07</vdop><pdop>1.33</pdop><dgpsid>0000</dgpsid></trkpt>
<trkpt lat="44.25851833333333" lon="-117.17902633333333"><ele>658.3</ele><time>2026-05-24T22:58:55.000Z</time><extensions><gpxtpx:TrackPointExtension><gpxtpx:bearing>310.32</gpxtpx:bearing><gpxtpx:speed>24.63615</gpxtpx:speed></gpxtpx:TrackPointExtension></extensions><geoidheight>-19.3</geoidheight><src>gps</src><sat>13</sat><hdop>0.80</hdop><vdop>1.07</vdop><pdop>1.33</pdop><dgpsid>0000</dgpsid></trkpt>
<trkpt lat="44.26006616666667" lon="-117.18153183333334"><ele>648.0</ele><time>2026-05-24T22:59:06.000Z</time><extensions><gpxtpx:TrackPointExtension><gpxtpx:bearing>310.43</gpxtpx:bearing><gpxtpx:speed>24.151796</gpxtpx:speed></gpxtpx:TrackPointExtension></extensions><geoidheight>-19.3</geoidheight><src>gps</src><sat>13</sat><hdop>0.80</hdop><vdop>1.07</vdop><pdop>1.33</pdop><dgpsid>0000</dgpsid></trkpt>
<trkpt lat="44.26147733333334" lon="-117.1840665"><ele>646.7</ele><time>2026-05-24T22:59:17.000Z</time><extensions><gpxtpx:TrackPointExtension><gpxtpx:bearing>301.26</gpxtpx:bearing><gpxtpx:speed>23.295813</gpxtpx:speed></gpxtpx:TrackPointExtension></extensions><geoidheight>-19.3</geoidheight><src>gps</src><sat>13</sat><hdop>0.98</hdop><vdop>1.25</vdop><pdop>1.59</pdop><dgpsid>0000</dgpsid></trkpt>
<trkpt lat="44.262511499999995" lon="-117.187164"><ele>647.5</ele><time>2026-05-24T22:59:28.000Z</time><extensions><gpxtpx:TrackPointExtension><gpxtpx:bearing>291.88</gpxtpx:bearing><gpxtpx:speed>26.056269</gpxtpx:speed></gpxtpx:TrackPointExtension></extensions><geoidheight>-19.3</geoidheight><src>gps</src><sat>13</sat><hdop>0.80</hdop><vdop>1.07</vdop><pdop>1.33</pdop><dgpsid>0000</dgpsid></trkpt>
<trkpt lat="44.2635555" lon="-117.19027400000002"><ele>649.0</ele><time>2026-05-24T22:59:39.000Z</time><extensions><gpxtpx:TrackPointExtension><gpxtpx:bearing>302.28</gpxtpx:bearing><gpxtpx:speed>24.315992</gpxtpx:speed></gpxtpx:TrackPointExtension></extensions><geoidheight>-19.3</geoidheight><src>gps</src><sat>13</sat><hdop>0.84</hdop><vdop>1.08</vdop><pdop>1.37</pdop><dgpsid>0000</dgpsid></trkpt>
<trkpt lat="44.265201833333336" lon="-117.19259249999999"><ele>647.3</ele><time>2026-05-24T22:59:50.000Z</time><extensions><gpxtpx:TrackPointExtension><gpxtpx:bearing>325.24</gpxtpx:bearing><gpxtpx:speed>23.737444</gpxtpx:speed></gpxtpx:TrackPointExtension></extensions><geoidheight>-19.3</geoidheight><src>gps</src><sat>13</sat><hdop>0.84</hdop><vdop>1.12</vdop><pdop>1.40</pdop><dgpsid>0000</dgpsid></trkpt>
<trkpt lat="44.267237666666674" lon="-117.19428633333334"><ele>650.3</ele><time>2026-05-24T23:00:01.000Z</time><extensions><gpxtpx:TrackPointExtension><gpxtpx:bearing>328.53</gpxtpx:bearing><gpxtpx:speed>24.184738</gpxtpx:speed></gpxtpx:TrackPointExtension></extensions><geoidheight>-19.3</geoidheight><src>gps</src><sat>13</sat><hdop>0.80</hdop><vdop>1.06</vdop><pdop>1.33</pdop><dgpsid>0000</dgpsid></trkpt>
<trkpt lat="44.26907166666667" lon="-117.19650099999998"><ele>652.6</ele><time>2026-05-24T23:00:12.000Z</time><extensions><gpxtpx:TrackPointExtension><gpxtpx:bearing>308.57</gpxtpx:bearing><gpxtpx:speed>25.260508</gpxtpx:speed></gpxtpx:TrackPointExtension></extensions><geoidheight>-19.3</geoidheight><src>gps</src><sat>13</sat><hdop>0.80</hdop><vdop>1.06</vdop><pdop>1.33</pdop><dgpsid>0000</dgpsid></trkpt>
<trkpt lat="44.27025033333333" lon="-117.19944383333335"><ele>655.4</ele><time>2026-05-24T23:00:23.000Z</time><extensions><gpxtpx:TrackPointExtension><gpxtpx:bearing>293.95</gpxtpx:bearing><gpxtpx:speed>23.029186</gpxtpx:speed></gpxtpx:TrackPointExtension></extensions><geoidheight>-19.3</geoidheight><src>gps</src><sat>13</sat><hdop>0.83</hdop><vdop>1.08</vdop><pdop>1.36</pdop><dgpsid>0000</dgpsid></trkpt>
<trkpt lat="44.27134850000001" lon="-117.20208216666667"><ele>656.1</ele><time>2026-05-24T23:00:34.000Z</time><extensions><gpxtpx:TrackPointExtension><gpxtpx:bearing>308.65</gpxtpx:bearing><gpxtpx:speed>22.598364</gpxtpx:speed></gpxtpx:TrackPointExtension></extensions><geoidheight>-19.3</geoidheight><src>gps</src><sat>13</sat><hdop>0.93</hdop><vdop>1.18</vdop><pdop>1.50</pdop><dgpsid>0000</dgpsid></trkpt>
<trkpt lat="44.27298883333333" lon="-117.20420016666667"><ele>653.8</ele><time>2026-05-24T23:00:45.000Z</time><extensions><gpxtpx:TrackPointExtension><gpxtpx:bearing>320.92</gpxtpx:bearing><gpxtpx:speed>23.174854</gpxtpx:speed></gpxtpx:TrackPointExtension></extensions><geoidheight>-19.3</geoidheight><src>gps</src><sat>13</sat><hdop>0.93</hdop><vdop>1.18</vdop><pdop>1.50</pdop><dgpsid>0000</dgpsid></trkpt>
<trkpt lat="44.27481850000001" lon="-117.20622233333333"><ele>652.4</ele><time>2026-05-24T23:00:56.000Z</time><extensions><gpxtpx:TrackPointExtension><gpxtpx:bearing>322.59</gpxtpx:bearing><gpxtpx:speed>23.934584</gpxtpx:speed></gpxtpx:TrackPointExtension></extensions><geoidheight>-19.3</geoidheight><src>gps</src><sat>13</sat><hdop>0.93</hdop><vdop>1.18</vdop><pdop>1.50</pdop><dgpsid>0000</dgpsid></trkpt>
<trkpt lat="44.27694966666666" lon="-117.2079845"><ele>653.8</ele><time>2026-05-24T23:01:07.000Z</time><extensions><gpxtpx:TrackPointExtension><gpxtpx:bearing>336.35</gpxtpx:bearing><gpxtpx:speed>25.688242</gpxtpx:speed></gpxtpx:TrackPointExtension></extensions><geoidheight>-19.3</geoidheight><src>gps</src><sat>13</sat><hdop>0.82</hdop><vdop>1.09</vdop><pdop>1.36</pdop><dgpsid>0000</dgpsid></trkpt>
<trkpt lat="44.2793435" lon="-117.20935400000002"><ele>654.2</ele><time>2026-05-24T23:01:18.000Z</time><extensions><gpxtpx:TrackPointExtension><gpxtpx:bearing>335.19</gpxtpx:bearing><gpxtpx:speed>26.521578</gpxtpx:speed></gpxtpx:TrackPointExtension></extensions><geoidheight>-19.3</geoidheight><src>gps</src><sat>12</sat><hdop>0.80</hdop><vdop>1.06</vdop><pdop>1.33</pdop><dgpsid>0000</dgpsid></trkpt>
<trkpt lat="44.281623999999994" lon="-117.21115433333334"><ele>657.8</ele><time>2026-05-24T23:01:29.000Z</time><extensions><gpxtpx:TrackPointExtension><gpxtpx:bearing>325.69</gpxtpx:bearing><gpxtpx:speed>27.080566</gpxtpx:speed></gpxtpx:TrackPointExtension></extensions><geoidheight>-19.3</geoidheight><src>gps</src><sat>13</sat><hdop>0.82</hdop><vdop>1.09</vdop><pdop>1.36</pdop><dgpsid>0000</dgpsid></trkpt>
<trkpt lat="44.283673" lon="-117.21347383333332"><ele>658.2</ele><time>2026-05-24T23:01:40.000Z</time><extensions><gpxtpx:TrackPointExtension><gpxtpx:bearing>316.11</gpxtpx:bearing><gpxtpx:speed>26.618345</gpxtpx:speed></gpxtpx:TrackPointExtension></extensions><geoidheight>-19.3</geoidheight><src>gps</src><sat>12</sat><hdop>0.84</hdop><vdop>1.16</vdop><pdop>1.43</pdop><dgpsid>0000</dgpsid></trkpt>
<trkpt lat="44.285439333333336" lon="-117.21619566666668"><ele>654.8</ele><time>2026-05-24T23:01:51.000Z</time><extensions><gpxtpx:TrackPointExtension><gpxtpx:bearing>309.7</gpxtpx:bearing><gpxtpx:speed>26.821146</gpxtpx:speed></gpxtpx:TrackPointExtension></extensions><geoidheight>-19.3</geoidheight><src>gps</src><sat>12</sat><hdop>0.79</hdop><vdop>1.06</vdop><pdop>1.32</pdop><dgpsid>0000</dgpsid></trkpt>
<trkpt lat="44.2869995" lon="-117.21874883333334"><ele>652.6</ele><time>2026-05-24T23:02:02.000Z</time><extensions><gpxtpx:TrackPointExtension><gpxtpx:bearing>310.78</gpxtpx:bearing><gpxtpx:speed>18.163517</gpxtpx:speed></gpxtpx:TrackPointExtension></extensions><geoidheight>-19.3</geoidheight><src>gps</src><sat>13</sat><hdop>0.69</hdop><vdop>0.88</vdop><pdop>1.12</pdop><dgpsid>0000</dgpsid></trkpt>
<trkpt lat="44.288074333333334" lon="-117.22008466666666"><ele>652.5</ele><time>2026-05-24T23:02:13.000Z</time><extensions><gpxtpx:TrackPointExtension><gpxtpx:bearing>319.53</gpxtpx:bearing><gpxtpx:speed>13.872793</gpxtpx:speed></gpxtpx:TrackPointExtension></extensions><geoidheight>-19.3</geoidheight><src>gps</src><sat>14</sat><hdop>0.69</hdop><vdop>0.88</vdop><pdop>1.12</pdop><dgpsid>0000</dgpsid></trkpt>
<trkpt lat="44.28919899999999" lon="-117.22122216666666"><ele>650.3</ele><time>2026-05-24T23:02:24.000Z</time><extensions><gpxtpx:TrackPointExtension><gpxtpx:bearing>329.8</gpxtpx:bearing><gpxtpx:speed>14.280968</gpxtpx:speed></gpxtpx:TrackPointExtension></extensions><geoidheight>-19.3</geoidheight><src>gps</src><sat>14</sat><hdop>0.69</hdop><vdop>0.88</vdop><pdop>1.12</pdop><dgpsid>0000</dgpsid></trkpt>
<trkpt lat="44.290468" lon="-117.22199216666668"><ele>647.2</ele><time>2026-05-24T23:02:35.000Z</time><extensions><gpxtpx:TrackPointExtension><gpxtpx:bearing>339.85</gpxtpx:bearing><gpxtpx:speed>13.036884</gpxtpx:speed></gpxtpx:TrackPointExtension></extensions><geoidheight>-19.3</geoidheight><src>gps</src><sat>14</sat><hdop>0.69</hdop><vdop>0.88</vdop><pdop>1.12</pdop><dgpsid>0000</dgpsid></trkpt>
<trkpt lat="44.29121383333333" lon="-117.22236133333332"><ele>646.0</ele><time>2026-05-24T23:02:46.000Z</time><extensions><gpxtpx:TrackPointExtension><gpxtpx:bearing>340.13</gpxtpx:bearing><gpxtpx:speed>3.1634827</gpxtpx:speed></gpxtpx:TrackPointExtension></extensions><geoidheight>-19.3</geoidheight><src>gps</src><sat>14</sat><hdop>0.69</hdop><vdop>0.88</vdop><pdop>1.12</pdop><dgpsid>0000</dgpsid></trkpt>
<trkpt lat="44.29156683333334" lon="-117.22255116666665"><ele>645.7</ele><time>2026-05-24T23:02:57.000Z</time><extensions><gpxtpx:TrackPointExtension><gpxtpx:bearing>336.8</gpxtpx:bearing><gpxtpx:speed>6.16174</gpxtpx:speed></gpxtpx:TrackPointExtension></extensions><geoidheight>-19.3</geoidheight><src>gps</src><sat>14</sat><hdop>0.69</hdop><vdop>0.88</vdop><pdop>1.12</pdop><dgpsid>0000</dgpsid></trkpt>
<trkpt lat="44.29242033333333" lon="-117.223016"><ele>645.6</ele><time>2026-05-24T23:03:08.000Z</time><extensions><gpxtpx:TrackPointExtension><gpxtpx:bearing>339.83</gpxtpx:bearing><gpxtpx:speed>12.282302</gpxtpx:speed></gpxtpx:TrackPointExtension></extensions><geoidheight>-19.3</geoidheight><src>gps</src><sat>14</sat><hdop>0.79</hdop><vdop>1.05</vdop><pdop>1.32</pdop><dgpsid>0000</dgpsid></trkpt>
<trkpt lat="44.29360783333333" lon="-117.22362066666668"><ele>644.9</ele><time>2026-05-24T23:03:19.000Z</time><extensions><gpxtpx:TrackPointExtension><gpxtpx:bearing>340.04</gpxtpx:bearing><gpxtpx:speed>11.888539</gpxtpx:speed></gpxtpx:TrackPointExtension></extensions><geoidheight>-19.3</geoidheight><src>gps</src><sat>14</sat><hdop>0.83</hdop><vdop>1.12</vdop><pdop>1.39</pdop><dgpsid>0000</dgpsid></trkpt>
<trkpt lat="44.29470933333334" lon="-117.22418100000002"><ele>643.9</ele><time>2026-05-24T23:03:30.000Z</time><extensions><gpxtpx:TrackPointExtension><gpxtpx:bearing>339.47</gpxtpx:bearing><gpxtpx:speed>12.586502</gpxtpx:speed></gpxtpx:TrackPointExtension></extensions><geoidheight>-19.3</geoidheight><src>gps</src><sat>14</sat><hdop>0.79</hdop><vdop>1.05</vdop><pdop>1.32</pdop><dgpsid>0000</dgpsid></trkpt>
<trkpt lat="44.29604266666667" lon="-117.22488"><ele>642.7</ele><time>2026-05-24T23:03:41.000Z</time><extensions><gpxtpx:TrackPointExtension><gpxtpx:bearing>339.59</gpxtpx:bearing><gpxtpx:speed>16.201397</gpxtpx:speed></gpxtpx:TrackPointExtension></extensions><geoidheight>-19.3</geoidheight><src>gps</src><sat>14</sat><hdop>0.79</hdop><vdop>1.05</vdop><pdop>1.32</pdop><dgpsid>0000</dgpsid></trkpt>
<trkpt lat="44.297659833333334" lon="-117.22571500000001"><ele>641.6</ele><time>2026-05-24T23:03:52.000Z</time><extensions><gpxtpx:TrackPointExtension><gpxtpx:bearing>339.62</gpxtpx:bearing><gpxtpx:speed>18.229918</gpxtpx:speed></gpxtpx:TrackPointExtension></extensions><geoidheight>-19.3</geoidheight><src>gps</src><sat>14</sat><hdop>0.73</hdop><vdop>0.96</vdop><pdop>1.21</pdop><dgpsid>0000</dgpsid></trkpt>
<trkpt lat="44.299296500000004" lon="-117.22656033333332"><ele>640.7</ele><time>2026-05-24T23:04:03.000Z</time><extensions><gpxtpx:TrackPointExtension><gpxtpx:bearing>341.06</gpxtpx:bearing><gpxtpx:speed>17.244225</gpxtpx:speed></gpxtpx:TrackPointExtension></extensions><geoidheight>-19.3</geoidheight><src>gps</src><sat>14</sat><hdop>0.69</hdop><vdop>0.89</vdop><pdop>1.12</pdop><dgpsid>0000</dgpsid></trkpt>
<trkpt lat="44.30099366666666" lon="-117.22708583333333"><ele>639.6</ele><time>2026-05-24T23:04:14.000Z</time><extensions><gpxtpx:TrackPointExtension><gpxtpx:bearing>350.37</gpxtpx:bearing><gpxtpx:speed>17.587543</gpxtpx:speed></gpxtpx:TrackPointExtension></extensions><geoidheight>-19.3</geoidheight><src>gps</src><sat>14</sat><hdop>0.79</hdop><vdop>1.05</vdop><pdop>1.31</pdop><dgpsid>0000</dgpsid></trkpt>
<trkpt lat="44.302626499999995" lon="-117.22745783333333"><ele>639.0</ele><time>2026-05-24T23:04:25.000Z</time><extensions><gpxtpx:TrackPointExtension><gpxtpx:bearing>350.79</gpxtpx:bearing><gpxtpx:speed>15.592995</gpxtpx:speed></gpxtpx:TrackPointExtension></extensions><geoidheight>-19.3</geoidheight><src>gps</src><sat>13</sat><hdop>0.72</hdop><vdop>1.03</vdop><pdop>1.25</pdop><dgpsid>0000</dgpsid></trkpt>
<trkpt lat="44.30346883333333" lon="-117.22753816666666"><ele>639.3</ele><time>2026-05-24T23:04:36.000Z</time><extensions><gpxtpx:TrackPointExtension><gpxtpx:bearing>23.26</gpxtpx:bearing><gpxtpx:speed>2.6765556</gpxtpx:speed></gpxtpx:TrackPointExtension></extensions><geoidheight>-19.3</geoidheight><src>gps</src><sat>13</sat><hdop>0.71</hdop><vdop>0.89</vdop><pdop>1.13</pdop><dgpsid>0000</dgpsid></trkpt>
<trkpt lat="44.30371566666666" lon="-117.22725616666666"><ele>639.8</ele><time>2026-05-24T23:04:47.000Z</time><extensions><gpxtpx:TrackPointExtension><gpxtpx:bearing>359.94</gpxtpx:bearing><gpxtpx:speed>4.70662</gpxtpx:speed></gpxtpx:TrackPointExtension></extensions><geoidheight>-19.3</geoidheight><src>gps</src><sat>13</sat><hdop>0.79</hdop><vdop>1.05</vdop><pdop>1.31</pdop><dgpsid>0000</dgpsid></trkpt>
<trkpt lat="44.30444883333333" lon="-117.22722116666667"><ele>640.6</ele><time>2026-05-24T23:04:58.000Z</time><extensions><gpxtpx:TrackPointExtension><gpxtpx:bearing>9.78</gpxtpx:bearing><gpxtpx:speed>9.454418</gpxtpx:speed></gpxtpx:TrackPointExtension></extensions><geoidheight>-19.3</geoidheight><src>gps</src><sat>14</sat><hdop>0.69</hdop><vdop>0.89</vdop><pdop>1.12</pdop><dgpsid>0000</dgpsid></trkpt>
<trkpt lat="44.30526016666666" lon="-117.22680816666667"><ele>643.0</ele><time>2026-05-24T23:05:09.000Z</time><extensions><gpxtpx:TrackPointExtension><gpxtpx:bearing>29.46</gpxtpx:bearing><gpxtpx:speed>8.092978</gpxtpx:speed></gpxtpx:TrackPointExtension></extensions><geoidheight>-19.3</geoidheight><src>gps</src><sat>14</sat><hdop>0.83</hdop><vdop>1.11</vdop><pdop>1.39</pdop><dgpsid>0000</dgpsid></trkpt>
<trkpt lat="44.30575233333334" lon="-117.22633833333333"><ele>644.7</ele><time>2026-05-24T23:05:20.000Z</time><extensions><gpxtpx:TrackPointExtension><gpxtpx:bearing>44.01</gpxtpx:bearing><gpxtpx:speed>1.899325</gpxtpx:speed></gpxtpx:TrackPointExtension></extensions><geoidheight>-19.3</geoidheight><src>gps</src><sat>14</sat><hdop>0.72</hdop><vdop>1.02</vdop><pdop>1.25</pdop><dgpsid>0000</dgpsid></trkpt>
<trkpt lat="44.30607733333333" lon="-117.22589216666665"><ele>644.1</ele><time>2026-05-24T23:05:31.000Z</time><extensions><gpxtpx:TrackPointExtension><gpxtpx:bearing>45.89</gpxtpx:bearing><gpxtpx:speed>7.206111</gpxtpx:speed></gpxtpx:TrackPointExtension></extensions><geoidheight>-19.3</geoidheight><src>gps</src><sat>14</sat><hdop>0.82</hdop><vdop>1.11</vdop><pdop>1.38</pdop><dgpsid>0000</dgpsid></trkpt>
<trkpt lat="44.306553666666666" lon="-117.2251805"><ele>643.4</ele><time>2026-05-24T23:05:42.000Z</time><extensions><gpxtpx:TrackPointExtension><gpxtpx:bearing>47.76</gpxtpx:bearing><gpxtpx:speed>5.7762127</gpxtpx:speed></gpxtpx:TrackPointExtension></extensions><geoidheight>-19.3</geoidheight><src>gps</src><sat>13</sat><hdop>0.81</hdop><vdop>1.15</vdop><pdop>1.40</pdop><dgpsid>0000</dgpsid></trkpt>
<trkpt lat="44.3068585" lon="-117.22469216666666"><ele>649.0</ele><time>2026-05-24T23:05:53.000Z</time><extensions><gpxtpx:TrackPointExtension><gpxtpx:bearing>50.11</gpxtpx:bearing><gpxtpx:speed>5.0741315</gpxtpx:speed></gpxtpx:TrackPointExtension></extensions><geoidheight>-19.3</geoidheight><src>gps</src><sat>14</sat><hdop>0.78</hdop><vdop>1.04</vdop><pdop>1.31</pdop><dgpsid>0000</dgpsid></trkpt>
<trkpt lat="44.30713433333334" lon="-117.22414783333333"><ele>653.9</ele><time>2026-05-24T23:06:04.000Z</time><extensions><gpxtpx:TrackPointExtension><gpxtpx:bearing>53.34</gpxtpx:bearing><gpxtpx:speed>3.2324555</gpxtpx:speed></gpxtpx:TrackPointExtension></extensions><geoidheight>-19.3</geoidheight><src>gps</src><sat>14</sat><hdop>0.78</hdop><vdop>1.04</vdop><pdop>1.30</pdop><dgpsid>0000</dgpsid></trkpt>
<trkpt lat="44.30719466666666" lon="-117.22404883333333"><ele>654.9</ele><time>2026-05-24T23:06:15.000Z</time><extensions><gpxtpx:TrackPointExtension><gpxtpx:speed>0.08235556</gpxtpx:speed></gpxtpx:TrackPointExtension></extensions><geoidheight>-19.3</geoidheight><src>gps</src><sat>14</sat><hdop>0.67</hdop><vdop>0.89</vdop><pdop>1.11</pdop><dgpsid>0000</dgpsid></trkpt>
<trkpt lat="44.30723266666667" lon="-117.22398833333334"><ele>656.8</ele><time>2026-05-24T23:06:26.000Z</time><extensions><gpxtpx:TrackPointExtension><gpxtpx:bearing>39.71</gpxtpx:bearing><gpxtpx:speed>1.256437</gpxtpx:speed></gpxtpx:TrackPointExtension></extensions><geoidheight>-19.3</geoidheight><src>gps</src><sat>14</sat><hdop>0.71</hdop><vdop>0.90</vdop><pdop>1.14</pdop><dgpsid>0000</dgpsid></trkpt>
<trkpt lat="44.30746316666667" lon="-117.2239175"><ele>654.3</ele><time>2026-05-24T23:06:37.000Z</time><extensions><gpxtpx:TrackPointExtension><gpxtpx:bearing>342.41</gpxtpx:bearing><gpxtpx:speed>3.4697425</gpxtpx:speed></gpxtpx:TrackPointExtension></extensions><geoidheight>-19.3</geoidheight><src>gps</src><sat>14</sat><hdop>0.69</hdop><vdop>0.89</vdop><pdop>1.12</pdop><dgpsid>0000</dgpsid></trkpt>
<trkpt lat="44.30776000000001" lon="-117.22410933333335"><ele>650.3</ele><time>2026-05-24T23:06:48.000Z</time><extensions><gpxtpx:TrackPointExtension><gpxtpx:bearing>336.51</gpxtpx:bearing><gpxtpx:speed>3.4120936</gpxtpx:speed></gpxtpx:TrackPointExtension></extensions><geoidheight>-19.3</geoidheight><src>gps</src><sat>14</sat><hdop>0.65</hdop><vdop>0.89</vdop><pdop>1.10</pdop><dgpsid>0000</dgpsid></trkpt>
<trkpt lat="44.30803216666666" lon="-117.22427916666666"><ele>649.3</ele><time>2026-05-24T23:06:59.000Z</time><extensions><gpxtpx:TrackPointExtension><gpxtpx:bearing>332.96</gpxtpx:bearing><gpxtpx:speed>2.896342</gpxtpx:speed></gpxtpx:TrackPointExtension></extensions><geoidheight>-19.3</geoidheight><src>gps</src><sat>14</sat><hdop>0.69</hdop><vdop>0.89</vdop><pdop>1.12</pdop><dgpsid>0000</dgpsid></trkpt>
<trkpt lat="44.30829283333334" lon="-117.22443533333332"><ele>648.8</ele><time>2026-05-24T23:07:10.000Z</time><extensions><gpxtpx:TrackPointExtension><gpxtpx:bearing>353.92</gpxtpx:bearing><gpxtpx:speed>2.750161</gpxtpx:speed></gpxtpx:TrackPointExtension></extensions><geoidheight>-19.3</geoidheight><src>gps</src><sat>14</sat><hdop>0.69</hdop><vdop>0.89</vdop><pdop>1.12</pdop><dgpsid>0000</dgpsid></trkpt>
<trkpt lat="44.308524500000004" lon="-117.2242405"><ele>647.9</ele><time>2026-05-24T23:07:21.000Z</time><extensions><gpxtpx:TrackPointExtension><gpxtpx:bearing>47.46</gpxtpx:bearing><gpxtpx:speed>2.8181043</gpxtpx:speed></gpxtpx:TrackPointExtension></extensions><geoidheight>-19.3</geoidheight><src>gps</src><sat>14</sat><hdop>0.73</hdop><vdop>0.97</vdop><pdop>1.21</pdop><dgpsid>0000</dgpsid></trkpt>
<trkpt lat="44.308706833333325" lon="-117.22393016666668"><ele>647.6</ele><time>2026-05-24T23:07:32.000Z</time><extensions><gpxtpx:TrackPointExtension><gpxtpx:bearing>58.3</gpxtpx:bearing><gpxtpx:speed>2.420224</gpxtpx:speed></gpxtpx:TrackPointExtension></extensions><geoidheight>-19.3</geoidheight><src>gps</src><sat>14</sat><hdop>0.71</hdop><vdop>0.94</vdop><pdop>1.17</pdop><dgpsid>0000</dgpsid></trkpt>
<trkpt lat="44.308776" lon="-117.22380183333334"><ele>650.5</ele><time>2026-05-24T23:07:43.000Z</time><extensions><gpxtpx:TrackPointExtension><gpxtpx:speed>0.07309055</gpxtpx:speed></gpxtpx:TrackPointExtension></extensions><geoidheight>-19.3</geoidheight><src>gps</src><sat>14</sat><hdop>0.84</hdop><vdop>1.14</vdop><pdop>1.42</pdop><dgpsid>0000</dgpsid></trkpt>
<trkpt lat="44.308795499999995" lon="-117.22363283333334"><ele>651.5</ele><time>2026-05-24T23:07:54.000Z</time><extensions><gpxtpx:TrackPointExtension><gpxtpx:bearing>98.75</gpxtpx:bearing><gpxtpx:speed>1.6723325</gpxtpx:speed></gpxtpx:TrackPointExtension></extensions><geoidheight>-19.3</geoidheight><src>gps</src><sat>14</sat><hdop>0.73</hdop><vdop>0.97</vdop><pdop>1.21</pdop><dgpsid>0000</dgpsid></trkpt>
<trkpt lat="44.3087485" lon="-117.22345066666666"><ele>648.8</ele><time>2026-05-24T23:08:05.000Z</time><extensions><gpxtpx:TrackPointExtension><gpxtpx:bearing>144.43</gpxtpx:bearing><gpxtpx:speed>1.8107928</gpxtpx:speed></gpxtpx:TrackPointExtension></extensions><geoidheight>-19.3</geoidheight><src>gps</src><sat>14</sat><hdop>0.80</hdop><vdop>1.04</vdop><pdop>1.31</pdop><dgpsid>0000</dgpsid></trkpt>
<trkpt lat="44.308519666666676" lon="-117.22325450000001"><ele>645.5</ele><time>2026-05-24T23:08:16.000Z</time><extensions><gpxtpx:TrackPointExtension><gpxtpx:bearing>148.83</gpxtpx:bearing><gpxtpx:speed>2.7547934</gpxtpx:speed></gpxtpx:TrackPointExtension></extensions><geoidheight>-19.3</geoidheight><src>gps</src><sat>14</sat><hdop>0.78</hdop><vdop>1.03</vdop><pdop>1.29</pdop><dgpsid>0000</dgpsid></trkpt>
<trkpt lat="44.308229" lon="-117.22303699999999"><ele>633.4</ele><time>2026-05-24T23:08:27.000Z</time><extensions><gpxtpx:TrackPointExtension><gpxtpx:bearing>152.01</gpxtpx:bearing><gpxtpx:speed>3.048185</gpxtpx:speed></gpxtpx:TrackPointExtension></extensions><geoidheight>-19.3</geoidheight><src>gps</src><sat>14</sat><hdop>0.81</hdop><vdop>1.11</vdop><pdop>1.37</pdop><dgpsid>0000</dgpsid></trkpt>
<trkpt lat="44.307883666666676" lon="-117.2228615"><ele>637.2</ele><time>2026-05-24T23:08:38.000Z</time><extensions><gpxtpx:TrackPointExtension><gpxtpx:bearing>191.02</gpxtpx:bearing><gpxtpx:speed>3.4470947</gpxtpx:speed></gpxtpx:TrackPointExtension></extensions><geoidheight>-19.3</geoidheight><src>gps</src><sat>14</sat><hdop>0.83</hdop><vdop>1.07</vdop><pdop>1.36</pdop><dgpsid>0000</dgpsid></trkpt>
<trkpt lat="44.30764683333334" lon="-117.22309666666666"><ele>640.8</ele><time>2026-05-24T23:08:49.000Z</time><extensions><gpxtpx:TrackPointExtension><gpxtpx:bearing>239.26</gpxtpx:bearing><gpxtpx:speed>2.6487606</gpxtpx:speed></gpxtpx:TrackPointExtension></extensions><geoidheight>-19.3</geoidheight><src>gps</src><sat>14</sat><hdop>0.70</hdop><vdop>0.90</vdop><pdop>1.14</pdop><dgpsid>0000</dgpsid></trkpt>
<trkpt lat="44.30754716666667" lon="-117.2232865"><ele>643.2</ele><time>2026-05-24T23:09:00.000Z</time><extensions><gpxtpx:TrackPointExtension><gpxtpx:bearing>248.93</gpxtpx:bearing><gpxtpx:speed>1.4160008</gpxtpx:speed></gpxtpx:TrackPointExtension></extensions><geoidheight>-19.3</geoidheight><src>gps</src><sat>13</sat><hdop>0.73</hdop><vdop>0.97</vdop><pdop>1.21</pdop><dgpsid>0000</dgpsid></trkpt>
<trkpt lat="44.30749433333334" lon="-117.22345616666668"><ele>644.7</ele><time>2026-05-24T23:09:11.000Z</time><extensions><gpxtpx:TrackPointExtension><gpxtpx:bearing>254.97</gpxtpx:bearing><gpxtpx:speed>1.1627575</gpxtpx:speed></gpxtpx:TrackPointExtension></extensions><geoidheight>-19.3</geoidheight><src>gps</src><sat>14</sat><hdop>0.68</hdop><vdop>0.89</vdop><pdop>1.12</pdop><dgpsid>0000</dgpsid></trkpt>
<trkpt lat="44.30744849999999" lon="-117.2236615"><ele>647.5</ele><time>2026-05-24T23:09:22.000Z</time><extensions><gpxtpx:TrackPointExtension><gpxtpx:bearing>256.64</gpxtpx:bearing><gpxtpx:speed>1.7428495</gpxtpx:speed></gpxtpx:TrackPointExtension></extensions><geoidheight>-19.3</geoidheight><src>gps</src><sat>14</sat><hdop>0.68</hdop><vdop>0.89</vdop><pdop>1.12</pdop><dgpsid>0000</dgpsid></trkpt>
<trkpt lat="44.30749466666666" lon="-117.223892"><ele>649.4</ele><time>2026-05-24T23:09:33.000Z</time><extensions><gpxtpx:TrackPointExtension><gpxtpx:bearing>334.04</gpxtpx:bearing><gpxtpx:speed>1.9199139</gpxtpx:speed></gpxtpx:TrackPointExtension></extensions><geoidheight>-19.3</geoidheight><src>gps</src><sat>14</sat><hdop>0.73</hdop><vdop>0.97</vdop><pdop>1.22</pdop><dgpsid>0000</dgpsid></trkpt>
<trkpt lat="44.30761183333334" lon="-117.2239545"><ele>647.6</ele><time>2026-05-24T23:09:44.000Z</time><extensions><gpxtpx:TrackPointExtension><gpxtpx:speed>0.027280279</gpxtpx:speed></gpxtpx:TrackPointExtension></extensions><geoidheight>-19.3</geoidheight><src>gps</src><sat>14</sat><hdop>0.68</hdop><vdop>0.89</vdop><pdop>1.12</pdop><dgpsid>0000</dgpsid></trkpt>
<trkpt lat="44.307610999999994" lon="-117.22404"><ele>646.5</ele><time>2026-05-24T23:12:07.000Z</time><extensions><gpxtpx:TrackPointExtension><gpxtpx:speed>0.028824445</gpxtpx:speed></gpxtpx:TrackPointExtension></extensions><geoidheight>-19.3</geoidheight><src>gps</src><sat>13</sat><hdop>0.75</hdop><vdop>1.00</vdop><pdop>1.25</pdop><dgpsid>0000</dgpsid></trkpt>
<trkpt lat="44.3076955" lon="-117.22409666666665"><ele>652.4</ele><time>2026-05-24T23:15:58.000Z</time><extensions><gpxtpx:TrackPointExtension><gpxtpx:bearing>327.36</gpxtpx:bearing><gpxtpx:speed>3.971082</gpxtpx:speed></gpxtpx:TrackPointExtension></extensions><geoidheight>-19.3</geoidheight><src>gps</src><sat>13</sat><hdop>0.98</hdop><vdop>1.39</vdop><pdop>1.70</pdop><dgpsid>0000</dgpsid></trkpt>
<trkpt lat="44.308041" lon="-117.22430816666669"><ele>651.3</ele><time>2026-05-24T23:16:09.000Z</time><extensions><gpxtpx:TrackPointExtension><gpxtpx:bearing>335.3</gpxtpx:bearing><gpxtpx:speed>3.5397446</gpxtpx:speed></gpxtpx:TrackPointExtension></extensions><geoidheight>-19.3</geoidheight><src>gps</src><sat>13</sat><hdop>0.72</hdop><vdop>0.98</vdop><pdop>1.22</pdop><dgpsid>0000</dgpsid></trkpt>
<trkpt lat="44.30835999999999" lon="-117.22445133333333"><ele>651.7</ele><time>2026-05-24T23:16:20.000Z</time><extensions><gpxtpx:TrackPointExtension><gpxtpx:bearing>1.54</gpxtpx:bearing><gpxtpx:speed>3.289075</gpxtpx:speed></gpxtpx:TrackPointExtension></extensions><geoidheight>-19.3</geoidheight><src>gps</src><sat>13</sat><hdop>0.72</hdop><vdop>0.98</vdop><pdop>1.22</pdop><dgpsid>0000</dgpsid></trkpt>
<trkpt lat="44.30859583333333" lon="-117.22415316666665"><ele>648.4</ele><time>2026-05-24T23:16:31.000Z</time><extensions><gpxtpx:TrackPointExtension><gpxtpx:bearing>61.43</gpxtpx:bearing><gpxtpx:speed>3.2710598</gpxtpx:speed></gpxtpx:TrackPointExtension></extensions><geoidheight>-19.3</geoidheight><src>gps</src><sat>13</sat><hdop>0.74</hdop><vdop>1.08</vdop><pdop>1.30</pdop><dgpsid>0000</dgpsid></trkpt>
<trkpt lat="44.30875133333334" lon="-117.22385616666666"><ele>648.0</ele><time>2026-05-24T23:16:42.000Z</time><extensions><gpxtpx:TrackPointExtension><gpxtpx:bearing>63.08</gpxtpx:bearing><gpxtpx:speed>1.7248342</gpxtpx:speed></gpxtpx:TrackPointExtension></extensions><geoidheight>-19.3</geoidheight><src>gps</src><sat>13</sat><hdop>0.74</hdop><vdop>1.08</vdop><pdop>1.30</pdop><dgpsid>0000</dgpsid></trkpt>
<trkpt lat="44.30878299999999" lon="-117.22371833333334"><ele>650.2</ele><time>2026-05-24T23:16:53.000Z</time><extensions><gpxtpx:TrackPointExtension><gpxtpx:speed>0.03911889</gpxtpx:speed></gpxtpx:TrackPointExtension></extensions><geoidheight>-19.3</geoidheight><src>gps</src><sat>13</sat><hdop>0.74</hdop><vdop>1.08</vdop><pdop>1.30</pdop><dgpsid>0000</dgpsid></trkpt>
<trkpt lat="44.30882" lon="-117.22383599999999"><ele>664.3</ele><time>2026-05-24T23:17:37.000Z</time><extensions><gpxtpx:TrackPointExtension><gpxtpx:speed>0.2851561</gpxtpx:speed></gpxtpx:TrackPointExtension></extensions><geoidheight>-19.3</geoidheight><src>gps</src><sat>13</sat><hdop>0.93</hdop><vdop>1.28</vdop><pdop>1.58</pdop><dgpsid>0000</dgpsid></trkpt>
<trkpt lat="44.308853" lon="-117.22388683333332"><ele>657.6</ele><time>2026-05-24T23:20:11.000Z</time><extensions><gpxtpx:TrackPointExtension><gpxtpx:speed>0.02573611</gpxtpx:speed></gpxtpx:TrackPointExtension></extensions><geoidheight>-19.3</geoidheight><src>gps</src><sat>13</sat><hdop>0.81</hdop><vdop>1.11</vdop><pdop>1.37</pdop><dgpsid>0000</dgpsid></trkpt>
<trkpt lat="44.308858166666674" lon="-117.22381633333335"><ele>673.0</ele><time>2026-05-24T23:22:45.000Z</time><extensions><gpxtpx:TrackPointExtension><gpxtpx:speed>0.065369725</gpxtpx:speed></gpxtpx:TrackPointExtension></extensions><geoidheight>-19.3</geoidheight><src>gps</src><sat>12</sat><hdop>0.77</hdop><vdop>1.09</vdop><pdop>1.34</pdop><dgpsid>0000</dgpsid></trkpt>
</trkseg></trk></gpx>