<?xml version="1.0" encoding="UTF-8" ?><gpx version="1.1" creator="GPSLogger 135 - http://gpslogger.mendhak.com/" xmlns:xsi="http://www.w3.org/2001/XMLSchema-instance" xmlns="http://www.topografix.com/GPX/1/1" xmlns:gpxtpx="http://www.garmin.com/xmlschemas/TrackPointExtension/v2" xsi:schemaLocation="http://www.topografix.com/GPX/1/1 http://www.topografix.com/GPX/1/1/gpx.xsd http://www.garmin.com/xmlschemas/TrackPointExtension/v2 https://www8.garmin.com/xmlschemas/TrackPointExtensionv2.xsd "><metadata><time>2026-08-28T23:13:32.000Z</time></metadata><trk><name>20260828</name><trkseg><trkpt lat="45.6988115" lon="-121.53172783333333"><ele>157.3</ele><time>2026-08-28T23:13:32.000Z</time><extensions><gpxtpx:TrackPointExtension><gpxtpx:speed>0.010809166</gpxtpx:speed></gpxtpx:TrackPointExtension></extensions><geoidheight>-20.1</geoidheight><src>gps</src><sat>7</sat><hdop>1.06</hdop><vdop>1.14</vdop><pdop>1.56</pdop></trkpt>
<trkpt lat="45.69878216666666" lon="-121.53178750000001"><ele>167.5</ele><time>2026-08-28T23:13:54.000Z</time><extensions><gpxtpx:TrackPointExtension><gpxtpx:speed>0.021618333</gpxtpx:speed></gpxtpx:TrackPointExtension></extensions><geoidheight>-20.1</geoidheight><src>gps</src><sat>10</sat><hdop>1.04</hdop><vdop>1.07</vdop><pdop>1.49</pdop></trkpt>
</trkseg></trk></gpx>