<?xml version="1.0" encoding="UTF-8" ?><gpx version="1.1" creator="GPSLogger 135 - http://gpslogger.mendhak.com/" xmlns:xsi="http://www.w3.org/2001/XMLSchema-instance" xmlns="http://www.topografix.com/GPX/1/1" xmlns:gpxtpx="http://www.garmin.com/xmlschemas/TrackPointExtension/v2" xsi:schemaLocation="http://www.topografix.com/GPX/1/1 http://www.topografix.com/GPX/1/1/gpx.xsd http://www.garmin.com/xmlschemas/TrackPointExtension/v2 https://www8.garmin.com/xmlschemas/TrackPointExtensionv2.xsd "><metadata><time>2026-05-30T21:15:34.000Z</time></metadata><trk><name>20260530</name><trkseg><trkpt lat="45.698713" lon="-121.53185783333332"><ele>164.3</ele><time>2026-05-30T21:15:34.000Z</time><extensions><gpxtpx:TrackPointExtension><gpxtpx:bearing>177.38</gpxtpx:bearing><gpxtpx:speed>0.40920416</gpxtpx:speed></gpxtpx:TrackPointExtension></extensions><geoidheight>-20.1</geoidheight><src>gps</src><sat>6</sat><hdop>2.08</hdop><vdop>2.12</vdop><pdop>2.97</pdop></trkpt>
</trkseg></trk></gpx>