<?xml version="1.0" encoding="UTF-8" ?><gpx version="1.1" creator="GPSLogger 135 - http://gpslogger.mendhak.com/" xmlns:xsi="http://www.w3.org/2001/XMLSchema-instance" xmlns="http://www.topografix.com/GPX/1/1" xmlns:gpxtpx="http://www.garmin.com/xmlschemas/TrackPointExtension/v2" xsi:schemaLocation="http://www.topografix.com/GPX/1/1 http://www.topografix.com/GPX/1/1/gpx.xsd http://www.garmin.com/xmlschemas/TrackPointExtension/v2 https://www8.garmin.com/xmlschemas/TrackPointExtensionv2.xsd "><metadata><time>2026-09-18T00:05:56.000Z</time></metadata><trk><name>20260917</name><trkseg><trkpt lat="45.69868266666667" lon="-121.53181116666669"><ele>159.5</ele><time>2026-09-18T00:05:56.000Z</time><extensions><gpxtpx:TrackPointExtension><gpxtpx:speed>0.0056619444</gpxtpx:speed></gpxtpx:TrackPointExtension></extensions><geoidheight>-20.1</geoidheight><src>gps</src><sat>11</sat><hdop>1.20</hdop><vdop>1.70</vdop><pdop>2.08</pdop></trkpt>
<trkpt lat="45.698728333333335" lon="-121.53179516666665"><ele>165.1</ele><time>2026-09-18T00:15:53.000Z</time><extensions><gpxtpx:TrackPointExtension><gpxtpx:speed>0.012868055</gpxtpx:speed></gpxtpx:TrackPointExtension></extensions><geoidheight>-20.1</geoidheight><src>gps</src><sat>15</sat><hdop>0.68</hdop><vdop>1.10</vdop><pdop>1.29</pdop><dgpsid>0000</dgpsid></trkpt>
</trkseg></trk></gpx>