<?xml version="1.0" encoding="UTF-8"?><kml xmlns="http://www.opengis.net/kml/2.2" xmlns:gx="http://www.google.com/kml/ext/2.2" xmlns:kml="http://www.opengis.net/kml/2.2" xmlns:atom="http://www.w3.org/2005/Atom"><Document><name>2026-01-07T18:23:12.000Z</name>
<Placemark>
<gx:Track>

<when>2026-01-07T18:23:12.000Z</when>
<gx:coord>-109.98914600000002 24.054003833333333 16.1</gx:coord>

<when>2026-01-07T18:24:08.000Z</when>
<gx:coord>-109.98919983333332 24.05399166666667 23.1</gx:coord>

<when>2026-01-07T18:25:47.000Z</when>
<gx:coord>-109.98916883333335 24.05403066666667 17.2</gx:coord>

<when>2026-01-07T18:29:18.000Z</when>
<gx:coord>-109.989134 24.054065833333333 2.6</gx:coord>

<when>2026-01-07T18:45:26.000Z</when>
<gx:coord>-109.98912666666665 24.05401733333333 3.7</gx:coord>

<when>2026-01-07T18:54:03.000Z</when>
<gx:coord>-109.98907516666668 24.05400966666667 -0.2</gx:coord>

<when>2026-01-07T18:56:26.000Z</when>
<gx:coord>-109.98912800000001 24.054018666666668 4.1</gx:coord>

<when>2026-01-07T19:00:50.000Z</when>
<gx:coord>-109.98908483333335 24.05404283333333 -4.3</gx:coord>

<when>2026-01-07T19:03:24.000Z</when>
<gx:coord>-109.98913233333333 24.054024833333333 3.2</gx:coord>

<when>2026-01-07T19:17:09.000Z</when>
<gx:coord>-109.98918266666666 24.054001666666668 9.1</gx:coord>

<when>2026-01-07T19:19:10.000Z</when>
<gx:coord>-109.98913516666668 24.053987666666664 11.1</gx:coord>

<when>2026-01-07T19:22:28.000Z</when>
<gx:coord>-109.98917733333334 24.054019333333333 12.0</gx:coord>

<when>2026-01-07T19:28:53.000Z</when>
<gx:coord>-109.98912766666666 24.054005999999998 3.5</gx:coord>

<when>2026-01-07T19:48:52.000Z</when>
<gx:coord>-109.98917750000001 24.05401416666667 12.2</gx:coord>

<when>2026-01-07T20:00:14.000Z</when>
<gx:coord>-109.9891475 24.05397233333333 16.2</gx:coord>

<when>2026-01-07T20:01:09.000Z</when>
<gx:coord>-109.989168 24.05401433333333 16.0</gx:coord>

<when>2026-01-07T20:04:27.000Z</when>
<gx:coord>-109.98912383333332 24.053982833333333 6.8</gx:coord>

<when>2026-01-07T20:06:17.000Z</when>
<gx:coord>-109.98917133333335 24.054009166666667 15.0</gx:coord>

<when>2026-01-07T20:08:51.000Z</when>
<gx:coord>-109.98917283333334 24.053963 9.8</gx:coord>

<when>2026-01-07T20:11:03.000Z</when>
<gx:coord>-109.98912383333332 24.053980666666668 5.9</gx:coord>

<when>2026-01-07T20:19:17.000Z</when>
<gx:coord>-109.98916133333333 24.054014666666664 9.4</gx:coord>

<when>2026-01-07T20:24:03.000Z</when>
<gx:coord>-109.98919933333333 24.0539855 14.7</gx:coord>

<when>2026-01-07T20:28:16.000Z</when>
<gx:coord>-109.98914966666668 24.053998 15.1</gx:coord>
</gx:Track>
</Placemark></Document></kml>
