<?xml version="1.0" encoding="UTF-8" ?><gpx version="1.1" creator="GPSLogger 135 - http://gpslogger.mendhak.com/" xmlns:xsi="http://www.w3.org/2001/XMLSchema-instance" xmlns="http://www.topografix.com/GPX/1/1" xmlns:gpxtpx="http://www.garmin.com/xmlschemas/TrackPointExtension/v2" xsi:schemaLocation="http://www.topografix.com/GPX/1/1 http://www.topografix.com/GPX/1/1/gpx.xsd http://www.garmin.com/xmlschemas/TrackPointExtension/v2 https://www8.garmin.com/xmlschemas/TrackPointExtensionv2.xsd "><metadata><time>2026-06-09T15:50:42.000Z</time></metadata><trk><name>20260609</name><trkseg><trkpt lat="45.69871499999999" lon="-121.53181583333331"><ele>162.2</ele><time>2026-06-09T15:50:42.000Z</time><extensions><gpxtpx:TrackPointExtension><gpxtpx:speed>0.18941778</gpxtpx:speed></gpxtpx:TrackPointExtension></extensions><geoidheight>-20.1</geoidheight><src>gps</src><sat>5</sat><hdop>2.21</hdop><vdop>1.85</vdop><pdop>2.88</pdop></trkpt>
<trkpt lat="45.69876366666667" lon="-121.53181583333331"><ele>166.8</ele><time>2026-06-09T15:51:38.000Z</time><extensions><gpxtpx:TrackPointExtension><gpxtpx:speed>0.036545277</gpxtpx:speed></gpxtpx:TrackPointExtension></extensions><geoidheight>-20.1</geoidheight><src>gps</src><sat>12</sat><hdop>1.15</hdop><vdop>1.48</vdop><pdop>1.87</pdop></trkpt>
<trkpt lat="45.69880716666667" lon="-121.53184433333332"><ele>172.4</ele><time>2026-06-09T15:58:40.000Z</time><extensions><gpxtpx:TrackPointExtension><gpxtpx:speed>0.014412222</gpxtpx:speed></gpxtpx:TrackPointExtension></extensions><geoidheight>-20.1</geoidheight><src>gps</src><sat>17</sat><hdop>0.69</hdop><vdop>1.13</vdop><pdop>1.32</pdop></trkpt>
<trkpt lat="45.69875183333333" lon="-121.53185433333334"><ele>166.6</ele><time>2026-06-09T16:00:30.000Z</time><extensions><gpxtpx:TrackPointExtension><gpxtpx:speed>0.05301639</gpxtpx:speed></gpxtpx:TrackPointExtension></extensions><geoidheight>-20.1</geoidheight><src>gps</src><sat>17</sat><hdop>0.85</hdop><vdop>1.33</vdop><pdop>1.58</pdop></trkpt>
</trkseg></trk></gpx>