<?xml version="1.0" encoding="UTF-8" ?><gpx version="1.1" creator="GPSLogger 135 - http://gpslogger.mendhak.com/" xmlns:xsi="http://www.w3.org/2001/XMLSchema-instance" xmlns="http://www.topografix.com/GPX/1/1" xmlns:gpxtpx="http://www.garmin.com/xmlschemas/TrackPointExtension/v2" xsi:schemaLocation="http://www.topografix.com/GPX/1/1 http://www.topografix.com/GPX/1/1/gpx.xsd http://www.garmin.com/xmlschemas/TrackPointExtension/v2 https://www8.garmin.com/xmlschemas/TrackPointExtensionv2.xsd "><metadata><time>2026-08-31T05:20:20.000Z</time></metadata><trk><name>20260830</name><trkseg><trkpt lat="46.481072833333336" lon="-122.90296816666665"><ele>146.0</ele><time>2026-08-31T05:20:20.000Z</time><extensions><gpxtpx:TrackPointExtension><gpxtpx:speed>0.025221389</gpxtpx:speed></gpxtpx:TrackPointExtension></extensions><geoidheight>-20.3</geoidheight><src>gps</src><hdop>1.03</hdop><vdop>1.05</vdop><pdop>1.47</pdop></trkpt>
</trkseg></trk></gpx>