<?xml version="1.0" encoding="UTF-8" ?><gpx version="1.1" creator="GPSLogger 135 - http://gpslogger.mendhak.com/" xmlns:xsi="http://www.w3.org/2001/XMLSchema-instance" xmlns="http://www.topografix.com/GPX/1/1" xmlns:gpxtpx="http://www.garmin.com/xmlschemas/TrackPointExtension/v2" xsi:schemaLocation="http://www.topografix.com/GPX/1/1 http://www.topografix.com/GPX/1/1/gpx.xsd http://www.garmin.com/xmlschemas/TrackPointExtension/v2 https://www8.garmin.com/xmlschemas/TrackPointExtensionv2.xsd "><metadata><time>2026-06-17T19:55:12.000Z</time></metadata><trk><name>20260617</name><trkseg><trkpt lat="45.698679999999996" lon="-121.53178583333332"><ele>161.0</ele><time>2026-06-17T19:55:12.000Z</time><extensions><gpxtpx:TrackPointExtension><gpxtpx:speed>0.17757916</gpxtpx:speed></gpxtpx:TrackPointExtension></extensions><geoidheight>-20.1</geoidheight><src>gps</src><sat>6</sat><hdop>1.84</hdop><vdop>1.93</vdop><pdop>2.67</pdop></trkpt>
<trkpt lat="45.6987225" lon="-121.53181099999999"><ele>167.3</ele><time>2026-06-17T19:57:24.000Z</time><extensions><gpxtpx:TrackPointExtension><gpxtpx:speed>0.012868055</gpxtpx:speed></gpxtpx:TrackPointExtension></extensions><geoidheight>-20.1</geoidheight><src>gps</src><sat>13</sat><hdop>1.03</hdop><vdop>1.02</vdop><pdop>1.45</pdop></trkpt>
<trkpt lat="45.69877816666667" lon="-121.53179016666667"><ele>171.4</ele><time>2026-06-17T19:58:19.000Z</time><extensions><gpxtpx:TrackPointExtension><gpxtpx:speed>0.008235555</gpxtpx:speed></gpxtpx:TrackPointExtension></extensions><geoidheight>-20.1</geoidheight><src>gps</src><sat>15</sat><hdop>0.65</hdop><vdop>0.82</vdop><pdop>1.05</pdop></trkpt>
<trkpt lat="45.69876666666667" lon="-121.53181799999999"><ele>167.7</ele><time>2026-06-17T20:00:50.000Z</time><extensions><gpxtpx:TrackPointExtension><gpxtpx:speed>0.121474445</gpxtpx:speed></gpxtpx:TrackPointExtension></extensions><geoidheight>-20.1</geoidheight><src>gps</src><hdop>1.65</hdop><vdop>2.11</vdop><pdop>2.68</pdop></trkpt>
</trkseg></trk></gpx>