<?xml version="1.0" encoding="UTF-8" ?><gpx version="1.1" creator="GPSLogger 135 - http://gpslogger.mendhak.com/" xmlns:xsi="http://www.w3.org/2001/XMLSchema-instance" xmlns="http://www.topografix.com/GPX/1/1" xmlns:gpxtpx="http://www.garmin.com/xmlschemas/TrackPointExtension/v2" xsi:schemaLocation="http://www.topografix.com/GPX/1/1 http://www.topografix.com/GPX/1/1/gpx.xsd http://www.garmin.com/xmlschemas/TrackPointExtension/v2 https://www8.garmin.com/xmlschemas/TrackPointExtensionv2.xsd "><metadata><time>2026-09-18T16:59:53.000Z</time></metadata><trk><name>20260918</name><trkseg><trkpt lat="45.69868066666666" lon="-121.53182516666666"><ele>164.1</ele><time>2026-09-18T16:59:53.000Z</time><extensions><gpxtpx:TrackPointExtension><gpxtpx:speed>0.2568464</gpxtpx:speed></gpxtpx:TrackPointExtension></extensions><geoidheight>-20.1</geoidheight><src>gps</src><hdop>2.14</hdop><vdop>2.20</vdop><pdop>3.07</pdop></trkpt>
<trkpt lat="45.69873299999999" lon="-121.53179733333333"><ele>162.7</ele><time>2026-09-18T17:00:15.000Z</time><extensions><gpxtpx:TrackPointExtension><gpxtpx:speed>0.05970778</gpxtpx:speed></gpxtpx:TrackPointExtension></extensions><geoidheight>-20.1</geoidheight><src>gps</src><sat>6</sat><hdop>1.85</hdop><vdop>1.57</vdop><pdop>2.42</pdop></trkpt>
<trkpt lat="45.69878983333333" lon="-121.53178199999999"><ele>161.9</ele><time>2026-09-18T17:02:27.000Z</time><extensions><gpxtpx:TrackPointExtension><gpxtpx:speed>0.009779722</gpxtpx:speed></gpxtpx:TrackPointExtension></extensions><geoidheight>-20.1</geoidheight><src>gps</src><sat>10</sat><hdop>1.16</hdop><vdop>1.04</vdop><pdop>1.56</pdop></trkpt>
<trkpt lat="45.69875466666667" lon="-121.53183316666667"><ele>158.5</ele><time>2026-09-18T17:05:12.000Z</time><extensions><gpxtpx:TrackPointExtension><gpxtpx:speed>0.06897278</gpxtpx:speed></gpxtpx:TrackPointExtension></extensions><geoidheight>-20.1</geoidheight><src>gps</src><sat>11</sat><hdop>0.97</hdop><vdop>1.22</vdop><pdop>1.56</pdop></trkpt>
<trkpt lat="45.69871166666667" lon="-121.531866"><ele>153.6</ele><time>2026-09-18T17:13:05.000Z</time><extensions><gpxtpx:TrackPointExtension><gpxtpx:speed>0.009265</gpxtpx:speed></gpxtpx:TrackPointExtension></extensions><geoidheight>-20.1</geoidheight><src>gps</src><sat>13</sat><hdop>0.79</hdop><vdop>1.09</vdop><pdop>1.35</pdop></trkpt>
<trkpt lat="45.69875783333334" lon="-121.53184716666668"><ele>161.2</ele><time>2026-09-18T17:14:33.000Z</time><extensions><gpxtpx:TrackPointExtension><gpxtpx:speed>0.025221389</gpxtpx:speed></gpxtpx:TrackPointExtension></extensions><geoidheight>-20.1</geoidheight><src>gps</src><sat>13</sat><hdop>0.75</hdop><vdop>1.10</vdop><pdop>1.33</pdop></trkpt>
<trkpt lat="45.69880366666666" lon="-121.53185216666667"><ele>169.3</ele><time>2026-09-18T17:19:52.000Z</time><extensions><gpxtpx:TrackPointExtension><gpxtpx:speed>0.15956388</gpxtpx:speed></gpxtpx:TrackPointExtension></extensions><geoidheight>-20.1</geoidheight><src>gps</src><sat>14</sat><hdop>0.80</hdop><vdop>1.17</vdop><pdop>1.42</pdop></trkpt>
<trkpt lat="45.6988115" lon="-121.53178583333332"><ele>179.2</ele><time>2026-09-18T20:15:50.000Z</time><extensions><gpxtpx:TrackPointExtension><gpxtpx:speed>0.14000444</gpxtpx:speed></gpxtpx:TrackPointExtension></extensions><geoidheight>-20.1</geoidheight><src>gps</src><sat>7</sat><hdop>2.13</hdop><vdop>2.60</vdop><pdop>3.36</pdop></trkpt>
<trkpt lat="45.698848500000004" lon="-121.53184516666667"><ele>181.9</ele><time>2026-09-18T20:18:13.000Z</time><extensions><gpxtpx:TrackPointExtension><gpxtpx:speed>0.08647333</gpxtpx:speed></gpxtpx:TrackPointExtension></extensions><geoidheight>-20.1</geoidheight><src>gps</src><sat>11</sat><hdop>1.55</hdop><vdop>1.89</vdop><pdop>2.45</pdop></trkpt>
<trkpt lat="45.698804" lon="-121.53186016666665"><ele>172.6</ele><time>2026-09-18T20:22:37.000Z</time><extensions><gpxtpx:TrackPointExtension><gpxtpx:speed>0.102429725</gpxtpx:speed></gpxtpx:TrackPointExtension></extensions><geoidheight>-20.1</geoidheight><src>gps</src><sat>15</sat><hdop>0.92</hdop><vdop>1.18</vdop><pdop>1.49</pdop></trkpt>
<trkpt lat="45.69875733333333" lon="-121.53184866666668"><ele>171.4</ele><time>2026-09-18T20:31:13.000Z</time><extensions><gpxtpx:TrackPointExtension><gpxtpx:speed>0.021103611</gpxtpx:speed></gpxtpx:TrackPointExtension></extensions><geoidheight>-20.1</geoidheight><src>gps</src><sat>14</sat><hdop>1.37</hdop><vdop>1.89</vdop><pdop>2.34</pdop></trkpt>
<trkpt lat="45.69867566666667" lon="-121.53179116666666"><time>2026-09-19T03:21:41.000Z</time><extensions><gpxtpx:TrackPointExtension><gpxtpx:speed>0.084414445</gpxtpx:speed></gpxtpx:TrackPointExtension></extensions><src>gps</src><hdop>3.74</hdop><vdop>1.00</vdop><pdop>3.87</pdop></trkpt>
<trkpt lat="45.6986265" lon="-121.53178600000001"><ele>145.3</ele><time>2026-09-19T03:21:52.000Z</time><extensions><gpxtpx:TrackPointExtension><gpxtpx:speed>0.026765555</gpxtpx:speed></gpxtpx:TrackPointExtension></extensions><geoidheight>-20.1</geoidheight><src>gps</src><sat>6</sat><hdop>3.08</hdop><vdop>2.26</vdop><pdop>3.82</pdop></trkpt>
<trkpt lat="45.698699500000004" lon="-121.53181950000001"><ele>153.1</ele><time>2026-09-19T03:22:03.000Z</time><extensions><gpxtpx:TrackPointExtension><gpxtpx:speed>0.026250834</gpxtpx:speed></gpxtpx:TrackPointExtension></extensions><geoidheight>-20.1</geoidheight><src>gps</src><sat>9</sat><hdop>0.95</hdop><vdop>1.40</vdop><pdop>1.69</pdop></trkpt>
<trkpt lat="45.698749" lon="-121.53182183333332"><ele>157.6</ele><time>2026-09-19T03:22:25.000Z</time><extensions><gpxtpx:TrackPointExtension><gpxtpx:speed>0.07514945</gpxtpx:speed></gpxtpx:TrackPointExtension></extensions><geoidheight>-20.1</geoidheight><src>gps</src><sat>13</sat><hdop>0.77</hdop><vdop>1.28</vdop><pdop>1.50</pdop></trkpt>
<trkpt lat="45.69879283333333" lon="-121.53186033333334"><ele>167.7</ele><time>2026-09-19T03:26:16.000Z</time><extensions><gpxtpx:TrackPointExtension><gpxtpx:speed>0.04786917</gpxtpx:speed></gpxtpx:TrackPointExtension></extensions><geoidheight>-20.1</geoidheight><src>gps</src><sat>14</sat><hdop>0.73</hdop><vdop>1.26</vdop><pdop>1.46</pdop></trkpt>
</trkseg></trk></gpx>