<?xml version="1.0" encoding="UTF-8"?><kml xmlns="http://www.opengis.net/kml/2.2" xmlns:gx="http://www.google.com/kml/ext/2.2" xmlns:kml="http://www.opengis.net/kml/2.2" xmlns:atom="http://www.w3.org/2005/Atom"><Document><name>2026-06-17T19:55:12.000Z</name>
<Placemark>
<gx:Track>

<when>2026-06-17T19:55:12.000Z</when>
<gx:coord>-121.53178583333332 45.698679999999996 161.0</gx:coord>

<when>2026-06-17T19:57:24.000Z</when>
<gx:coord>-121.53181099999999 45.6987225 167.3</gx:coord>

<when>2026-06-17T19:58:19.000Z</when>
<gx:coord>-121.53179016666667 45.69877816666667 171.4</gx:coord>

<when>2026-06-17T20:00:50.000Z</when>
<gx:coord>-121.53181799999999 45.69876666666667 167.7</gx:coord>
</gx:Track>
</Placemark></Document></kml>
