<?xml version="1.0" encoding="UTF-8"?><kml xmlns="http://www.opengis.net/kml/2.2" xmlns:gx="http://www.google.com/kml/ext/2.2" xmlns:kml="http://www.opengis.net/kml/2.2" xmlns:atom="http://www.w3.org/2005/Atom"><Document><name>2026-05-29T00:38:03.000Z</name>
<Placemark>
<gx:Track>

<when>2026-05-29T00:38:03.000Z</when>
<gx:coord>-121.53187000000001 45.69865683333334 182.6</gx:coord>

<when>2026-05-29T00:38:13.000Z</when>
<gx:coord>-121.53181500000001 45.698790333333335 171.1</gx:coord>

<when>2026-05-29T00:39:20.000Z</when>
<gx:coord>-121.531813 45.698861333333326 168.2</gx:coord>

<when>2026-05-29T00:39:31.000Z</when>
<gx:coord>-121.53180150000001 45.698816 167.1</gx:coord>

<when>2026-05-29T00:41:43.000Z</when>
<gx:coord>-121.5318205 45.69875566666666 164.3</gx:coord>

<when>2026-05-29T00:42:27.000Z</when>
<gx:coord>-121.53181416666666 45.69880666666666 165.1</gx:coord>

<when>2026-05-29T01:15:55.000Z</when>
<gx:coord>-121.53185966666666 45.6987315 0.0</gx:coord>

<when>2026-05-29T01:20:26.000Z</when>
<gx:coord>-121.53177499999998 45.69867533333333 163.9</gx:coord>

<when>2026-05-29T01:20:37.000Z</when>
<gx