<?xml version="1.0" encoding="UTF-8"?><kml xmlns="http://www.opengis.net/kml/2.2" xmlns:gx="http://www.google.com/kml/ext/2.2" xmlns:kml="http://www.opengis.net/kml/2.2" xmlns:atom="http://www.w3.org/2005/Atom"><Document><name>2026-02-08T01:43:20.000Z</name>
<Placemark>
<gx:Track>

<when>2026-02-08T01:43:20.000Z</when>
<gx:coord>-109.98903416666666 24.054010333333334 8.3</gx:coord>

<when>2026-02-08T01:43:52.000Z</when>
<gx:coord>-109.98905283333333 24.054076000000002 9.0</gx:coord>

<when>2026-02-08T01:49:44.000Z</when>
<gx:coord>-109.98906666666666 24.054122 6.1</gx:coord>

<when>2026-02-08T01:51:12.000Z</when>
<gx:coord>-109.98907666666668 24.054166833333337 8.4</gx:coord>
</gx:Track>
</Placemark></Document></kml>
